LanguageId,LanguageName,Latitude,Longitude,WordId,WordModernName1,WordModernName2,WordProtoName1,WordProtoName2,Phonetic,SpellingAltv1,SpellingAltv2,NotCognateWithMainWordInThisFamily
53201000009,Abun,-0.57,132.42,5810,rain,,,,nuɡi,,,0
53201000009,Abun,-0.57,132.42,5840,cloud,,,,ainatɛm,,,0
53201000009,Abun,-0.57,132.42,5850,wind,,,,nufuf,,,0
53201000009,Abun,-0.57,132.42,5860,fog,,,,duk,,,0
53201000009,Abun,-0.57,132.42,5920,thunder,,,,ɡupu,,,0
53201000009,Abun,-0.57,132.42,5930,lightning,,,,nuaɾ,,,0
53801000009,Irires,-0.6051,132.4896,5810,rain,,,,mɔtʃ,,,0
53801000009,Irires,-0.6051,132.4896,5840,cloud,,,,mɔwakʰ,,,0
53801000009,Irires,-0.6051,132.4896,5850,wind,,,,mɔfen,,,0
53801000009,Irires,-0.6051,132.4896,5860,fog,,,,mɔswaitʃ,,,0
53801000009,Irires,-0.6051,132.4896,5920,thunder,,,,mɔcɔi,,,0
53801000009,Irires,-0.6051,132.4896,5930,lightning,,,,muŋɡɔɾafɾet,,,0
53601000009,Miyah,-0.76268,132.57953,5810,rain,,,,ɔm,,,0
53601000009,Miyah,-0.76268,132.57953,5840,cloud,,,,ɛpuwɔ,,,0
53601000009,Miyah,-0.76268,132.57953,5850,wind,,,,fɔs,,,0
53601000009,Miyah,-0.76268,132.57953,5860,fog,,,,ɛpuwɔndafɔn,,,0
53601000009,Miyah,-0.76268,132.57953,5920,thunder,,,,ajɔhmitiɛ,,,0
53601000009,Miyah,-0.76268,132.57953,5930,lightning,,,,ɛɾiɾ,,,0
53301000009,Mpur,-0.5,133.17,5810,rain,,,,papɛt,,,0
53301000009,Mpur,-0.5,133.17,5840,cloud,,,,pukɾam,,,0
53301000009,Mpur,-0.5,133.17,5850,wind,,,,iʤau,,,0
53301000009,Mpur,-0.5,133.17,5860,fog,,,,bum,,,0
53301000009,Mpur,-0.5,133.17,5920,thunder,,,,kaɾaɾu,,,0
53301000009,Mpur,-0.5,133.17,5930,lightning,,,,fɾeb,,,0
53121400009,"W. Bomberai: Iha",-2.81,132.27,5810,rain,,,,kɾi,,,0
53121400009,"W. Bomberai: Iha",-2.81,132.27,5850,wind,,,,kɔmpʊm,,,0
53121400009,"W. Bomberai: Iha",-2.81,132.27,5860,fog,,,,sawan,,,0
53121400009,"W. Bomberai: Iha",-2.81,132.27,5920,thunder,,,,wɔŋtɾʊ,,,0
53121400009,"W. Bomberai: Iha",-2.81,132.27,5930,lightning,,,,wɔŋmɛniŋ,,,0
52331605509,"Mek W.: Nalca",-4.26,139.88,5810,rain,,,,nok,,,0
52331605509,"Mek W.: Nalca",-4.26,139.88,5840,cloud,,,,dep,,,0
52331605509,"Mek W.: Nalca",-4.26,139.88,5850,wind,,,,wuɾupna,,,0
52331605509,"Mek W.: Nalca",-4.26,139.88,5860,fog,,,,suɡnu,,,0
52331605509,"Mek W.: Nalca",-4.26,139.88,5920,thunder,,,,liŋi,,,0
52331605509,"Mek W.: Nalca",-4.26,139.88,5930,lightning,,,,joma,,,0
52241505509,Mee,-3.89,136.02,5810,rain,,,,idi,,,0
52241505509,Mee,-3.89,136.02,5840,cloud,,,,jabai,,,0
52241505509,Mee,-3.89,136.02,5850,wind,,,,bouw,,,0
52241505509,Mee,-3.89,136.02,5860,fog,,,,takimidoke,,,0
52241505509,Mee,-3.89,136.02,5920,thunder,,,,jilimuɽu,,,0
52241505509,Mee,-3.89,136.02,5930,lightning,,,,wakibeɽo,,,0
56211575509,Ambel,-0.18,130.92,5810,rain,,,,mi,,,0
56211575509,Ambel,-0.18,130.92,5840,cloud,,,,moɾeimet,,,0
56211575509,Ambel,-0.18,130.92,5850,wind,,,,madu,,,0
56211575509,Ambel,-0.18,130.92,5860,fog,,,,aɡim,,,0
56211575509,Ambel,-0.18,130.92,5920,thunder,,,,lalɔ,,,0
56211575509,Ambel,-0.18,130.92,5930,lightning,,,,lalɛu,,,0
56231232209,"Yapen: Wooi",-1.63,135.48,5810,rain,,,,mamaŋ,,,0
56231232209,"Yapen: Wooi",-1.63,135.48,5840,cloud,,,,mandep,,,0
56231232209,"Yapen: Wooi",-1.63,135.48,5850,wind,,,,wanaŋ,,,0
56231232209,"Yapen: Wooi",-1.63,135.48,5860,fog,,,,piwoɾi,,,0
56231232209,"Yapen: Wooi",-1.63,135.48,5920,thunder,,,,kuɾuja,,,0
56231232209,"Yapen: Wooi",-1.63,135.48,5930,lightning,,,,bieɾia,,,0
56231262309,"Yapen: Poom",-1.64,135.62,5810,rain,,,,mijuna,,,0
56231262309,"Yapen: Poom",-1.64,135.62,5840,cloud,,,,mandep,,,0
56231262309,"Yapen: Poom",-1.64,135.62,5850,wind,,,,wana,,,0
56231262309,"Yapen: Poom",-1.64,135.62,5860,fog,,,,papau,,,0
56231262309,"Yapen: Poom",-1.64,135.62,5920,thunder,,,,kadidiu,,,0
56231262309,"Yapen: Poom",-1.64,135.62,5930,lightning,,,,βiβiheɾia,,,0
56231233509,Ansus,-1.73,135.81,5810,rain,,,,mamaŋ,,,0
56231233509,Ansus,-1.73,135.81,5840,cloud,,,,mandipi,,,0
56231233509,Ansus,-1.73,135.81,5850,wind,,,,wanaŋ,,,0
56231233509,Ansus,-1.73,135.81,5860,fog,,,,pipapa,,,0
56231233509,Ansus,-1.73,135.81,5920,thunder,,,,kaidu,,,0
56231233509,Ansus,-1.73,135.81,5930,lightning,,,,kɛwɛwaɾi,,,0
56231422709,Biak,-0.95,135.88,5810,rain,,,,imjun,,,0
56231422709,Biak,-0.95,135.88,5840,cloud,,,,mandep,,,0
56231422709,Biak,-0.95,135.88,5850,wind,,,,wam,,,0
56231422709,Biak,-0.95,135.88,5920,thunder,,,,kduɾe,,,0
56231422709,Biak,-0.95,135.88,5930,lightning,,,,aɾbeweɾ,,,0
56261005509,Waropen,-2.31,136.63,5810,rain,,,,dɔɾa,,,0
56261005509,Waropen,-2.31,136.63,5840,cloud,,,,dɔɾawai,,,0
56261005509,Waropen,-2.31,136.63,5850,wind,,,,ɡama,,,0
56261005509,Waropen,-2.31,136.63,5860,fog,,,,masasin,,,0
56261005509,Waropen,-2.31,136.63,5920,thunder,,,,ɾafakɔ,,,0
56261005509,Waropen,-2.31,136.63,5930,lightning,,,,mbeɾewa,,,0
