LanguageId,LanguageName,Latitude,Longitude,WordId,WordModernName1,WordModernName2,WordProtoName1,WordProtoName2,Phonetic,SpellingAltv1,SpellingAltv2,NotCognateWithMainWordInThisFamily
53201000009,Abun,-0.57,132.42,8020,come,,,,ma,,,0
53201000009,Abun,-0.57,132.42,8030,walk,,,,mu,,,0
53201000009,Abun,-0.57,132.42,8090,grow,,,,kɔm,,,0
53201000009,Abun,-0.57,132.42,8110,stand,,,,ti,,,0
53201000009,Abun,-0.57,132.42,8120,sit,,,,kɛm,,,0
53201000009,Abun,-0.57,132.42,8130,fall,,,,ɡɛs,,,0
53201000009,Abun,-0.57,132.42,8140,lie_down,,,,ɾɔndɾan,,,0
53201000009,Abun,-0.57,132.42,8150,turn,,,,bɾɛk,,,0
53201000009,Abun,-0.57,132.42,8180,climb,,,,it,,,0
53201000009,Abun,-0.57,132.42,8210,swim,,,,dɛ,,,0
53201000009,Abun,-0.57,132.42,8220,fly_verb,,,,ɔk,,,0
53201000009,Abun,-0.57,132.42,8260,throw,,,,am,,,0
53201000009,Abun,-0.57,132.42,8270,hide,,,,bɛt,,,0
53201000009,Abun,-0.57,132.42,8290,chew,,,,dat,,,0
53201000009,Abun,-0.57,132.42,8310,eat,,,,ɡit,,,0
53201000009,Abun,-0.57,132.42,8320,drink,,,,da,,,0
53201000009,Abun,-0.57,132.42,8330,bite,,,,ɔt,,,0
53201000009,Abun,-0.57,132.42,8340,suck,,,,ɔm,,,0
53201000009,Abun,-0.57,132.42,8360,yawn,,,,nanbawik,,,0
53201000009,Abun,-0.57,132.42,8370,spit,,,,sukut,,,0
53201000009,Abun,-0.57,132.42,8400,dream,,,,sunda,,,0
53201000009,Abun,-0.57,132.42,8410,sleep,,,,sɛm,,,0
53201000009,Abun,-0.57,132.42,8420,live,,,,mbau,,,0
53201000009,Abun,-0.57,132.42,8430,die,,,,daɾɛ,,,0
53201000009,Abun,-0.57,132.42,8440,kill,,,,ɡu,,,0
53201000009,Abun,-0.57,132.42,8510,see,,,,mɛ,,,0
53201000009,Abun,-0.57,132.42,8520,hear,,,,ʤam,,,0
53201000009,Abun,-0.57,132.42,8540,sniff,,,,ni,,,0
53201000009,Abun,-0.57,132.42,8550,know,,,,ʤam,,,0
53201000009,Abun,-0.57,132.42,8560,think,,,,jɛmɲot,,,0
53201000009,Abun,-0.57,132.42,8580,laugh,,,,sa,,,0
53201000009,Abun,-0.57,132.42,8590,cry,,,,wɔ,,,0
53201000009,Abun,-0.57,132.42,8670,blow,,,,fuf,,,0
53201000009,Abun,-0.57,132.42,8680,burn,,,,kuwas,,,0
53201000009,Abun,-0.57,132.42,8690,flow,,,,mu,,,0
53201000009,Abun,-0.57,132.42,8740,sew,,,,bit,,,0
53201000009,Abun,-0.57,132.42,8800,pound,,,,tut,,,0
53201000009,Abun,-0.57,132.42,8810,hit,,,,ɡu,,,0
53201000009,Abun,-0.57,132.42,8870,cut,,,,sap,,,0
53201000009,Abun,-0.57,132.42,8880,split,,,,pɛtwɛ,,,0
53201000009,Abun,-0.57,132.42,8890,dig,,,,ɾɔm,,,0
53201000009,Abun,-0.57,132.42,8920,hunt,,,,sɔk,,,0
53201000009,Abun,-0.57,132.42,8930,hold,,,,but,,,0
53201000009,Abun,-0.57,132.42,8950,fear,,,,ɲu,,,0
53201000009,Abun,-0.57,132.42,8960,count,,,,nɛ,,,0
53201000009,Abun,-0.57,132.42,8970,breathe,,,,tikmas,,,0
53201000009,Abun,-0.57,132.42,9000,vomit,,,,ɡwi,,,0
53201000009,Abun,-0.57,132.42,9010,tie,,,,ɾai,,,0
53201000009,Abun,-0.57,132.42,9020,squeeze,,,,jɛmuk,,,0
53201000009,Abun,-0.57,132.42,9030,swell,,,,ɡun,,,0
53201000009,Abun,-0.57,132.42,9040,say,,,,du,,,0
53201000009,Abun,-0.57,132.42,9050,scratch,,,,bɾo,,,0
53201000009,Abun,-0.57,132.42,9060,stab,,,,ɡat,,,0
53201000009,Abun,-0.57,132.42,9120,buy,,,,sɔ,,,0
53201000009,Abun,-0.57,132.42,9130,steal,,,,sumsi,,,0
53201000009,Abun,-0.57,132.42,9150,choose,,,,sɔi,,,0
53201000009,Abun,-0.57,132.42,9180,plant,,,,ʤan,,,0
53201000009,Abun,-0.57,132.42,9220,cook,,,,kɔn,,,0
53201000009,Abun,-0.57,132.42,9400,shoot,,,,pɛt,,,0
53201000009,Abun,-0.57,132.42,9500,work,,,,bɛnsu,,,0
53201000009,Abun,-0.57,132.42,9620,open,,,,ɡak,,,0
53801000009,Irires,-0.6051,132.4896,8020,come,,,,dinin,,,0
53801000009,Irires,-0.6051,132.4896,8030,walk,,,,ditʃ,,,0
53801000009,Irires,-0.6051,132.4896,8090,grow,,,,ɛɾ,,,0
53801000009,Irires,-0.6051,132.4896,8110,stand,,,,dut,,,0
53801000009,Irires,-0.6051,132.4896,8120,sit,,,,dikɛɾ,,,0
53801000009,Irires,-0.6051,132.4896,8130,fall,,,,diciɾ,,,0
53801000009,Irires,-0.6051,132.4896,8140,lie_down,,,,diɛh,,,0
53801000009,Irires,-0.6051,132.4896,8150,turn,,,,dɔkutʃ,,,0
53801000009,Irires,-0.6051,132.4896,8180,climb,,,,dukʰ,,,0
53801000009,Irires,-0.6051,132.4896,8210,swim,,,,diɾ,,,0
53801000009,Irires,-0.6051,132.4896,8220,fly_verb,,,,ɔf,,,0
53801000009,Irires,-0.6051,132.4896,8260,throw,,,,ditʰ,,,0
53801000009,Irires,-0.6051,132.4896,8270,hide,,,,ditambus,,,0
53801000009,Irires,-0.6051,132.4896,8290,chew,,,,ditis,,,0
53801000009,Irires,-0.6051,132.4896,8310,eat,,,,dit,,,0
53801000009,Irires,-0.6051,132.4896,8320,drink,,,,ditʃ,,,0
53801000009,Irires,-0.6051,132.4896,8330,bite,,,,diskʰ,,,0
53801000009,Irires,-0.6051,132.4896,8340,suck,,,,duf,,,0
53801000009,Irires,-0.6051,132.4896,8360,yawn,,,,dɛfɛnɔkʰ,,,0
53801000009,Irires,-0.6051,132.4896,8370,spit,,,,diciɾf,,,0
53801000009,Irires,-0.6051,132.4896,8400,dream,,,,dɛsiɛh,,,0
53801000009,Irires,-0.6051,132.4896,8410,sleep,,,,diɛh,,,0
53801000009,Irires,-0.6051,132.4896,8420,live,,,,duif,,,0
53801000009,Irires,-0.6051,132.4896,8430,die,,,,diu,,,0
53801000009,Irires,-0.6051,132.4896,8440,kill,,,,desah,,,0
53801000009,Irires,-0.6051,132.4896,8510,see,,,,dikʰ,,,0
53801000009,Irires,-0.6051,132.4896,8520,hear,,,,dikʰ,,,0
53801000009,Irires,-0.6051,132.4896,8540,sniff,,,,dims,,,0
53801000009,Irires,-0.6051,132.4896,8550,know,,,,dinak,,,0
53801000009,Irires,-0.6051,132.4896,8560,think,,,,distɔh,,,0
53801000009,Irires,-0.6051,132.4896,8580,laugh,,,,dititiu,,,0
53801000009,Irires,-0.6051,132.4896,8590,cry,,,,diwius,,,0
53801000009,Irires,-0.6051,132.4896,8670,blow,,,,duf,,,0
53801000009,Irires,-0.6051,132.4896,8680,burn,,,,diku,,,0
53801000009,Irires,-0.6051,132.4896,8690,flow,,,,ai,,,0
53801000009,Irires,-0.6051,132.4896,8740,sew,,,,desiɾ,,,0
53801000009,Irires,-0.6051,132.4896,8800,pound,,,,dutʃ,,,0
53801000009,Irires,-0.6051,132.4896,8810,hit,,,,dimkʰ,,,0
53801000009,Irires,-0.6051,132.4896,8870,cut,,,,dɔɡɔu,,,0
53801000009,Irires,-0.6051,132.4896,8880,split,,,,dɔɡɔudɔɡɔu,,,0
53801000009,Irires,-0.6051,132.4896,8890,dig,,,,dɛwan,,,0
53801000009,Irires,-0.6051,132.4896,8920,hunt,,,,dutʃ,,,0
53801000009,Irires,-0.6051,132.4896,8930,hold,,,,dɛɾusutʃ,,,0
53801000009,Irires,-0.6051,132.4896,8950,fear,,,,dimas,,,0
53801000009,Irires,-0.6051,132.4896,8960,count,,,,ditɔɡʰ,,,0
53801000009,Irires,-0.6051,132.4896,8970,breathe,,,,dedɔifɛn,,,0
53801000009,Irires,-0.6051,132.4896,9000,vomit,,,,dusis,,,0
53801000009,Irires,-0.6051,132.4896,9010,tie,,,,dɛhas,,,0
53801000009,Irires,-0.6051,132.4896,9020,squeeze,,,,dɛwitʰ,,,0
53801000009,Irires,-0.6051,132.4896,9030,swell,,,,astitʃ,,,0
53801000009,Irires,-0.6051,132.4896,9040,say,,,,dicɔtʰ,,,0
53801000009,Irires,-0.6051,132.4896,9050,scratch,,,,diɛh,,,0
53801000009,Irires,-0.6051,132.4896,9060,stab,,,,dudutʃ,,,0
53801000009,Irires,-0.6051,132.4896,9120,buy,,,,distʃ,,,0
53801000009,Irires,-0.6051,132.4896,9130,steal,,,,dukuɾakʰ,,,0
53801000009,Irires,-0.6051,132.4896,9150,choose,,,,dutuɾ,,,0
53801000009,Irires,-0.6051,132.4896,9180,plant,,,,duh,,,0
53801000009,Irires,-0.6051,132.4896,9220,cook,,,,dicɛmɔk,,,0
53801000009,Irires,-0.6051,132.4896,9400,shoot,,,,dif,,,0
53801000009,Irires,-0.6051,132.4896,9500,work,,,,din,,,0
53801000009,Irires,-0.6051,132.4896,9620,open,,,,dɛpaɾ,,,0
53601000009,Miyah,-0.76268,132.57953,8020,come,,,,pɛmʌ,,,0
53601000009,Miyah,-0.76268,132.57953,8030,walk,,,,pɔmɔnɔ,,,0
53601000009,Miyah,-0.76268,132.57953,8090,grow,,,,mapɔ,,,0
53601000009,Miyah,-0.76268,132.57953,8110,stand,,,,pɾɔs,,,0
53601000009,Miyah,-0.76268,132.57953,8120,sit,,,,huɾɛn,,,0
53601000009,Miyah,-0.76268,132.57953,8130,fall,,,,mbɛtu,,,0
53601000009,Miyah,-0.76268,132.57953,8140,lie_down,,,,pɾiʌ,,,0
53601000009,Miyah,-0.76268,132.57953,8150,turn,,,,pɛsɛkpɛu,,,0
53601000009,Miyah,-0.76268,132.57953,8180,climb,,,,put,,,0
53601000009,Miyah,-0.76268,132.57953,8210,swim,,,,pɛtɛ,,,0
53601000009,Miyah,-0.76268,132.57953,8220,fly_verb,,,,jɛɾu,,,0
53601000009,Miyah,-0.76268,132.57953,8260,throw,,,,suwɛn,,,0
53601000009,Miyah,-0.76268,132.57953,8270,hide,,,,pumwɔt,,,0
53601000009,Miyah,-0.76268,132.57953,8290,chew,,,,bɛtak,,,0
53601000009,Miyah,-0.76268,132.57953,8310,eat,,,,pit,,,0
53601000009,Miyah,-0.76268,132.57953,8320,drink,,,,pɛtʌ,,,0
53601000009,Miyah,-0.76268,132.57953,8330,bite,,,,pɛfit,,,0
53601000009,Miyah,-0.76268,132.57953,8340,suck,,,,pɛnɔs,,,0
53601000009,Miyah,-0.76268,132.57953,8360,yawn,,,,fakɔt,,,0
53601000009,Miyah,-0.76268,132.57953,8370,spit,,,,hawɔt,,,0
53601000009,Miyah,-0.76268,132.57953,8400,dream,,,,sɛmi,,,0
53601000009,Miyah,-0.76268,132.57953,8410,sleep,,,,tiɛn,,,0
53601000009,Miyah,-0.76268,132.57953,8420,live,,,,pau,,,0
53601000009,Miyah,-0.76268,132.57953,8430,die,,,,hi,,,0
53601000009,Miyah,-0.76268,132.57953,8440,kill,,,,sʌh,,,0
53601000009,Miyah,-0.76268,132.57953,8510,see,,,,ki,,,0
53601000009,Miyah,-0.76268,132.57953,8520,hear,,,,pɾi,,,0
53601000009,Miyah,-0.76268,132.57953,8540,sniff,,,,pɛnin,,,0
53601000009,Miyah,-0.76268,132.57953,8550,know,,,,pɔhaɾ,,,0
53601000009,Miyah,-0.76268,132.57953,8560,think,,,,pɛnɔt,,,0
53601000009,Miyah,-0.76268,132.57953,8580,laugh,,,,pɛsah,,,0
53601000009,Miyah,-0.76268,132.57953,8590,cry,,,,piwijʌ,,,0
53601000009,Miyah,-0.76268,132.57953,8670,blow,,,,pɛfi,,,0
53601000009,Miyah,-0.76268,132.57953,8680,burn,,,,kɔ,,,0
53601000009,Miyah,-0.76268,132.57953,8690,flow,,,,siaɾ,,,0
53601000009,Miyah,-0.76268,132.57953,8740,sew,,,,sɛpis,,,0
53601000009,Miyah,-0.76268,132.57953,8800,pound,,,,pumuk,,,0
53601000009,Miyah,-0.76268,132.57953,8810,hit,,,,pi,,,0
53601000009,Miyah,-0.76268,132.57953,8870,cut,,,,sawijat,,,0
53601000009,Miyah,-0.76268,132.57953,8880,split,,,,pumapufaɛ,,,0
53601000009,Miyah,-0.76268,132.57953,8890,dig,,,,pɛpah,,,0
53601000009,Miyah,-0.76268,132.57953,8920,hunt,,,,pɛmsiah,,,0
53601000009,Miyah,-0.76268,132.57953,8930,hold,,,,pɛpɔ,,,0
53601000009,Miyah,-0.76268,132.57953,8950,fear,,,,kua,,,0
53601000009,Miyah,-0.76268,132.57953,8960,count,,,,sunuk,,,0
53601000009,Miyah,-0.76268,132.57953,8970,breathe,,,,pɛi,,,0
53601000009,Miyah,-0.76268,132.57953,9000,vomit,,,,tɔm,,,0
53601000009,Miyah,-0.76268,132.57953,9010,tie,,,,pɛkɛ,,,0
53601000009,Miyah,-0.76268,132.57953,9020,squeeze,,,,pɛftuɔk,,,0
53601000009,Miyah,-0.76268,132.57953,9030,swell,,,,majuɔ,,,0
53601000009,Miyah,-0.76268,132.57953,9040,say,,,,puwɛ,,,0
53601000009,Miyah,-0.76268,132.57953,9050,scratch,,,,huwɔh,,,0
53601000009,Miyah,-0.76268,132.57953,9060,stab,,,,pɛmɛ,,,0
53601000009,Miyah,-0.76268,132.57953,9120,buy,,,,tiɾum,,,0
53601000009,Miyah,-0.76268,132.57953,9130,steal,,,,suwɔf,,,0
53601000009,Miyah,-0.76268,132.57953,9150,choose,,,,pɛtɾɛ,,,0
53601000009,Miyah,-0.76268,132.57953,9180,plant,,,,pɔpum,,,0
53601000009,Miyah,-0.76268,132.57953,9220,cook,,,,pim,,,0
53601000009,Miyah,-0.76268,132.57953,9400,shoot,,,,pupu,,,0
53601000009,Miyah,-0.76268,132.57953,9500,work,,,,pɛmʌ,,,0
53601000009,Miyah,-0.76268,132.57953,9620,open,,,,pɛtʌk,,,0
53301000009,Mpur,-0.5,133.17,8020,come,,,,jaɾob,,,0
53301000009,Mpur,-0.5,133.17,8030,walk,,,,un,,,0
53301000009,Mpur,-0.5,133.17,8090,grow,,,,fɔ,,,0
53301000009,Mpur,-0.5,133.17,8110,stand,,,,i,,,0
53301000009,Mpur,-0.5,133.17,8120,sit,,,,ʤap,,,0
53301000009,Mpur,-0.5,133.17,8130,fall,,,,kwɛm,,,0
53301000009,Mpur,-0.5,133.17,8140,lie_down,,,,kɔn,,,0
53301000009,Mpur,-0.5,133.17,8150,turn,,,,bɾɛk,,,0
53301000009,Mpur,-0.5,133.17,8180,climb,,,,fɔ,,,0
53301000009,Mpur,-0.5,133.17,8210,swim,,,,ʤap,,,0
53301000009,Mpur,-0.5,133.17,8220,fly_verb,,,,bubwaɾ,,,0
53301000009,Mpur,-0.5,133.17,8260,throw,,,,fa,,,0
53301000009,Mpur,-0.5,133.17,8270,hide,,,,kaʤup,,,0
53301000009,Mpur,-0.5,133.17,8290,chew,,,,tat,,,0
53301000009,Mpur,-0.5,133.17,8310,eat,,,,dɛt,,,0
53301000009,Mpur,-0.5,133.17,8320,drink,,,,kuɾɛt,,,0
53301000009,Mpur,-0.5,133.17,8330,bite,,,,jɛm,,,0
53301000009,Mpur,-0.5,133.17,8340,suck,,,,fɔɡ,,,0
53301000009,Mpur,-0.5,133.17,8360,yawn,,,,ɛwa,,,0
53301000009,Mpur,-0.5,133.17,8370,spit,,,,tuat,,,0
53301000009,Mpur,-0.5,133.17,8400,dream,,,,kɔnɔt,,,0
53301000009,Mpur,-0.5,133.17,8410,sleep,,,,kɔn,,,0
53301000009,Mpur,-0.5,133.17,8420,live,,,,fun,,,0
53301000009,Mpur,-0.5,133.17,8430,die,,,,dukwa,,,0
53301000009,Mpur,-0.5,133.17,8440,kill,,,,ʤik,,,0
53301000009,Mpur,-0.5,133.17,8510,see,,,,wɔt,,,0
53301000009,Mpur,-0.5,133.17,8520,hear,,,,minsɛm,,,0
53301000009,Mpur,-0.5,133.17,8540,sniff,,,,dupam,,,0
53301000009,Mpur,-0.5,133.17,8550,know,,,,wɔt,,,0
53301000009,Mpur,-0.5,133.17,8560,think,,,,fɾɔmba,,,0
53301000009,Mpur,-0.5,133.17,8580,laugh,,,,kotɔt,,,0
53301000009,Mpur,-0.5,133.17,8590,cry,,,,jaɾ,,,0
53301000009,Mpur,-0.5,133.17,8670,blow,,,,fɔb,,,0
53301000009,Mpur,-0.5,133.17,8680,burn,,,,kwaɾi,,,0
53301000009,Mpur,-0.5,133.17,8690,flow,,,,un,,,0
53301000009,Mpur,-0.5,133.17,8740,sew,,,,fuk,,,0
53301000009,Mpur,-0.5,133.17,8800,pound,,,,tut,,,0
53301000009,Mpur,-0.5,133.17,8810,hit,,,,bat,,,0
53301000009,Mpur,-0.5,133.17,8870,cut,,,,kɛti,,,0
53301000009,Mpur,-0.5,133.17,8880,split,,,,kupau,,,0
53301000009,Mpur,-0.5,133.17,8890,dig,,,,siʤa,,,0
53301000009,Mpur,-0.5,133.17,8920,hunt,,,,minsawa,,,0
53301000009,Mpur,-0.5,133.17,8930,hold,,,,dika,,,0
53301000009,Mpur,-0.5,133.17,8950,fear,,,,wanau,,,0
53301000009,Mpur,-0.5,133.17,8960,count,,,,tinin,,,0
53301000009,Mpur,-0.5,133.17,8970,breathe,,,,fiʤau,,,0
53301000009,Mpur,-0.5,133.17,9000,vomit,,,,miɲak,,,0
53301000009,Mpur,-0.5,133.17,9010,tie,,,,bɛɾ,,,0
53301000009,Mpur,-0.5,133.17,9020,squeeze,,,,tafɾɔk,,,0
53301000009,Mpur,-0.5,133.17,9030,swell,,,,pɾɛm,,,0
53301000009,Mpur,-0.5,133.17,9040,say,,,,buwaɾ,,,0
53301000009,Mpur,-0.5,133.17,9050,scratch,,,,ʤɛn,,,0
53301000009,Mpur,-0.5,133.17,9060,stab,,,,nom,,,0
53301000009,Mpur,-0.5,133.17,9120,buy,,,,fa,,,0
53301000009,Mpur,-0.5,133.17,9130,steal,,,,duŋɡwat,,,0
53301000009,Mpur,-0.5,133.17,9150,choose,,,,bum,,,0
53301000009,Mpur,-0.5,133.17,9180,plant,,,,kau,,,0
53301000009,Mpur,-0.5,133.17,9220,cook,,,,kwan,,,0
53301000009,Mpur,-0.5,133.17,9400,shoot,,,,tum,,,0
53301000009,Mpur,-0.5,133.17,9500,work,,,,fɾɔɾ,,,0
53301000009,Mpur,-0.5,133.17,9620,open,,,,bas,,,0
53121400009,"W. Bomberai: Iha",-2.81,132.27,8020,come,,,,hɔwɔt,,,0
53121400009,"W. Bomberai: Iha",-2.81,132.27,8030,walk,,,,wɛhɔ,,,0
53121400009,"W. Bomberai: Iha",-2.81,132.27,8090,grow,,,,haɾ,,,0
53121400009,"W. Bomberai: Iha",-2.81,132.27,8110,stand,,,,nanteɾ,,,0
53121400009,"W. Bomberai: Iha",-2.81,132.27,8120,sit,,,,mɛhɛn,,,0
53121400009,"W. Bomberai: Iha",-2.81,132.27,8130,fall,,,,wakʊ,,,0
53121400009,"W. Bomberai: Iha",-2.81,132.27,8140,lie_down,,,,tɔmɔntɔmɔɲa,,,0
53121400009,"W. Bomberai: Iha",-2.81,132.27,8150,turn,,,,ŋɡɛwɛŋ,,,0
53121400009,"W. Bomberai: Iha",-2.81,132.27,8180,climb,,,,mbiɾɪjɛk,,,0
53121400009,"W. Bomberai: Iha",-2.81,132.27,8210,swim,,,,nɔɾɔp,,,0
53121400009,"W. Bomberai: Iha",-2.81,132.27,8220,fly_verb,,,,pʊɾʊ,,,0
53121400009,"W. Bomberai: Iha",-2.81,132.27,8260,throw,,,,wahaɾʊk,,,0
53121400009,"W. Bomberai: Iha",-2.81,132.27,8270,hide,,,,ɾɔɡɛhɛβɪ,,,0
53121400009,"W. Bomberai: Iha",-2.81,132.27,8290,chew,,,,mbamʊ,,,0
53121400009,"W. Bomberai: Iha",-2.81,132.27,8310,eat,,,,nawa,,,0
53121400009,"W. Bomberai: Iha",-2.81,132.27,8320,drink,,,,ɾɔh,,,0
53121400009,"W. Bomberai: Iha",-2.81,132.27,8330,bite,,,,wɛɾik,,,0
53121400009,"W. Bomberai: Iha",-2.81,132.27,8340,suck,,,,dɔp,,,0
53121400009,"W. Bomberai: Iha",-2.81,132.27,8360,yawn,,,,kamkamaɾ,,,0
53121400009,"W. Bomberai: Iha",-2.81,132.27,8370,spit,,,,tɔp,,,0
53121400009,"W. Bomberai: Iha",-2.81,132.27,8400,dream,,,,kekenɛβjat,,,0
53121400009,"W. Bomberai: Iha",-2.81,132.27,8410,sleep,,,,tɔmɔt,,,0
53121400009,"W. Bomberai: Iha",-2.81,132.27,8420,live,,,,hiɾhiɾa,,,0
53121400009,"W. Bomberai: Iha",-2.81,132.27,8430,die,,,,mpɔhɔk,,,0
53121400009,"W. Bomberai: Iha",-2.81,132.27,8440,kill,,,,pɔʊ,,,0
53121400009,"W. Bomberai: Iha",-2.81,132.27,8510,see,,,,kɔnɔ,,,0
53121400009,"W. Bomberai: Iha",-2.81,132.27,8520,hear,,,,kɔmɔn,,,0
53121400009,"W. Bomberai: Iha",-2.81,132.27,8540,sniff,,,,mbaɾɔh,,,0
53121400009,"W. Bomberai: Iha",-2.81,132.27,8550,know,,,,kentɛ,,,0
53121400009,"W. Bomberai: Iha",-2.81,132.27,8560,think,,,,nɛnʊk,,,0
53121400009,"W. Bomberai: Iha",-2.81,132.27,8580,laugh,,,,yɛt,,,0
53121400009,"W. Bomberai: Iha",-2.81,132.27,8590,cry,,,,ŋɡɪɾɪyaŋ,,,0
53121400009,"W. Bomberai: Iha",-2.81,132.27,8670,blow,,,,pɔhɔk,,,0
53121400009,"W. Bomberai: Iha",-2.81,132.27,8680,burn,,,,pɛɾ,,,0
53121400009,"W. Bomberai: Iha",-2.81,132.27,8690,flow,,,,kɔʊ,,,0
53121400009,"W. Bomberai: Iha",-2.81,132.27,8740,sew,,,,ŋɡɛit,,,0
53121400009,"W. Bomberai: Iha",-2.81,132.27,8800,pound,,,,ntɾɪnk,,,0
53121400009,"W. Bomberai: Iha",-2.81,132.27,8810,hit,,,,ŋɡawah,,,0
53121400009,"W. Bomberai: Iha",-2.81,132.27,8870,cut,,,,kʊɾʊjɔk,,,0
53121400009,"W. Bomberai: Iha",-2.81,132.27,8880,split,,,,kʊkʊɾjɔk,,,0
53121400009,"W. Bomberai: Iha",-2.81,132.27,8890,dig,,,,wɔʊɡ,,,0
53121400009,"W. Bomberai: Iha",-2.81,132.27,8920,hunt,,,,mbjahɪɾi,,,0
53121400009,"W. Bomberai: Iha",-2.81,132.27,8930,hold,,,,hɛɣep,,,0
53121400009,"W. Bomberai: Iha",-2.81,132.27,8950,fear,,,,kɔtmiɲɛk,,,0
53121400009,"W. Bomberai: Iha",-2.81,132.27,8960,count,,,,naŋpɔ,,,0
53121400009,"W. Bomberai: Iha",-2.81,132.27,8970,breathe,,,,wɔhɔ,,,0
53121400009,"W. Bomberai: Iha",-2.81,132.27,9000,vomit,,,,wɔɾʊk,,,0
53121400009,"W. Bomberai: Iha",-2.81,132.27,9010,tie,,,,mɡɔɾɔk,,,0
53121400009,"W. Bomberai: Iha",-2.81,132.27,9020,squeeze,,,,kɔmpɔɾ,,,0
53121400009,"W. Bomberai: Iha",-2.81,132.27,9030,swell,,,,ŋɡɔβɔɾ,,,0
53121400009,"W. Bomberai: Iha",-2.81,132.27,9040,say,,,,pɾet,,,0
53121400009,"W. Bomberai: Iha",-2.81,132.27,9050,scratch,,,,ŋɡɾijɛŋ,,,0
53121400009,"W. Bomberai: Iha",-2.81,132.27,9060,stab,,,,tʊp,,,0
53121400009,"W. Bomberai: Iha",-2.81,132.27,9120,buy,,,,ɾɛ,,,0
53121400009,"W. Bomberai: Iha",-2.81,132.27,9130,steal,,,,kɔdoɾwaɾɛ,,,0
53121400009,"W. Bomberai: Iha",-2.81,132.27,9150,choose,,,,pidi,,,0
53121400009,"W. Bomberai: Iha",-2.81,132.27,9180,plant,,,,tʊp,,,0
53121400009,"W. Bomberai: Iha",-2.81,132.27,9220,cook,,,,kɛiɾ,,,0
53121400009,"W. Bomberai: Iha",-2.81,132.27,9500,work,,,,sjɛk,,,0
53121400009,"W. Bomberai: Iha",-2.81,132.27,9620,open,,,,wɔʊh,,,0
52331605509,"Mek W.: Nalca",-4.26,139.88,8020,come,,,,jalamna,,,0
52331605509,"Mek W.: Nalca",-4.26,139.88,8030,walk,,,,balamna,,,0
52331605509,"Mek W.: Nalca",-4.26,139.88,8090,grow,,,,baŋolamna,,,0
52331605509,"Mek W.: Nalca",-4.26,139.88,8110,stand,,,,seklamna,,,0
52331605509,"Mek W.: Nalca",-4.26,139.88,8120,sit,,,,bulumna,,,0
52331605509,"Mek W.: Nalca",-4.26,139.88,8130,fall,,,,meliaŋɡalamna,,,0
52331605509,"Mek W.: Nalca",-4.26,139.88,8140,lie_down,,,,mamna,,,0
52331605509,"Mek W.: Nalca",-4.26,139.88,8150,turn,,,,daŋlamna,,,0
52331605509,"Mek W.: Nalca",-4.26,139.88,8180,climb,,,,welelamna,,,0
52331605509,"Mek W.: Nalca",-4.26,139.88,8210,swim,,,,keklamna,,,0
52331605509,"Mek W.: Nalca",-4.26,139.88,8220,fly_verb,,,,laklak,,,0
52331605509,"Mek W.: Nalca",-4.26,139.88,8260,throw,,,,boloklamna,,,0
52331605509,"Mek W.: Nalca",-4.26,139.88,8270,hide,,,,doɡlalamna,,,0
52331605509,"Mek W.: Nalca",-4.26,139.88,8290,chew,,,,naklamna,,,0
52331605509,"Mek W.: Nalca",-4.26,139.88,8310,eat,,,,delamna,,,0
52331605509,"Mek W.: Nalca",-4.26,139.88,8320,drink,,,,mekdelamna,,,0
52331605509,"Mek W.: Nalca",-4.26,139.88,8330,bite,,,,semilamna,,,0
52331605509,"Mek W.: Nalca",-4.26,139.88,8340,suck,,,,saɾna,,,0
52331605509,"Mek W.: Nalca",-4.26,139.88,8360,yawn,,,,jandekdek,,,0
52331605509,"Mek W.: Nalca",-4.26,139.88,8370,spit,,,,kamla,,,0
52331605509,"Mek W.: Nalca",-4.26,139.88,8400,dream,,,,lendaɾa,,,0
52331605509,"Mek W.: Nalca",-4.26,139.88,8410,sleep,,,,malamna,,,0
52331605509,"Mek W.: Nalca",-4.26,139.88,8420,live,,,,kamjak,,,0
52331605509,"Mek W.: Nalca",-4.26,139.88,8430,die,,,,suɡukna,,,0
52331605509,"Mek W.: Nalca",-4.26,139.88,8440,kill,,,,holdana,,,0
52331605509,"Mek W.: Nalca",-4.26,139.88,8510,see,,,,kemelamna,,,0
52331605509,"Mek W.: Nalca",-4.26,139.88,8520,hear,,,,kelamna,,,0
52331605509,"Mek W.: Nalca",-4.26,139.88,8540,sniff,,,,soŋ,,,0
52331605509,"Mek W.: Nalca",-4.26,139.88,8550,know,,,,el,,,0
52331605509,"Mek W.: Nalca",-4.26,139.88,8560,think,,,,senina,,,0
52331605509,"Mek W.: Nalca",-4.26,139.88,8580,laugh,,,,okslamna,,,0
52331605509,"Mek W.: Nalca",-4.26,139.88,8590,cry,,,,eŋlamna,,,0
52331605509,"Mek W.: Nalca",-4.26,139.88,8670,blow,,,,fo,,,0
52331605509,"Mek W.: Nalca",-4.26,139.88,8680,burn,,,,dalamna,,,0
52331605509,"Mek W.: Nalca",-4.26,139.88,8690,flow,,,,jaɡalamna,,,0
52331605509,"Mek W.: Nalca",-4.26,139.88,8740,sew,,,,wilimna,,,0
52331605509,"Mek W.: Nalca",-4.26,139.88,8800,pound,,,,holomna,,,0
52331605509,"Mek W.: Nalca",-4.26,139.88,8810,hit,,,,oldana,,,0
52331605509,"Mek W.: Nalca",-4.26,139.88,8870,cut,,,,kaɾlamna,,,0
52331605509,"Mek W.: Nalca",-4.26,139.88,8880,split,,,,boklamna,,,0
52331605509,"Mek W.: Nalca",-4.26,139.88,8890,dig,,,,welilamna,,,0
52331605509,"Mek W.: Nalca",-4.26,139.88,8920,hunt,,,,kalaɡlamna,,,0
52331605509,"Mek W.: Nalca",-4.26,139.88,8930,hold,,,,salam,,,0
52331605509,"Mek W.: Nalca",-4.26,139.88,8950,fear,,,,lok,,,0
52331605509,"Mek W.: Nalca",-4.26,139.88,8960,count,,,,ililamna,,,0
52331605509,"Mek W.: Nalca",-4.26,139.88,8970,breathe,,,,hip,,,0
52331605509,"Mek W.: Nalca",-4.26,139.88,9000,vomit,,,,dukna,,,0
52331605509,"Mek W.: Nalca",-4.26,139.88,9010,tie,,,,kupna,,,0
52331605509,"Mek W.: Nalca",-4.26,139.88,9020,squeeze,,,,lomdona,,,0
52331605509,"Mek W.: Nalca",-4.26,139.88,9030,swell,,,,nolunel,,,0
52331605509,"Mek W.: Nalca",-4.26,139.88,9040,say,,,,meɲelamna,,,0
52331605509,"Mek W.: Nalca",-4.26,139.88,9050,scratch,,,,kiɾikna,,,0
52331605509,"Mek W.: Nalca",-4.26,139.88,9060,stab,,,,koluklamna,,,0
52331605509,"Mek W.: Nalca",-4.26,139.88,9120,buy,,,,deklamna,,,0
52331605509,"Mek W.: Nalca",-4.26,139.88,9130,steal,,,,hoɡɔdona,,,0
52331605509,"Mek W.: Nalca",-4.26,139.88,9150,choose,,,,weplamna,,,0
52331605509,"Mek W.: Nalca",-4.26,139.88,9180,plant,,,,melamna,,,0
52331605509,"Mek W.: Nalca",-4.26,139.88,9220,cook,,,,jɔlamna,,,0
52331605509,"Mek W.: Nalca",-4.26,139.88,9400,shoot,,,,naklamna,,,0
52331605509,"Mek W.: Nalca",-4.26,139.88,9500,work,,,,welamna,,,0
52331605509,"Mek W.: Nalca",-4.26,139.88,9620,open,,,,baklamna,,,0
52241505509,Mee,-3.89,136.02,8020,come,,,,meː,,,0
52241505509,Mee,-3.89,136.02,8030,walk,,,,uwitotai,,,0
52241505509,Mee,-3.89,136.02,8090,grow,,,,ejai,,,0
52241505509,Mee,-3.89,136.02,8110,stand,,,,joːni,,,0
52241505509,Mee,-3.89,136.02,8120,sit,,,,animakai,,,0
52241505509,Mee,-3.89,136.02,8130,fall,,,,ɡotai,,,0
52241505509,Mee,-3.89,136.02,8140,lie_down,,,,wadouɣa,,,0
52241505509,Mee,-3.89,136.02,8150,turn,,,,watijaiʀa,,,0
52241505509,Mee,-3.89,136.02,8180,climb,,,,taɾumai,,,0
52241505509,Mee,-3.89,136.02,8210,swim,,,,tata,,,0
52241505509,Mee,-3.89,136.02,8220,fly_verb,,,,kapumɑi,,,0
52241505509,Mee,-3.89,136.02,8260,throw,,,,jeati,,,0
52241505509,Mee,-3.89,136.02,8270,hide,,,,bonai,,,0
52241505509,Mee,-3.89,136.02,8290,chew,,,,idai,,,0
52241505509,Mee,-3.89,136.02,8310,eat,,,,nai,,,0
52241505509,Mee,-3.89,136.02,8320,drink,,,,wonai,,,0
52241505509,Mee,-3.89,136.02,8330,bite,,,,eɾoenai,,,0
52241505509,Mee,-3.89,136.02,8340,suck,,,,domiː,,,0
52241505509,Mee,-3.89,136.02,8360,yawn,,,,kaɾu,,,0
52241505509,Mee,-3.89,136.02,8370,spit,,,,epiɽe,,,0
52241505509,Mee,-3.89,136.02,8400,dream,,,,baɾume,,,0
52241505509,Mee,-3.89,136.02,8410,sleep,,,,uno,,,0
52241505509,Mee,-3.89,136.02,8420,live,,,,ija,,,0
52241505509,Mee,-3.89,136.02,8430,die,,,,bokai,,,0
52241505509,Mee,-3.89,136.02,8440,kill,,,,waɽimakai,,,0
52241505509,Mee,-3.89,136.02,8510,see,,,,loːu,,,0
52241505509,Mee,-3.89,136.02,8520,hear,,,,jowiː,,,0
52241505509,Mee,-3.89,136.02,8540,sniff,,,,ejumai,,,0
52241505509,Mee,-3.89,136.02,8550,know,,,,ɣaʀa,,,0
52241505509,Mee,-3.89,136.02,8560,think,,,,dimiɣai,,,0
52241505509,Mee,-3.89,136.02,8580,laugh,,,,kijai,,,0
52241505509,Mee,-3.89,136.02,8590,cry,,,,jeɽe,,,0
52241505509,Mee,-3.89,136.02,8670,blow,,,,puː,,,0
52241505509,Mee,-3.89,136.02,8680,burn,,,,odiː,,,0
52241505509,Mee,-3.89,136.02,8690,flow,,,,ijawetai,,,0
52241505509,Mee,-3.89,136.02,8740,sew,,,,puːmaI,,,0
52241505509,Mee,-3.89,136.02,8800,pound,,,,taɽimai,,,0
52241505509,Mee,-3.89,136.02,8810,hit,,,,waɽi,,,0
52241505509,Mee,-3.89,136.02,8870,cut,,,,duwaːi,,,0
52241505509,Mee,-3.89,136.02,8880,split,,,,akaɽe,,,0
52241505509,Mee,-3.89,136.02,8890,dig,,,,duwi,,,0
52241505509,Mee,-3.89,136.02,8920,hunt,,,,wekawina,,,0
52241505509,Mee,-3.89,136.02,8930,hold,,,,jaɣe,,,0
52241505509,Mee,-3.89,136.02,8950,fear,,,,weda,,,0
52241505509,Mee,-3.89,136.02,8960,count,,,,ʀaki,,,0
52241505509,Mee,-3.89,136.02,8970,breathe,,,,ebepuː,,,0
52241505509,Mee,-3.89,136.02,9000,vomit,,,,edi,,,0
52241505509,Mee,-3.89,136.02,9010,tie,,,,kadimai,,,0
52241505509,Mee,-3.89,136.02,9020,squeeze,,,,tiɽ,,,0
52241505509,Mee,-3.89,136.02,9030,swell,,,,ejada,,,0
52241505509,Mee,-3.89,136.02,9040,say,,,,etiː,,,0
52241505509,Mee,-3.89,136.02,9050,scratch,,,,ɾinaːi,,,0
52241505509,Mee,-3.89,136.02,9060,stab,,,,pitumaːi,,,0
52241505509,Mee,-3.89,136.02,9120,buy,,,,edai,,,0
52241505509,Mee,-3.89,136.02,9130,steal,,,,oma,,,0
52241505509,Mee,-3.89,136.02,9150,choose,,,,weɾenai,,,0
52241505509,Mee,-3.89,136.02,9180,plant,,,,uwei,,,0
52241505509,Mee,-3.89,136.02,9220,cook,,,,jou,,,0
52241505509,Mee,-3.89,136.02,9400,shoot,,,,waɽi,,,0
52241505509,Mee,-3.89,136.02,9500,work,,,,kadija,,,0
52241505509,Mee,-3.89,136.02,9620,open,,,,kebai,,,0
56211575509,Ambel,-0.18,130.92,8020,come,,,,dɔk,,,0
56211575509,Ambel,-0.18,130.92,8030,walk,,,,tan,,,0
56211575509,Ambel,-0.18,130.92,8090,grow,,,,antum,,,0
56211575509,Ambel,-0.18,130.92,8110,stand,,,,tɔl,,,0
56211575509,Ambel,-0.18,130.92,8120,sit,,,,katɔn,,,0
56211575509,Ambel,-0.18,130.92,8130,fall,,,,amdul,,,0
56211575509,Ambel,-0.18,130.92,8140,lie_down,,,,jamalak,,,0
56211575509,Ambel,-0.18,130.92,8150,turn,,,,takawai,,,0
56211575509,Ambel,-0.18,130.92,8180,climb,,,,sa,,,0
56211575509,Ambel,-0.18,130.92,8210,swim,,,,la,,,0
56211575509,Ambel,-0.18,130.92,8220,fly_verb,,,,napɔ,,,0
56211575509,Ambel,-0.18,130.92,8260,throw,,,,tɛ,,,0
56211575509,Ambel,-0.18,130.92,8270,hide,,,,kabun,,,0
56211575509,Ambel,-0.18,130.92,8290,chew,,,,jakamam,,,0
56211575509,Ambel,-0.18,130.92,8310,eat,,,,janan,,,0
56211575509,Ambel,-0.18,130.92,8320,drink,,,,janum,,,0
56211575509,Ambel,-0.18,130.92,8330,bite,,,,sak,,,0
56211575509,Ambel,-0.18,130.92,8340,suck,,,,sɔɾɔ,,,0
56211575509,Ambel,-0.18,130.92,8360,yawn,,,,aŋhio,,,0
56211575509,Ambel,-0.18,130.92,8370,spit,,,,kapi,,,0
56211575509,Ambel,-0.18,130.92,8400,dream,,,,amɲal,,,0
56211575509,Ambel,-0.18,130.92,8410,sleep,,,,jane,,,0
56211575509,Ambel,-0.18,130.92,8420,live,,,,hei,,,0
56211575509,Ambel,-0.18,130.92,8430,die,,,,namin,,,0
56211575509,Ambel,-0.18,130.92,8440,kill,,,,bun,,,0
56211575509,Ambel,-0.18,130.92,8510,see,,,,jem,,,0
56211575509,Ambel,-0.18,130.92,8520,hear,,,,jatanɔ,,,0
56211575509,Ambel,-0.18,130.92,8540,sniff,,,,naten,,,0
56211575509,Ambel,-0.18,130.92,8550,know,,,,nun,,,0
56211575509,Ambel,-0.18,130.92,8560,think,,,,awasan,,,0
56211575509,Ambel,-0.18,130.92,8580,laugh,,,,ami,,,0
56211575509,Ambel,-0.18,130.92,8590,cry,,,,tani,,,0
56211575509,Ambel,-0.18,130.92,8670,blow,,,,anau,,,0
56211575509,Ambel,-0.18,130.92,8680,burn,,,,kapil,,,0
56211575509,Ambel,-0.18,130.92,8690,flow,,,,antaɾi,,,0
56211575509,Ambel,-0.18,130.92,8740,sew,,,,kaɾin,,,0
56211575509,Ambel,-0.18,130.92,8800,pound,,,,katut,,,0
56211575509,Ambel,-0.18,130.92,8810,hit,,,,bun,,,0
56211575509,Ambel,-0.18,130.92,8870,cut,,,,akut,,,0
56211575509,Ambel,-0.18,130.92,8880,split,,,,nakapeni,,,0
56211575509,Ambel,-0.18,130.92,8890,dig,,,,akil,,,0
56211575509,Ambel,-0.18,130.92,8920,hunt,,,,totai,,,0
56211575509,Ambel,-0.18,130.92,8930,hold,,,,sau,,,0
56211575509,Ambel,-0.18,130.92,8950,fear,,,,macat,,,0
56211575509,Ambel,-0.18,130.92,8960,count,,,,taɾeken,,,0
56211575509,Ambel,-0.18,130.92,8970,breathe,,,,asil,,,0
56211575509,Ambel,-0.18,130.92,9000,vomit,,,,oɡol,,,0
56211575509,Ambel,-0.18,130.92,9010,tie,,,,sel,,,0
56211575509,Ambel,-0.18,130.92,9020,squeeze,,,,namu,,,0
56211575509,Ambel,-0.18,130.92,9030,swell,,,,amput,,,0
56211575509,Ambel,-0.18,130.92,9040,say,,,,bin,,,0
56211575509,Ambel,-0.18,130.92,9050,scratch,,,,jakɔ,,,0
56211575509,Ambel,-0.18,130.92,9060,stab,,,,tape,,,0
56211575509,Ambel,-0.18,130.92,9120,buy,,,,siɾi,,,0
56211575509,Ambel,-0.18,130.92,9130,steal,,,,kami,,,0
56211575509,Ambel,-0.18,130.92,9150,choose,,,,tahi,,,0
56211575509,Ambel,-0.18,130.92,9180,plant,,,,tanim,,,0
56211575509,Ambel,-0.18,130.92,9220,cook,,,,hablak,,,0
56211575509,Ambel,-0.18,130.92,9400,shoot,,,,tuɡun,,,0
56211575509,Ambel,-0.18,130.92,9500,work,,,,kaɾiʤan,,,0
56211575509,Ambel,-0.18,130.92,9620,open,,,,kapu,,,0
56231232209,"Yapen: Wooi",-1.63,135.48,8020,come,,,,ɾama,,,0
56231232209,"Yapen: Wooi",-1.63,135.48,8030,walk,,,,ɾa,,,0
56231232209,"Yapen: Wooi",-1.63,135.48,8090,grow,,,,baba,,,0
56231232209,"Yapen: Wooi",-1.63,135.48,8110,stand,,,,teɾa,,,0
56231232209,"Yapen: Wooi",-1.63,135.48,8120,sit,,,,mahoi,,,0
56231232209,"Yapen: Wooi",-1.63,135.48,8130,fall,,,,tawa,,,0
56231232209,"Yapen: Wooi",-1.63,135.48,8140,lie_down,,,,βata,,,0
56231232209,"Yapen: Wooi",-1.63,135.48,8150,turn,,,,βeɾia,,,0
56231232209,"Yapen: Wooi",-1.63,135.48,8180,climb,,,,jouta,,,0
56231232209,"Yapen: Wooi",-1.63,135.48,8210,swim,,,,hoi,,,0
56231232209,"Yapen: Wooi",-1.63,135.48,8220,fly_verb,,,,hapo,,,0
56231232209,"Yapen: Wooi",-1.63,135.48,8260,throw,,,,ho,,,0
56231232209,"Yapen: Wooi",-1.63,135.48,8270,hide,,,,jaiøuiŋ,,,0
56231232209,"Yapen: Wooi",-1.63,135.48,8290,chew,,,,mama,,,0
56231232209,"Yapen: Wooi",-1.63,135.48,8310,eat,,,,jampi,,,0
56231232209,"Yapen: Wooi",-1.63,135.48,8320,drink,,,,juŋ,,,0
56231232209,"Yapen: Wooi",-1.63,135.48,8330,bite,,,,kaɾi,,,0
56231232209,"Yapen: Wooi",-1.63,135.48,8340,suck,,,,hu,,,0
56231232209,"Yapen: Wooi",-1.63,135.48,8360,yawn,,,,mamaŋ,,,0
56231232209,"Yapen: Wooi",-1.63,135.48,8370,spit,,,,kaɳuhⁿu,,,0
56231232209,"Yapen: Wooi",-1.63,135.48,8400,dream,,,,mi,,,0
56231232209,"Yapen: Wooi",-1.63,135.48,8410,sleep,,,,jena,,,0
56231232209,"Yapen: Wooi",-1.63,135.48,8420,live,,,,βihieŋ,,,0
56231232209,"Yapen: Wooi",-1.63,135.48,8430,die,,,,kaɾia,,,0
56231232209,"Yapen: Wooi",-1.63,135.48,8440,kill,,,,muŋ,,,0
56231232209,"Yapen: Wooi",-1.63,135.48,8510,see,,,,ɾehⁿo,,,0
56231232209,"Yapen: Wooi",-1.63,135.48,8520,hear,,,,taɾaho,,,0
56231232209,"Yapen: Wooi",-1.63,135.48,8540,sniff,,,,hⁿohⁿo,,,0
56231232209,"Yapen: Wooi",-1.63,135.48,8550,know,,,,ɾehoato,,,0
56231232209,"Yapen: Wooi",-1.63,135.48,8560,think,,,,hanetatota,,,0
56231232209,"Yapen: Wooi",-1.63,135.48,8580,laugh,,,,maɾe,,,0
56231232209,"Yapen: Wooi",-1.63,135.48,8590,cry,,,,hai,,,0
56231232209,"Yapen: Wooi",-1.63,135.48,8670,blow,,,,bui,,,0
56231232209,"Yapen: Wooi",-1.63,135.48,8680,burn,,,,nuiŋ,,,0
56231232209,"Yapen: Wooi",-1.63,135.48,8690,flow,,,,hoɾi,,,0
56231232209,"Yapen: Wooi",-1.63,135.48,8740,sew,,,,jawa,,,0
56231232209,"Yapen: Wooi",-1.63,135.48,8800,pound,,,,to,,,0
56231232209,"Yapen: Wooi",-1.63,135.48,8810,hit,,,,ɾa,,,0
56231232209,"Yapen: Wooi",-1.63,135.48,8870,cut,,,,peɾaŋ,,,0
56231232209,"Yapen: Wooi",-1.63,135.48,8880,split,,,,βiβo,,,0
56231232209,"Yapen: Wooi",-1.63,135.48,8890,dig,,,,bai,,,0
56231232209,"Yapen: Wooi",-1.63,135.48,8930,hold,,,,ɾu,,,0
56231232209,"Yapen: Wooi",-1.63,135.48,8950,fear,,,,matai,,,0
56231232209,"Yapen: Wooi",-1.63,135.48,8960,count,,,,jatoɾa,,,0
56231232209,"Yapen: Wooi",-1.63,135.48,8970,breathe,,,,haɾahaseŋ,,,0
56231232209,"Yapen: Wooi",-1.63,135.48,9000,vomit,,,,mamuta,,,0
56231232209,"Yapen: Wooi",-1.63,135.48,9010,tie,,,,kahie,,,0
56231232209,"Yapen: Wooi",-1.63,135.48,9020,squeeze,,,,taβa,,,0
56231232209,"Yapen: Wooi",-1.63,135.48,9030,swell,,,,babaɾa,,,0
56231232209,"Yapen: Wooi",-1.63,135.48,9040,say,,,,paja,,,0
56231232209,"Yapen: Wooi",-1.63,135.48,9050,scratch,,,,kaɾaŋ,,,0
56231232209,"Yapen: Wooi",-1.63,135.48,9060,stab,,,,jihaŋ,,,0
56231232209,"Yapen: Wooi",-1.63,135.48,9120,buy,,,,jaβajaŋ,,,0
56231232209,"Yapen: Wooi",-1.63,135.48,9130,steal,,,,manana,,,0
56231232209,"Yapen: Wooi",-1.63,135.48,9150,choose,,,,jeɾi,,,0
56231232209,"Yapen: Wooi",-1.63,135.48,9180,plant,,,,tanaŋ,,,0
56231232209,"Yapen: Wooi",-1.63,135.48,9220,cook,,,,nuiŋ,,,0
56231232209,"Yapen: Wooi",-1.63,135.48,9400,shoot,,,,nuiŋ,,,0
56231232209,"Yapen: Wooi",-1.63,135.48,9620,open,,,,hepa,,,0
56231262309,"Yapen: Poom",-1.64,135.62,8020,come,,,,ɾama,,,0
56231262309,"Yapen: Poom",-1.64,135.62,8030,walk,,,,tataɾa,,,0
56231262309,"Yapen: Poom",-1.64,135.62,8090,grow,,,,tipu,,,0
56231262309,"Yapen: Poom",-1.64,135.62,8110,stand,,,,oha,,,0
56231262309,"Yapen: Poom",-1.64,135.62,8120,sit,,,,mahoi,,,0
56231262309,"Yapen: Poom",-1.64,135.62,8130,fall,,,,hⁿu,,,0
56231262309,"Yapen: Poom",-1.64,135.62,8140,lie_down,,,,βaβata,,,0
56231262309,"Yapen: Poom",-1.64,135.62,8150,turn,,,,hoɾbeɾa,,,0
56231262309,"Yapen: Poom",-1.64,135.62,8180,climb,,,,auta,,,0
56231262309,"Yapen: Poom",-1.64,135.62,8210,swim,,,,hau,,,0
56231262309,"Yapen: Poom",-1.64,135.62,8220,fly_verb,,,,ɾoβa,,,0
56231262309,"Yapen: Poom",-1.64,135.62,8260,throw,,,,ho,,,0
56231262309,"Yapen: Poom",-1.64,135.62,8270,hide,,,,aniwa,,,0
56231262309,"Yapen: Poom",-1.64,135.62,8290,chew,,,,mama,,,0
56231262309,"Yapen: Poom",-1.64,135.62,8310,eat,,,,ampi,,,0
56231262309,"Yapen: Poom",-1.64,135.62,8320,drink,,,,unun,,,0
56231262309,"Yapen: Poom",-1.64,135.62,8330,bite,,,,ajat,,,0
56231262309,"Yapen: Poom",-1.64,135.62,8340,suck,,,,hⁿupa,,,0
56231262309,"Yapen: Poom",-1.64,135.62,8360,yawn,,,,mima,,,0
56231262309,"Yapen: Poom",-1.64,135.62,8370,spit,,,,kanihⁿu,,,0
56231262309,"Yapen: Poom",-1.64,135.62,8400,dream,,,,mi,,,0
56231262309,"Yapen: Poom",-1.64,135.62,8410,sleep,,,,ena,,,0
56231262309,"Yapen: Poom",-1.64,135.62,8420,live,,,,wihjen,,,0
56231262309,"Yapen: Poom",-1.64,135.62,8430,die,,,,kaɾia,,,0
56231262309,"Yapen: Poom",-1.64,135.62,8440,kill,,,,mun,,,0
56231262309,"Yapen: Poom",-1.64,135.62,8510,see,,,,ɾeho,,,0
56231262309,"Yapen: Poom",-1.64,135.62,8520,hear,,,,taɾaho,,,0
56231262309,"Yapen: Poom",-1.64,135.62,8540,sniff,,,,hoho,,,0
56231262309,"Yapen: Poom",-1.64,135.62,8550,know,,,,hiwijai,,,0
56231262309,"Yapen: Poom",-1.64,135.62,8560,think,,,,hanetatoa,,,0
56231262309,"Yapen: Poom",-1.64,135.62,8580,laugh,,,,maɾi,,,0
56231262309,"Yapen: Poom",-1.64,135.62,8590,cry,,,,woɾi,,,0
56231262309,"Yapen: Poom",-1.64,135.62,8670,blow,,,,taβun,,,0
56231262309,"Yapen: Poom",-1.64,135.62,8680,burn,,,,kaif,,,0
56231262309,"Yapen: Poom",-1.64,135.62,8690,flow,,,,haɾop,,,0
56231262309,"Yapen: Poom",-1.64,135.62,8740,sew,,,,awaɾ,,,0
56231262309,"Yapen: Poom",-1.64,135.62,8800,pound,,,,buɾ,,,0
56231262309,"Yapen: Poom",-1.64,135.62,8810,hit,,,,ɾepa,,,0
56231262309,"Yapen: Poom",-1.64,135.62,8870,cut,,,,peɾaŋ,,,0
56231262309,"Yapen: Poom",-1.64,135.62,8880,split,,,,wop,,,0
56231262309,"Yapen: Poom",-1.64,135.62,8890,dig,,,,βai,,,0
56231262309,"Yapen: Poom",-1.64,135.62,8920,hunt,,,,mumpi,,,0
56231262309,"Yapen: Poom",-1.64,135.62,8930,hold,,,,akaho,,,0
56231262309,"Yapen: Poom",-1.64,135.62,8950,fear,,,,matai,,,0
56231262309,"Yapen: Poom",-1.64,135.62,8960,count,,,,atoɾ,,,0
56231262309,"Yapen: Poom",-1.64,135.62,8970,breathe,,,,hasen,,,0
56231262309,"Yapen: Poom",-1.64,135.62,9000,vomit,,,,mamuta,,,0
56231262309,"Yapen: Poom",-1.64,135.62,9010,tie,,,,awit,,,0
56231262309,"Yapen: Poom",-1.64,135.62,9020,squeeze,,,,tabaɾ,,,0
56231262309,"Yapen: Poom",-1.64,135.62,9030,swell,,,,babaɾa,,,0
56231262309,"Yapen: Poom",-1.64,135.62,9040,say,,,,pajaja,,,0
56231262309,"Yapen: Poom",-1.64,135.62,9050,scratch,,,,aɾaɾ,,,0
56231262309,"Yapen: Poom",-1.64,135.62,9060,stab,,,,ihan,,,0
56231262309,"Yapen: Poom",-1.64,135.62,9120,buy,,,,aβajan,,,0
56231262309,"Yapen: Poom",-1.64,135.62,9130,steal,,,,manana,,,0
56231262309,"Yapen: Poom",-1.64,135.62,9150,choose,,,,iɾija,,,0
56231262309,"Yapen: Poom",-1.64,135.62,9180,plant,,,,tanan,,,0
56231262309,"Yapen: Poom",-1.64,135.62,9220,cook,,,,pananap,,,0
56231262309,"Yapen: Poom",-1.64,135.62,9400,shoot,,,,paɾe,,,0
56231262309,"Yapen: Poom",-1.64,135.62,9500,work,,,,paɾuɾa,,,0
56231262309,"Yapen: Poom",-1.64,135.62,9620,open,,,,hep,,,0
56231233509,Ansus,-1.73,135.81,8020,come,,,,ɛɾama,,,0
56231233509,Ansus,-1.73,135.81,8030,walk,,,,ɛɾa,,,0
56231233509,Ansus,-1.73,135.81,8090,grow,,,,sua,,,0
56231233509,Ansus,-1.73,135.81,8110,stand,,,,ɛʤɔa,,,0
56231233509,Ansus,-1.73,135.81,8120,sit,,,,ɛmajɔi,,,0
56231233509,Ansus,-1.73,135.81,8130,fall,,,,ɛtawa,,,0
56231233509,Ansus,-1.73,135.81,8140,lie_down,,,,ɛwata,,,0
56231233509,Ansus,-1.73,135.81,8150,turn,,,,ɛɾawɛɾia,,,0
56231233509,Ansus,-1.73,135.81,8180,climb,,,,ɛwɛita,,,0
56231233509,Ansus,-1.73,135.81,8210,swim,,,,ɛʤɔi,,,0
56231233509,Ansus,-1.73,135.81,8220,fly_verb,,,,ɛjapɔ,,,0
56231233509,Ansus,-1.73,135.81,8260,throw,,,,ɛʤɔ,,,0
56231233509,Ansus,-1.73,135.81,8270,hide,,,,ɛʤɛɲuwiŋ,,,0
56231233509,Ansus,-1.73,135.81,8290,chew,,,,ɛmama,,,0
56231233509,Ansus,-1.73,135.81,8310,eat,,,,ɛʤampi,,,0
56231233509,Ansus,-1.73,135.81,8320,drink,,,,ɛʤunuŋ,,,0
56231233509,Ansus,-1.73,135.81,8330,bite,,,,ɛkaɾi,,,0
56231233509,Ansus,-1.73,135.81,8340,suck,,,,ɛʤupi,,,0
56231233509,Ansus,-1.73,135.81,8360,yawn,,,,wɛwiɔu,,,0
56231233509,Ansus,-1.73,135.81,8370,spit,,,,ɛkaɲu,,,0
56231233509,Ansus,-1.73,135.81,8400,dream,,,,ɛʤami,,,0
56231233509,Ansus,-1.73,135.81,8410,sleep,,,,ɛʤɛna,,,0
56231233509,Ansus,-1.73,135.81,8420,live,,,,ɛwɛŋ,,,0
56231233509,Ansus,-1.73,135.81,8430,die,,,,ɛkada,,,0
56231233509,Ansus,-1.73,135.81,8440,kill,,,,ɛmuni,,,0
56231233509,Ansus,-1.73,135.81,8510,see,,,,ɛɾɛɔa,,,0
56231233509,Ansus,-1.73,135.81,8520,hear,,,,ɛtaɾaoɔa,,,0
56231233509,Ansus,-1.73,135.81,8540,sniff,,,,wɔpɛɔi,,,0
56231233509,Ansus,-1.73,135.81,8550,know,,,,anɛwawɔa,,,0
56231233509,Ansus,-1.73,135.81,8560,think,,,,anɛutatuaɔta,,,0
56231233509,Ansus,-1.73,135.81,8580,laugh,,,,ɛmaɾi,,,0
56231233509,Ansus,-1.73,135.81,8590,cry,,,,ɛʤai,,,0
56231233509,Ansus,-1.73,135.81,8670,blow,,,,bjui,,,0
56231233509,Ansus,-1.73,135.81,8680,burn,,,,nunuŋ,,,0
56231233509,Ansus,-1.73,135.81,8690,flow,,,,ʤɛɾɔ,,,0
56231233509,Ansus,-1.73,135.81,8740,sew,,,,ɛʤawa,,,0
56231233509,Ansus,-1.73,135.81,8800,pound,,,,ɛtutai,,,0
56231233509,Ansus,-1.73,135.81,8810,hit,,,,ɛɾɔɾai,,,0
56231233509,Ansus,-1.73,135.81,8870,cut,,,,ɛtɛkutui,,,0
56231233509,Ansus,-1.73,135.81,8880,split,,,,ɛwiwɔtatɛɾi,,,0
56231233509,Ansus,-1.73,135.81,8890,dig,,,,ɛʤiɾai,,,0
56231233509,Ansus,-1.73,135.81,8920,hunt,,,,ɛʤɛwɛ,,,0
56231233509,Ansus,-1.73,135.81,8930,hold,,,,ɛɾu,,,0
56231233509,Ansus,-1.73,135.81,8950,fear,,,,ɛmatai,,,0
56231233509,Ansus,-1.73,135.81,8960,count,,,,ɛʤatɔɾa,,,0
56231233509,Ansus,-1.73,135.81,8970,breathe,,,,ɛʤasɛŋ,,,0
56231233509,Ansus,-1.73,135.81,9000,vomit,,,,ɛmamuta,,,0
56231233509,Ansus,-1.73,135.81,9010,tie,,,,ɛkaɛ,,,0
56231233509,Ansus,-1.73,135.81,9020,squeeze,,,,ɾuami,,,0
56231233509,Ansus,-1.73,135.81,9030,swell,,,,ɛbabaɾa,,,0
56231233509,Ansus,-1.73,135.81,9040,say,,,,ɛtɔpana,,,0
56231233509,Ansus,-1.73,135.81,9050,scratch,,,,ɛkaɾani,,,0
56231233509,Ansus,-1.73,135.81,9060,stab,,,,ɛʤiaŋ,,,0
56231233509,Ansus,-1.73,135.81,9120,buy,,,,ɛwoɾi,,,0
56231233509,Ansus,-1.73,135.81,9130,steal,,,,ɛmanana,,,0
56231233509,Ansus,-1.73,135.81,9150,choose,,,,ɛʤiɾi,,,0
56231233509,Ansus,-1.73,135.81,9180,plant,,,,sanami,,,0
56231233509,Ansus,-1.73,135.81,9220,cook,,,,ɛninunuŋ,,,0
56231233509,Ansus,-1.73,135.81,9400,shoot,,,,ɛʤana,,,0
56231233509,Ansus,-1.73,135.81,9500,work,,,,kaɾaʤaŋ,,,0
56231233509,Ansus,-1.73,135.81,9620,open,,,,ɛʤɛpa,,,0
56231422709,Biak,-0.95,135.88,8020,come,,,,jaɾama,,,0
56231422709,Biak,-0.95,135.88,8030,walk,,,,jambɾane,,,0
56231422709,Biak,-0.95,135.88,8090,grow,,,,isuɾe,,,0
56231422709,Biak,-0.95,135.88,8110,stand,,,,joɾes,,,0
56231422709,Biak,-0.95,135.88,8120,sit,,,,jakone,,,0
56231422709,Biak,-0.95,135.88,8130,fall,,,,daɾpi,,,0
56231422709,Biak,-0.95,135.88,8140,lie_down,,,,jawaɾek,,,0
56231422709,Biak,-0.95,135.88,8150,turn,,,,pambaɾ,,,0
56231422709,Biak,-0.95,135.88,8180,climb,,,,pjoi,,,0
56231422709,Biak,-0.95,135.88,8210,swim,,,,nuɾe,,,0
56231422709,Biak,-0.95,135.88,8220,fly_verb,,,,iɾob,,,0
56231422709,Biak,-0.95,135.88,8260,throw,,,,sjio,,,0
56231422709,Biak,-0.95,135.88,8270,hide,,,,jofek,,,0
56231422709,Biak,-0.95,135.88,8290,chew,,,,mamam,,,0
56231422709,Biak,-0.95,135.88,8310,eat,,,,janan,,,0
56231422709,Biak,-0.95,135.88,8320,drink,,,,jinem,,,0
56231422709,Biak,-0.95,135.88,8330,bite,,,,waɾek,,,0
56231422709,Biak,-0.95,135.88,8340,suck,,,,sjoseɲ,,,0
56231422709,Biak,-0.95,135.88,8360,yawn,,,,iwasiɾ,,,0
56231422709,Biak,-0.95,135.88,8370,spit,,,,jamuɾen,,,0
56231422709,Biak,-0.95,135.88,8400,dream,,,,mafu,,,0
56231422709,Biak,-0.95,135.88,8410,sleep,,,,jenef,,,0
56231422709,Biak,-0.95,135.88,8420,live,,,,ikenem,,,0
56231422709,Biak,-0.95,135.88,8430,die,,,,imaɾ,,,0
56231422709,Biak,-0.95,135.88,8440,kill,,,,mijun,,,0
56231422709,Biak,-0.95,135.88,8510,see,,,,mame,,,0
56231422709,Biak,-0.95,135.88,8520,hear,,,,jaɾoweɾ,,,0
56231422709,Biak,-0.95,135.88,8540,sniff,,,,janas,,,0
56231422709,Biak,-0.95,135.88,8550,know,,,,jafawi,,,0
56231422709,Biak,-0.95,135.88,8560,think,,,,swaɾuseɾ,,,0
56231422709,Biak,-0.95,135.88,8580,laugh,,,,jambɾif,,,0
56231422709,Biak,-0.95,135.88,8590,cry,,,,jakanes,,,0
56231422709,Biak,-0.95,135.88,8670,blow,,,,iwuf,,,0
56231422709,Biak,-0.95,135.88,8680,burn,,,,inanem,,,0
56231422709,Biak,-0.95,135.88,8690,flow,,,,isjap,,,0
56231422709,Biak,-0.95,135.88,8740,sew,,,,isip,,,0
56231422709,Biak,-0.95,135.88,8800,pound,,,,kijuk,,,0
56231422709,Biak,-0.95,135.88,8810,hit,,,,ipɾeɾ,,,0
56231422709,Biak,-0.95,135.88,8870,cut,,,,iwapuk,,,0
56231422709,Biak,-0.95,135.88,8880,split,,,,wiou,,,0
56231422709,Biak,-0.95,135.88,8890,dig,,,,bijai,,,0
56231422709,Biak,-0.95,135.88,8920,hunt,,,,imbɾafe,,,0
56231422709,Biak,-0.95,135.88,8930,hold,,,,dufe,,,0
56231422709,Biak,-0.95,135.88,8950,fear,,,,jamɡake,,,0
56231422709,Biak,-0.95,135.88,8960,count,,,,kokoɾ,,,0
56231422709,Biak,-0.95,135.88,9000,vomit,,,,jawajoɾem,,,0
56231422709,Biak,-0.95,135.88,9010,tie,,,,fes,,,0
56231422709,Biak,-0.95,135.88,9020,squeeze,,,,kjafos,,,0
56231422709,Biak,-0.95,135.88,9030,swell,,,,ibjaɾ,,,0
56231422709,Biak,-0.95,135.88,9040,say,,,,jakofen,,,0
56231422709,Biak,-0.95,135.88,9050,scratch,,,,isnauw,,,0
56231422709,Biak,-0.95,135.88,9060,stab,,,,iwan,,,0
56231422709,Biak,-0.95,135.88,9120,buy,,,,kjowes,,,0
56231422709,Biak,-0.95,135.88,9130,steal,,,,kaɾawu,,,0
56231422709,Biak,-0.95,135.88,9150,choose,,,,ikiNfiɾ,,,0
56231422709,Biak,-0.95,135.88,9180,plant,,,,kieɾe,,,0
56231422709,Biak,-0.95,135.88,9220,cook,,,,famfenap,,,0
56231422709,Biak,-0.95,135.88,9400,shoot,,,,pame,,,0
56231422709,Biak,-0.95,135.88,9500,work,,,,faɾaɾuɾ,,,0
56231422709,Biak,-0.95,135.88,9620,open,,,,bijase,,,0
56261005509,Waropen,-2.31,136.63,8020,come,,,,mau,,,0
56261005509,Waropen,-2.31,136.63,8030,walk,,,,ɾa,,,0
56261005509,Waropen,-2.31,136.63,8090,grow,,,,ukɔ,,,0
56261005509,Waropen,-2.31,136.63,8110,stand,,,,awɔtaɾɔ,,,0
56261005509,Waropen,-2.31,136.63,8120,sit,,,,kɔawaɾɔ,,,0
56261005509,Waropen,-2.31,136.63,8130,fall,,,,jamɔsaɔo,,,0
56261005509,Waropen,-2.31,136.63,8140,lie_down,,,,ɾanda,,,0
56261005509,Waropen,-2.31,136.63,8150,turn,,,,ɾaisa,,,0
56261005509,Waropen,-2.31,136.63,8180,climb,,,,aɡeisɔ,,,0
56261005509,Waropen,-2.31,136.63,8210,swim,,,,suna,,,0
56261005509,Waropen,-2.31,136.63,8220,fly_verb,,,,kipai,,,0
56261005509,Waropen,-2.31,136.63,8260,throw,,,,sɔo,,,0
56261005509,Waropen,-2.31,136.63,8270,hide,,,,aɡamijaɔ,,,0
56261005509,Waropen,-2.31,136.63,8290,chew,,,,kafukɔ,,,0
56261005509,Waropen,-2.31,136.63,8310,eat,,,,kanɔ,,,0
56261005509,Waropen,-2.31,136.63,8320,drink,,,,ɾunɔ,,,0
56261005509,Waropen,-2.31,136.63,8330,bite,,,,ɾafanɔ,,,0
56261005509,Waropen,-2.31,136.63,8340,suck,,,,asuma,,,0
56261005509,Waropen,-2.31,136.63,8360,yawn,,,,nditatakɔ,,,0
56261005509,Waropen,-2.31,136.63,8370,spit,,,,diwaka,,,0
56261005509,Waropen,-2.31,136.63,8400,dream,,,,andina,,,0
56261005509,Waropen,-2.31,136.63,8410,sleep,,,,jenakɔ,,,0
56261005509,Waropen,-2.31,136.63,8420,live,,,,ukɔ,,,0
56261005509,Waropen,-2.31,136.63,8430,die,,,,feɾɔ,,,0
56261005509,Waropen,-2.31,136.63,8440,kill,,,,mbumɔ,,,0
56261005509,Waropen,-2.31,136.63,8510,see,,,,siɾɔ,,,0
56261005509,Waropen,-2.31,136.63,8520,hear,,,,jawaɾa,,,0
56261005509,Waropen,-2.31,136.63,8540,sniff,,,,wusanɔ,,,0
56261005509,Waropen,-2.31,136.63,8550,know,,,,kafukɔ,,,0
56261005509,Waropen,-2.31,136.63,8560,think,,,,aŋɡaina,,,0
56261005509,Waropen,-2.31,136.63,8580,laugh,,,,ɾandenɔ,,,0
56261005509,Waropen,-2.31,136.63,8590,cry,,,,janicɔ,,,0
56261005509,Waropen,-2.31,136.63,8670,blow,,,,jufa,,,0
56261005509,Waropen,-2.31,136.63,8680,burn,,,,unɔ,,,0
56261005509,Waropen,-2.31,136.63,8690,flow,,,,kandamɔo,,,0
56261005509,Waropen,-2.31,136.63,8740,sew,,,,janɔ,,,0
56261005509,Waropen,-2.31,136.63,8810,hit,,,,ɾefana,,,0
56261005509,Waropen,-2.31,136.63,8870,cut,,,,sikefi,,,0
56261005509,Waropen,-2.31,136.63,8880,split,,,,bawukɔ,,,0
56261005509,Waropen,-2.31,136.63,8890,dig,,,,tɔw,,,0
56261005509,Waropen,-2.31,136.63,8930,hold,,,,amɔna,,,0
56261005509,Waropen,-2.31,136.63,8950,fear,,,,ɾakaku,,,0
56261005509,Waropen,-2.31,136.63,8960,count,,,,ɾeakɔ,,,0
56261005509,Waropen,-2.31,136.63,8970,breathe,,,,aufasa,,,0
56261005509,Waropen,-2.31,136.63,9000,vomit,,,,kɔɾaɾu,,,0
56261005509,Waropen,-2.31,136.63,9010,tie,,,,kɔɾanɔ,,,0
56261005509,Waropen,-2.31,136.63,9020,squeeze,,,,bawukɔ,,,0
56261005509,Waropen,-2.31,136.63,9030,swell,,,,pinɔ,,,0
56261005509,Waropen,-2.31,136.63,9040,say,,,,awɔna,,,0
56261005509,Waropen,-2.31,136.63,9050,scratch,,,,naɡaɔ,,,0
56261005509,Waropen,-2.31,136.63,9060,stab,,,,ʤina,,,0
56261005509,Waropen,-2.31,136.63,9120,buy,,,,aɡawukɔ,,,0
56261005509,Waropen,-2.31,136.63,9130,steal,,,,aubanda,,,0
56261005509,Waropen,-2.31,136.63,9150,choose,,,,aɡikajau,,,0
56261005509,Waropen,-2.31,136.63,9180,plant,,,,sedaɾa,,,0
56261005509,Waropen,-2.31,136.63,9220,cook,,,,asekɔ,,,0
56261005509,Waropen,-2.31,136.63,9400,shoot,,,,awuniɔ,,,0
56261005509,Waropen,-2.31,136.63,9620,open,,,,aupapi,,,0
