LanguageId,LanguageName,Latitude,Longitude,WordId,WordModernName1,WordModernName2,WordProtoName1,WordProtoName2,Phonetic,SpellingAltv1,SpellingAltv2,NotCognateWithMainWordInThisFamily
53201000009,Abun,-0.57,132.42,5120,moon,,,,aina,,,0
53201000009,Abun,-0.57,132.42,5130,star,,,,bi,,,0
53201000009,Abun,-0.57,132.42,5150,sky,,,,ɡuda,,,0
53201000009,Abun,-0.57,132.42,5210,water,,,,sjuɾ,,,0
53201000009,Abun,-0.57,132.42,6220,woods,,,,ndɛn,,,0
53201000009,Abun,-0.57,132.42,5230,lake,,,,ɛm,,,0
53201000009,Abun,-0.57,132.42,5240,sea,,,,ɾut,,,0
53201000009,Abun,-0.57,132.42,6240,root,,,,bɾɔot,,,0
53201000009,Abun,-0.57,132.42,6250,branch,,,,kwa,,,0
53201000009,Abun,-0.57,132.42,6260,leaf,,,,nat,,,0
53201000009,Abun,-0.57,132.42,6280,wood,,,,kuɛ,,,0
53201000009,Abun,-0.57,132.42,6310,grass,,,,ɛs,,,0
53201000009,Abun,-0.57,132.42,6320,flower,,,,u,,,0
53201000009,Abun,-0.57,132.42,5410,fire,,,,bɔot,,,0
53201000009,Abun,-0.57,132.42,5420,smoke,,,,bu,,,0
53201000009,Abun,-0.57,132.42,5430,ash,,,,bɔtbɾɔ,,,0
53201000009,Abun,-0.57,132.42,5510,stone,,,,ʤok,,,0
53201000009,Abun,-0.57,132.42,5520,earth,,,,buɾ,,,0
53201000009,Abun,-0.57,132.42,5530,dust,,,,ʤɛnbu,,,0
53201000009,Abun,-0.57,132.42,5540,sand,,,,ʤɛn,,,0
53801000009,Irires,-0.6051,132.4896,5120,moon,,,,mastʰ,,,0
53801000009,Irires,-0.6051,132.4896,5130,star,,,,mɛtuɾ,,,0
53801000009,Irires,-0.6051,132.4896,5150,sky,,,,mɔwakʰ,,,0
53801000009,Irires,-0.6051,132.4896,5210,water,,,,mɛi,,,0
53801000009,Irires,-0.6051,132.4896,6220,woods,,,,mɔwah,,,0
53801000009,Irires,-0.6051,132.4896,5230,lake,,,,mɛɾɛn,,,0
53801000009,Irires,-0.6051,132.4896,5240,sea,,,,mɛi,,,0
53801000009,Irires,-0.6051,132.4896,6240,root,,,,afɔu,,,0
53801000009,Irires,-0.6051,132.4896,6250,branch,,,,acitʰ,,,0
53801000009,Irires,-0.6051,132.4896,6260,leaf,,,,afɛi,,,0
53801000009,Irires,-0.6051,132.4896,6280,wood,,,,mɛɾ,,,0
53801000009,Irires,-0.6051,132.4896,6310,grass,,,,mɔfɔɾm,,,0
53801000009,Irires,-0.6051,132.4896,6320,flower,,,,afɔk,,,0
53801000009,Irires,-0.6051,132.4896,5410,fire,,,,maħ,,,0
53801000009,Irires,-0.6051,132.4896,5420,smoke,,,,maħɔw,,,0
53801000009,Irires,-0.6051,132.4896,5430,ash,,,,mɛtwɛi,,,0
53801000009,Irires,-0.6051,132.4896,5510,stone,,,,mɔŋɡɔm,,,0
53801000009,Irires,-0.6051,132.4896,5520,earth,,,,mɔu,,,0
53801000009,Irires,-0.6051,132.4896,5530,dust,,,,mɛtuwɛi,,,0
53801000009,Irires,-0.6051,132.4896,5540,sand,,,,mɛwis,,,0
53601000009,Miyah,-0.76268,132.57953,5120,moon,,,,sɛniɛ,,,0
53601000009,Miyah,-0.76268,132.57953,5130,star,,,,skɛn,,,0
53601000009,Miyah,-0.76268,132.57953,5150,sky,,,,aiwɔh,,,0
53601000009,Miyah,-0.76268,132.57953,5210,water,,,,aja,,,0
53601000009,Miyah,-0.76268,132.57953,6220,woods,,,,tuf,,,0
53601000009,Miyah,-0.76268,132.57953,5230,lake,,,,ɛmɔs,,,0
53601000009,Miyah,-0.76268,132.57953,5240,sea,,,,sasu,,,0
53601000009,Miyah,-0.76268,132.57953,6240,root,,,,ndis,,,0
53601000009,Miyah,-0.76268,132.57953,6250,branch,,,,ŋɡɾɛ,,,0
53601000009,Miyah,-0.76268,132.57953,6260,leaf,,,,mata,,,0
53601000009,Miyah,-0.76268,132.57953,6280,wood,,,,aɾa,,,0
53601000009,Miyah,-0.76268,132.57953,6310,grass,,,,sinan,,,0
53601000009,Miyah,-0.76268,132.57953,6320,flower,,,,ndafuf,,,0
53601000009,Miyah,-0.76268,132.57953,5410,fire,,,,tafɔh,,,0
53601000009,Miyah,-0.76268,132.57953,5420,smoke,,,,wasi,,,0
53601000009,Miyah,-0.76268,132.57953,5430,ash,,,,pɔh,,,0
53601000009,Miyah,-0.76268,132.57953,5510,stone,,,,fɾa,,,0
53601000009,Miyah,-0.76268,132.57953,5520,earth,,,,tapam,,,0
53601000009,Miyah,-0.76268,132.57953,5530,dust,,,,pɔhʌsiʌf,,,0
53601000009,Miyah,-0.76268,132.57953,5540,sand,,,,ɛni,,,0
53301000009,Mpur,-0.5,133.17,5120,moon,,,,man,,,0
53301000009,Mpur,-0.5,133.17,5130,star,,,,ton,,,0
53301000009,Mpur,-0.5,133.17,5150,sky,,,,bum,,,0
53301000009,Mpur,-0.5,133.17,5210,water,,,,waɾ,,,0
53301000009,Mpur,-0.5,133.17,6220,woods,,,,miɾau,,,0
53301000009,Mpur,-0.5,133.17,5230,lake,,,,ɔbʤap,,,0
53301000009,Mpur,-0.5,133.17,5240,sea,,,,wɔt,,,0
53301000009,Mpur,-0.5,133.17,6240,root,,,,meɾ,,,0
53301000009,Mpur,-0.5,133.17,6250,branch,,,,akwa,,,0
53301000009,Mpur,-0.5,133.17,6260,leaf,,,,bwa,,,0
53301000009,Mpur,-0.5,133.17,6280,wood,,,,ni,,,0
53301000009,Mpur,-0.5,133.17,6310,grass,,,,in,,,0
53301000009,Mpur,-0.5,133.17,6320,flower,,,,hup,,,0
53301000009,Mpur,-0.5,133.17,5410,fire,,,,jɛt,,,0
53301000009,Mpur,-0.5,133.17,5420,smoke,,,,kum,,,0
53301000009,Mpur,-0.5,133.17,5430,ash,,,,subup,,,0
53301000009,Mpur,-0.5,133.17,5510,stone,,,,biɡ,,,0
53301000009,Mpur,-0.5,133.17,5520,earth,,,,nɛk,,,0
53301000009,Mpur,-0.5,133.17,5530,dust,,,,subup,,,0
53301000009,Mpur,-0.5,133.17,5540,sand,,,,unʤa,,,0
53121400009,"W. Bomberai: Iha",-2.81,132.27,5120,moon,,,,kaβah,,,0
53121400009,"W. Bomberai: Iha",-2.81,132.27,5130,star,,,,kikiha,,,0
53121400009,"W. Bomberai: Iha",-2.81,132.27,5150,sky,,,,wɔŋ,,,0
53121400009,"W. Bomberai: Iha",-2.81,132.27,5210,water,,,,kɾa,,,0
53121400009,"W. Bomberai: Iha",-2.81,132.27,6220,woods,,,,pʊak,,,0
53121400009,"W. Bomberai: Iha",-2.81,132.27,5230,lake,,,,ham,,,0
53121400009,"W. Bomberai: Iha",-2.81,132.27,5240,sea,,,,pɛhɛɾ,,,0
53121400009,"W. Bomberai: Iha",-2.81,132.27,6240,root,,,,pʊɾ,,,0
53121400009,"W. Bomberai: Iha",-2.81,132.27,6250,branch,,,,hanat,,,0
53121400009,"W. Bomberai: Iha",-2.81,132.27,6260,leaf,,,,tɛn,,,0
53121400009,"W. Bomberai: Iha",-2.81,132.27,6280,wood,,,,adɔp,,,0
53121400009,"W. Bomberai: Iha",-2.81,132.27,6310,grass,,,,kaŋpam,,,0
53121400009,"W. Bomberai: Iha",-2.81,132.27,6320,flower,,,,pʊsin,,,0
53121400009,"W. Bomberai: Iha",-2.81,132.27,5410,fire,,,,tɔm,,,0
53121400009,"W. Bomberai: Iha",-2.81,132.27,5420,smoke,,,,ntɔɣa,,,0
53121400009,"W. Bomberai: Iha",-2.81,132.27,5430,ash,,,,pɔʊn,,,0
53121400009,"W. Bomberai: Iha",-2.81,132.27,5510,stone,,,,waɾ,,,0
53121400009,"W. Bomberai: Iha",-2.81,132.27,5520,earth,,,,pat,,,0
53121400009,"W. Bomberai: Iha",-2.81,132.27,5530,dust,,,,pɔʊn,,,0
53121400009,"W. Bomberai: Iha",-2.81,132.27,5540,sand,,,,hɛmɛŋ,,,0
52331605509,"Mek W.: Nalca",-4.26,139.88,5120,moon,,,,hwal,,,0
52331605509,"Mek W.: Nalca",-4.26,139.88,5130,star,,,,buɾo,,,0
52331605509,"Mek W.: Nalca",-4.26,139.88,5150,sky,,,,ji,,,0
52331605509,"Mek W.: Nalca",-4.26,139.88,5210,water,,,,mek,,,0
52331605509,"Mek W.: Nalca",-4.26,139.88,6220,woods,,,,beji,,,0
52331605509,"Mek W.: Nalca",-4.26,139.88,5230,lake,,,,loŋok,,,0
52331605509,"Mek W.: Nalca",-4.26,139.88,6240,root,,,,jaɾoŋ,,,0
52331605509,"Mek W.: Nalca",-4.26,139.88,6250,branch,,,,soɾuk,,,0
52331605509,"Mek W.: Nalca",-4.26,139.88,6260,leaf,,,,mekla,,,0
52331605509,"Mek W.: Nalca",-4.26,139.88,6280,wood,,,,kal,,,0
52331605509,"Mek W.: Nalca",-4.26,139.88,6310,grass,,,,hol,,,0
52331605509,"Mek W.: Nalca",-4.26,139.88,6320,flower,,,,is,,,0
52331605509,"Mek W.: Nalca",-4.26,139.88,5410,fire,,,,uk,,,0
52331605509,"Mek W.: Nalca",-4.26,139.88,5420,smoke,,,,sɔlom,,,0
52331605509,"Mek W.: Nalca",-4.26,139.88,5430,ash,,,,sembeca,,,0
52331605509,"Mek W.: Nalca",-4.26,139.88,5510,stone,,,,ɡiɾik,,,0
52331605509,"Mek W.: Nalca",-4.26,139.88,5520,earth,,,,soka,,,0
52331605509,"Mek W.: Nalca",-4.26,139.88,5530,dust,,,,has,,,0
52331605509,"Mek W.: Nalca",-4.26,139.88,5540,sand,,,,mumlanca,,,0
52241505509,Mee,-3.89,136.02,5120,moon,,,,aɽoː,,,0
52241505509,Mee,-3.89,136.02,5130,star,,,,ijapu,,,0
52241505509,Mee,-3.89,136.02,5150,sky,,,,epa,,,0
52241505509,Mee,-3.89,136.02,5210,water,,,,uwo,,,0
52241505509,Mee,-3.89,136.02,6220,woods,,,,buɡlua,,,0
52241505509,Mee,-3.89,136.02,5230,lake,,,,uwopeko,,,0
52241505509,Mee,-3.89,136.02,5240,sea,,,,maekaepejo,,,0
52241505509,Mee,-3.89,136.02,6240,root,,,,mani,,,0
52241505509,Mee,-3.89,136.02,6250,branch,,,,udi,,,0
52241505509,Mee,-3.89,136.02,6260,leaf,,,,imo,,,0
52241505509,Mee,-3.89,136.02,6280,wood,,,,pija,,,0
52241505509,Mee,-3.89,136.02,6310,grass,,,,bo,,,0
52241505509,Mee,-3.89,136.02,6320,flower,,,,dupi,,,0
52241505509,Mee,-3.89,136.02,5410,fire,,,,udU,,,0
52241505509,Mee,-3.89,136.02,5420,smoke,,,,nakaɽi,,,0
52241505509,Mee,-3.89,136.02,5430,ash,,,,noʀaː,,,0
52241505509,Mee,-3.89,136.02,5510,stone,,,,moɣo,,,0
52241505509,Mee,-3.89,136.02,5520,earth,,,,maki,,,0
52241505509,Mee,-3.89,136.02,5530,dust,,,,noʀa,,,0
52241505509,Mee,-3.89,136.02,5540,sand,,,,iː,,,0
56211575509,Ambel,-0.18,130.92,5120,moon,,,,tun,,,0
56211575509,Ambel,-0.18,130.92,5130,star,,,,kalɔ,,,0
56211575509,Ambel,-0.18,130.92,5150,sky,,,,mandep,,,0
56211575509,Ambel,-0.18,130.92,5210,water,,,,wɛ,,,0
56211575509,Ambel,-0.18,130.92,6220,woods,,,,aelɔ,,,0
56211575509,Ambel,-0.18,130.92,5230,lake,,,,tasikabun,,,0
56211575509,Ambel,-0.18,130.92,5240,sea,,,,walut,,,0
56211575509,Ambel,-0.18,130.92,6240,root,,,,ikawak,,,0
56211575509,Ambel,-0.18,130.92,6250,branch,,,,ikasaɡan,,,0
56211575509,Ambel,-0.18,130.92,6260,leaf,,,,kɔkanu,,,0
56211575509,Ambel,-0.18,130.92,6280,wood,,,,ai,,,0
56211575509,Ambel,-0.18,130.92,6310,grass,,,,abɾis,,,0
56211575509,Ambel,-0.18,130.92,6320,flower,,,,isu,,,0
56211575509,Ambel,-0.18,130.92,5410,fire,,,,lap,,,0
56211575509,Ambel,-0.18,130.92,5420,smoke,,,,andaɾau,,,0
56211575509,Ambel,-0.18,130.92,5430,ash,,,,laɡalap,,,0
56211575509,Ambel,-0.18,130.92,5510,stone,,,,katin,,,0
56211575509,Ambel,-0.18,130.92,5520,earth,,,,bat,,,0
56211575509,Ambel,-0.18,130.92,5530,dust,,,,laɡalap,,,0
56211575509,Ambel,-0.18,130.92,5540,sand,,,,laɛn,,,0
56231232209,"Yapen: Wooi",-1.63,135.48,5120,moon,,,,hembai,,,0
56231232209,"Yapen: Wooi",-1.63,135.48,5130,star,,,,hiβiai,,,0
56231232209,"Yapen: Wooi",-1.63,135.48,5150,sky,,,,ɾoɾa,,,0
56231232209,"Yapen: Wooi",-1.63,135.48,5210,water,,,,maɾia,,,0
56231232209,"Yapen: Wooi",-1.63,135.48,6220,woods,,,,wiɾaɾo,,,0
56231232209,"Yapen: Wooi",-1.63,135.48,5230,lake,,,,tobai,,,0
56231232209,"Yapen: Wooi",-1.63,135.48,5240,sea,,,,ɾau,,,0
56231232209,"Yapen: Wooi",-1.63,135.48,6240,root,,,,waɾi,,,0
56231232209,"Yapen: Wooi",-1.63,135.48,6250,branch,,,,aɾawaŋ,,,0
56231232209,"Yapen: Wooi",-1.63,135.48,6260,leaf,,,,ɾauŋ,,,0
56231232209,"Yapen: Wooi",-1.63,135.48,6280,wood,,,,ai,,,0
56231232209,"Yapen: Wooi",-1.63,135.48,6310,grass,,,,hamueŋ,,,0
56231232209,"Yapen: Wooi",-1.63,135.48,6320,flower,,,,pu,,,0
56231232209,"Yapen: Wooi",-1.63,135.48,5410,fire,,,,atia,,,0
56231232209,"Yapen: Wooi",-1.63,135.48,5420,smoke,,,,wiou,,,0
56231232209,"Yapen: Wooi",-1.63,135.48,5430,ash,,,,waβu,,,0
56231232209,"Yapen: Wooi",-1.63,135.48,5510,stone,,,,kami,,,0
56231232209,"Yapen: Wooi",-1.63,135.48,5520,earth,,,,kakopa,,,0
56231232209,"Yapen: Wooi",-1.63,135.48,5530,dust,,,,waβu,,,0
56231232209,"Yapen: Wooi",-1.63,135.48,5540,sand,,,,øapa,,,0
56231262309,"Yapen: Poom",-1.64,135.62,5120,moon,,,,hembai,,,0
56231262309,"Yapen: Poom",-1.64,135.62,5130,star,,,,pioɾi,,,0
56231262309,"Yapen: Poom",-1.64,135.62,5150,sky,,,,ɾoɾa,,,0
56231262309,"Yapen: Poom",-1.64,135.62,5210,water,,,,dia,,,0
56231262309,"Yapen: Poom",-1.64,135.62,6220,woods,,,,nuɾaɾo,,,0
56231262309,"Yapen: Poom",-1.64,135.62,5230,lake,,,,kaɾihⁿijaɾi,,,0
56231262309,"Yapen: Poom",-1.64,135.62,5240,sea,,,,βondau,,,0
56231262309,"Yapen: Poom",-1.64,135.62,6240,root,,,,wawaɾi,,,0
56231262309,"Yapen: Poom",-1.64,135.62,6250,branch,,,,aha,,,0
56231262309,"Yapen: Poom",-1.64,135.62,6260,leaf,,,,ɾaun,,,0
56231262309,"Yapen: Poom",-1.64,135.62,6280,wood,,,,ai,,,0
56231262309,"Yapen: Poom",-1.64,135.62,6310,grass,,,,nanimpu,,,0
56231262309,"Yapen: Poom",-1.64,135.62,6320,flower,,,,puɾ,,,0
56231262309,"Yapen: Poom",-1.64,135.62,5410,fire,,,,aɾuntan,,,0
56231262309,"Yapen: Poom",-1.64,135.62,5420,smoke,,,,ujouw,,,0
56231262309,"Yapen: Poom",-1.64,135.62,5430,ash,,,,waβu,,,0
56231262309,"Yapen: Poom",-1.64,135.62,5510,stone,,,,kami,,,0
56231262309,"Yapen: Poom",-1.64,135.62,5520,earth,,,,kakopa,,,0
56231262309,"Yapen: Poom",-1.64,135.62,5530,dust,,,,papau,,,0
56231262309,"Yapen: Poom",-1.64,135.62,5540,sand,,,,ɾobujan,,,0
56231233509,Ansus,-1.73,135.81,5120,moon,,,,jɛmbai,,,0
56231233509,Ansus,-1.73,135.81,5130,star,,,,piɔɾi,,,0
56231233509,Ansus,-1.73,135.81,5150,sky,,,,ɾɔɾa,,,0
56231233509,Ansus,-1.73,135.81,5210,water,,,,maɾia,,,0
56231233509,Ansus,-1.73,135.81,6220,woods,,,,wiɾɛi,,,0
56231233509,Ansus,-1.73,135.81,5230,lake,,,,ɾuɾu,,,0
56231233509,Ansus,-1.73,135.81,5240,sea,,,,ɾawanaŋ,,,0
56231233509,Ansus,-1.73,135.81,6240,root,,,,wɔa,,,0
56231233509,Ansus,-1.73,135.81,6250,branch,,,,aɾawaŋ,,,0
56231233509,Ansus,-1.73,135.81,6260,leaf,,,,wɛɾauŋ,,,0
56231233509,Ansus,-1.73,135.81,6280,wood,,,,ai,,,0
56231233509,Ansus,-1.73,135.81,6310,grass,,,,naniŋpuŋ,,,0
56231233509,Ansus,-1.73,135.81,6320,flower,,,,bopu,,,0
56231233509,Ansus,-1.73,135.81,5410,fire,,,,adia,,,0
56231233509,Ansus,-1.73,135.81,5420,smoke,,,,sɔna,,,0
56231233509,Ansus,-1.73,135.81,5430,ash,,,,wawu,,,0
56231233509,Ansus,-1.73,135.81,5510,stone,,,,kami,,,0
56231233509,Ansus,-1.73,135.81,5520,earth,,,,kakɔpa,,,0
56231233509,Ansus,-1.73,135.81,5530,dust,,,,wawu,,,0
56231233509,Ansus,-1.73,135.81,5540,sand,,,,ɾɔwuaŋ,,,0
56231422709,Biak,-0.95,135.88,5120,moon,,,,paik,,,0
56231422709,Biak,-0.95,135.88,5130,star,,,,mak,,,0
56231422709,Biak,-0.95,135.88,5150,sky,,,,mandep,,,0
56231422709,Biak,-0.95,135.88,5210,water,,,,waɾ,,,0
56231422709,Biak,-0.95,135.88,6220,woods,,,,sup,,,0
56231422709,Biak,-0.95,135.88,5230,lake,,,,waɾbekɾai,,,0
56231422709,Biak,-0.95,135.88,5240,sea,,,,bonda,,,0
56231422709,Biak,-0.95,135.88,6240,root,,,,ɾaɾes,,,0
56231422709,Biak,-0.95,135.88,6250,branch,,,,snawu,,,0
56231422709,Biak,-0.95,135.88,6260,leaf,,,,ɾam,,,0
56231422709,Biak,-0.95,135.88,6280,wood,,,,ai,,,0
56231422709,Biak,-0.95,135.88,6310,grass,,,,abɾis,,,0
56231422709,Biak,-0.95,135.88,6320,flower,,,,panpen,,,0
56231422709,Biak,-0.95,135.88,5410,fire,,,,foɾ,,,0
56231422709,Biak,-0.95,135.88,5420,smoke,,,,pau,,,0
56231422709,Biak,-0.95,135.88,5430,ash,,,,ɾoɾef,,,0
56231422709,Biak,-0.95,135.88,5510,stone,,,,kaɾui,,,0
56231422709,Biak,-0.95,135.88,5520,earth,,,,sapɾob,,,0
56231422709,Biak,-0.95,135.88,5530,dust,,,,fafen,,,0
56231422709,Biak,-0.95,135.88,5540,sand,,,,kaɾijen,,,0
56261005509,Waropen,-2.31,136.63,5120,moon,,,,ɡafa,,,0
56261005509,Waropen,-2.31,136.63,5130,star,,,,umai,,,0
56261005509,Waropen,-2.31,136.63,5150,sky,,,,ɔɾawaisisiɔ,,,0
56261005509,Waropen,-2.31,136.63,5210,water,,,,ɾauno,,,0
56261005509,Waropen,-2.31,136.63,6220,woods,,,,anabɔniɔ,,,0
56261005509,Waropen,-2.31,136.63,5230,lake,,,,wandɔ,,,0
56261005509,Waropen,-2.31,136.63,5240,sea,,,,tuni,,,0
56261005509,Waropen,-2.31,136.63,6240,root,,,,ŋɡai,,,0
56261005509,Waropen,-2.31,136.63,6250,branch,,,,ewaɾana,,,0
56261005509,Waropen,-2.31,136.63,6260,leaf,,,,ɾana,,,0
56261005509,Waropen,-2.31,136.63,6280,wood,,,,abɔ,,,0
56261005509,Waropen,-2.31,136.63,6310,grass,,,,ijo,,,0
56261005509,Waropen,-2.31,136.63,6320,flower,,,,ndawɔ,,,0
56261005509,Waropen,-2.31,136.63,5410,fire,,,,saɡa,,,0
56261005509,Waropen,-2.31,136.63,5420,smoke,,,,awus,,,0
56261005509,Waropen,-2.31,136.63,5430,ash,,,,awu,,,0
56261005509,Waropen,-2.31,136.63,5510,stone,,,,wai,,,0
56261005509,Waropen,-2.31,136.63,5520,earth,,,,ana,,,0
56261005509,Waropen,-2.31,136.63,5530,dust,,,,au,,,0
56261005509,Waropen,-2.31,136.63,5540,sand,,,,nafa,,,0
