LanguageId,LanguageName,Latitude,Longitude,WordId,WordModernName1,WordModernName2,WordProtoName1,WordProtoName2,Phonetic,SpellingAltv1,SpellingAltv2,NotCognateWithMainWordInThisFamily
53201000009,Abun,-0.57,132.42,10,one,,,,dik,,,0
53201000009,Abun,-0.57,132.42,20,two,,,,wɛ,,,0
53201000009,Abun,-0.57,132.42,30,three,,,,ɡɾi,,,0
53201000009,Abun,-0.57,132.42,40,four,,,,at,,,0
53201000009,Abun,-0.57,132.42,50,five,,,,mɛk,,,0
53201000009,Abun,-0.57,132.42,60,six,,,,mat,,,0
53201000009,Abun,-0.57,132.42,70,seven,,,,fit,,,0
53201000009,Abun,-0.57,132.42,80,eight,,,,ɡuɔ,,,0
53201000009,Abun,-0.57,132.42,90,nine,,,,misji,,,0
53201000009,Abun,-0.57,132.42,100,ten,,,,musju,,,0
53201000009,Abun,-0.57,132.42,110,twenty,,,,musjuwɛ,,,0
53201000009,Abun,-0.57,132.42,150,fifty,,,,musjumɛk,,,0
53201000009,Abun,-0.57,132.42,200,one_hundred,,,,utindik,,,0
53201000009,Abun,-0.57,132.42,210,one_thousand,,,,"utindik wɛ",,,0
53201000009,Abun,-0.57,132.42,7010,black,,,,tɛ,,,0
53201000009,Abun,-0.57,132.42,7020,white,,,,kuɔ,,,0
53201000009,Abun,-0.57,132.42,7030,red,,,,ɛɾ,,,0
53201000009,Abun,-0.57,132.42,7040,green,,,,kuɾ,,,0
53201000009,Abun,-0.57,132.42,7050,yellow,,,,kɾi,,,0
53801000009,Irires,-0.6051,132.4896,10,one,,,,afims,,,0
53801000009,Irires,-0.6051,132.4896,20,two,,,,aɾfik,,,0
53801000009,Irires,-0.6051,132.4896,30,three,,,,aɾfum,,,0
53801000009,Irires,-0.6051,132.4896,40,four,,,,tutɔhuɾ,,,0
53801000009,Irires,-0.6051,132.4896,50,five,,,,sintʃ,,,0
53801000009,Irires,-0.6051,132.4896,60,six,,,,tuɾɛms,,,0
53801000009,Irires,-0.6051,132.4896,70,seven,,,,tuɾak,,,0
53801000009,Irires,-0.6051,132.4896,80,eight,,,,"sintʃ tuɾɔm",,,0
53801000009,Irires,-0.6051,132.4896,90,nine,,,,"sintʃ tɔhuɾ",,,0
53801000009,Irires,-0.6051,132.4896,100,ten,,,,ciɾik,,,0
53801000009,Irires,-0.6051,132.4896,110,twenty,,,,"ciɾik aɾfik",,,0
53801000009,Irires,-0.6051,132.4896,150,fifty,,,,"ciɾik sintʃ",,,0
53801000009,Irires,-0.6051,132.4896,200,one_hundred,,,,utin,,,0
53801000009,Irires,-0.6051,132.4896,210,one_thousand,,,,"utin afims",,,0
53801000009,Irires,-0.6051,132.4896,7010,black,,,,ahitʰ,,,0
53801000009,Irires,-0.6051,132.4896,7020,white,,,,eus,,,0
53801000009,Irires,-0.6051,132.4896,7030,red,,,,aknɛɾ,,,0
53801000009,Irires,-0.6051,132.4896,7040,green,,,,afɾah,,,0
53801000009,Irires,-0.6051,132.4896,7050,yellow,,,,ɔmbɾi,,,0
53601000009,Miyah,-0.76268,132.57953,10,one,,,,su,,,0
53601000009,Miyah,-0.76268,132.57953,20,two,,,,ai,,,0
53601000009,Miyah,-0.76268,132.57953,30,three,,,,tuf,,,0
53601000009,Miyah,-0.76268,132.57953,40,four,,,,tiɛt,,,0
53601000009,Miyah,-0.76268,132.57953,50,five,,,,tɛmsu,,,0
53601000009,Miyah,-0.76268,132.57953,60,six,,,,kɾɛmsu,,,0
53601000009,Miyah,-0.76268,132.57953,70,seven,,,,kɾɛmaɛ,,,0
53601000009,Miyah,-0.76268,132.57953,80,eight,,,,kɾɛmtuf,,,0
53601000009,Miyah,-0.76268,132.57953,90,nine,,,,kɾɛmtiɛt,,,0
53601000009,Miyah,-0.76268,132.57953,100,ten,,,,tɛmai,,,0
53601000009,Miyah,-0.76268,132.57953,110,twenty,,,,tɛmaiaɛi,,,0
53601000009,Miyah,-0.76268,132.57953,150,fifty,,,,tɛmaitɛmsu,,,0
53601000009,Miyah,-0.76268,132.57953,200,one_hundred,,,,tɛmaitɛmai,,,0
53601000009,Miyah,-0.76268,132.57953,210,one_thousand,,,,tɛmaitɛmaitɛmai,,,0
53601000009,Miyah,-0.76268,132.57953,7010,black,,,,ŋɡuwɔn,,,0
53601000009,Miyah,-0.76268,132.57953,7020,white,,,,mbɔh,,,0
53601000009,Miyah,-0.76268,132.57953,7030,red,,,,ŋɡɛk,,,0
53601000009,Miyah,-0.76268,132.57953,7040,green,,,,ndɾah,,,0
53601000009,Miyah,-0.76268,132.57953,7050,yellow,,,,nfiaf,,,0
53301000009,Mpur,-0.5,133.17,10,one,,,,tu,,,0
53301000009,Mpur,-0.5,133.17,20,two,,,,dukiɾ,,,0
53301000009,Mpur,-0.5,133.17,30,three,,,,nuɾ,,,0
53301000009,Mpur,-0.5,133.17,40,four,,,,bwat,,,0
53301000009,Mpur,-0.5,133.17,50,five,,,,me,,,0
53301000009,Mpur,-0.5,133.17,60,six,,,,membetu,,,0
53301000009,Mpur,-0.5,133.17,70,seven,,,,membeɾkiɾ,,,0
53301000009,Mpur,-0.5,133.17,80,eight,,,,membeanuɾ,,,0
53301000009,Mpur,-0.5,133.17,90,nine,,,,membeabwat,,,0
53301000009,Mpur,-0.5,133.17,100,ten,,,,uŋɡiɾ,,,0
53301000009,Mpur,-0.5,133.17,110,twenty,,,,uŋɡiɾkiɾ,,,0
53301000009,Mpur,-0.5,133.17,150,fifty,,,,uŋɡiɾmɛ,,,0
53301000009,Mpur,-0.5,133.17,200,one_hundred,,,,untin,,,0
53301000009,Mpur,-0.5,133.17,7010,black,,,,nɛm,,,0
53301000009,Mpur,-0.5,133.17,7020,white,,,,fibɛ,,,0
53301000009,Mpur,-0.5,133.17,7030,red,,,,sum,,,0
53301000009,Mpur,-0.5,133.17,7040,green,,,,buwawob,,,0
53301000009,Mpur,-0.5,133.17,7050,yellow,,,,mufɾum,,,0
53121400009,"W. Bomberai: Iha",-2.81,132.27,10,one,,,,wɔ,,,0
53121400009,"W. Bomberai: Iha",-2.81,132.27,20,two,,,,ɾɪk,,,0
53121400009,"W. Bomberai: Iha",-2.81,132.27,30,three,,,,tɛɾɪ,,,0
53121400009,"W. Bomberai: Iha",-2.81,132.27,40,four,,,,ŋɡaɾa,,,0
53121400009,"W. Bomberai: Iha",-2.81,132.27,50,five,,,,tʊmpʊ,,,0
53121400009,"W. Bomberai: Iha",-2.81,132.27,60,six,,,,tʊmpʊwɔ,,,0
53121400009,"W. Bomberai: Iha",-2.81,132.27,70,seven,,,,tʊmpʊɾɪk,,,0
53121400009,"W. Bomberai: Iha",-2.81,132.27,80,eight,,,,tʊmpʊtɛɾɪ,,,0
53121400009,"W. Bomberai: Iha",-2.81,132.27,90,nine,,,,tʊmpʊŋɡaɾa,,,0
53121400009,"W. Bomberai: Iha",-2.81,132.27,100,ten,,,,pɾa,,,0
53121400009,"W. Bomberai: Iha",-2.81,132.27,110,twenty,,,,tɔmtɪʤɔwɔ,,,0
53121400009,"W. Bomberai: Iha",-2.81,132.27,150,fifty,,,,tɔmtɪdʊɾɪkpɾa,,,0
53121400009,"W. Bomberai: Iha",-2.81,132.27,200,one_hundred,,,,tɔmtɪdʊtʊmpʊ,,,0
53121400009,"W. Bomberai: Iha",-2.81,132.27,210,one_thousand,,,,tɔmtɪdʊpɾa,,,0
53121400009,"W. Bomberai: Iha",-2.81,132.27,7010,black,,,,hɛnɛk,,,0
53121400009,"W. Bomberai: Iha",-2.81,132.27,7020,white,,,,mbijɔŋ,,,0
53121400009,"W. Bomberai: Iha",-2.81,132.27,7030,red,,,,wɔnwʊn,,,0
53121400009,"W. Bomberai: Iha",-2.81,132.27,7050,yellow,,,,ɾamɛh,,,0
52331605509,"Mek W.: Nalca",-4.26,139.88,10,one,,,,henok,,,0
52331605509,"Mek W.: Nalca",-4.26,139.88,20,two,,,,peɲa,,,0
52331605509,"Mek W.: Nalca",-4.26,139.88,30,three,,,,ilimɲa,,,0
52331605509,"Mek W.: Nalca",-4.26,139.88,40,four,,,,doŋbadja,,,0
52331605509,"Mek W.: Nalca",-4.26,139.88,50,five,,,,lambadja,,,0
52331605509,"Mek W.: Nalca",-4.26,139.88,60,six,,,,hapadja,,,0
52331605509,"Mek W.: Nalca",-4.26,139.88,70,seven,,,,sekbadja,,,0
52331605509,"Mek W.: Nalca",-4.26,139.88,80,eight,,,,limbadja,,,0
52331605509,"Mek W.: Nalca",-4.26,139.88,90,nine,,,,suklubadja,,,0
52331605509,"Mek W.: Nalca",-4.26,139.88,100,ten,,,,sakobdja,,,0
52331605509,"Mek W.: Nalca",-4.26,139.88,110,twenty,,,,sakodaɾubadja,,,0
52331605509,"Mek W.: Nalca",-4.26,139.88,150,fifty,,,,lambaɾbadja,,,0
52331605509,"Mek W.: Nalca",-4.26,139.88,200,one_hundred,,,,denɡanhonokbadja,,,0
52331605509,"Mek W.: Nalca",-4.26,139.88,210,one_thousand,,,,kupnahonop,,,0
52331605509,"Mek W.: Nalca",-4.26,139.88,7010,black,,,,miɾin,,,0
52331605509,"Mek W.: Nalca",-4.26,139.88,7020,white,,,,ɡeis,,,0
52331605509,"Mek W.: Nalca",-4.26,139.88,7030,red,,,,eneŋ,,,0
52331605509,"Mek W.: Nalca",-4.26,139.88,7040,green,,,,suɡulamla,,,0
52331605509,"Mek W.: Nalca",-4.26,139.88,7050,yellow,,,,kameŋɡei,,,0
52241505509,Mee,-3.89,136.02,10,one,,,,ena,,,0
52241505509,Mee,-3.89,136.02,20,two,,,,wija,,,0
52241505509,Mee,-3.89,136.02,30,three,,,,wido,,,0
52241505509,Mee,-3.89,136.02,40,four,,,,wiː,,,0
52241505509,Mee,-3.89,136.02,50,five,,,,idibi,,,0
52241505509,Mee,-3.89,136.02,60,six,,,,benumi,,,0
52241505509,Mee,-3.89,136.02,70,seven,,,,pituwo,,,0
52241505509,Mee,-3.89,136.02,80,eight,,,,waɾuwo,,,0
52241505509,Mee,-3.89,136.02,90,nine,,,,ijeː,,,0
52241505509,Mee,-3.89,136.02,100,ten,,,,ʀaːti,,,0
52241505509,Mee,-3.89,136.02,110,twenty,,,,mepiːna,,,0
52241505509,Mee,-3.89,136.02,150,fifty,,,,amunato,,,0
52241505509,Mee,-3.89,136.02,200,one_hundred,,,,oɽaikamuto,,,0
52241505509,Mee,-3.89,136.02,210,one_thousand,,,,oɽaikamutoʀati,,,0
52241505509,Mee,-3.89,136.02,7010,black,,,,diɽimu,,,0
52241505509,Mee,-3.89,136.02,7020,white,,,,wakijoː,,,0
52241505509,Mee,-3.89,136.02,7030,red,,,,kadajoː,,,0
52241505509,Mee,-3.89,136.02,7050,yellow,,,,atadeː,,,0
56211575509,Ambel,-0.18,130.92,10,one,,,,kitem,,,0
56211575509,Ambel,-0.18,130.92,20,two,,,,lɔu,,,0
56211575509,Ambel,-0.18,130.92,30,three,,,,tul,,,0
56211575509,Ambel,-0.18,130.92,40,four,,,,hat,,,0
56211575509,Ambel,-0.18,130.92,50,five,,,,lim,,,0
56211575509,Ambel,-0.18,130.92,60,six,,,,wanum,,,0
56211575509,Ambel,-0.18,130.92,70,seven,,,,fit,,,0
56211575509,Ambel,-0.18,130.92,80,eight,,,,wal,,,0
56211575509,Ambel,-0.18,130.92,90,nine,,,,siu,,,0
56211575509,Ambel,-0.18,130.92,100,ten,,,,lahe,,,0
56211575509,Ambel,-0.18,130.92,110,twenty,,,,lahelɔu,,,0
56211575509,Ambel,-0.18,130.92,150,fifty,,,,lahelim,,,0
56211575509,Ambel,-0.18,130.92,200,one_hundred,,,,utun,,,0
56211575509,Ambel,-0.18,130.92,210,one_thousand,,,,ɾibu,,,0
56211575509,Ambel,-0.18,130.92,7010,black,,,,amatem,,,0
56211575509,Ambel,-0.18,130.92,7020,white,,,,ambu,,,0
56211575509,Ambel,-0.18,130.92,7030,red,,,,antami,,,0
56211575509,Ambel,-0.18,130.92,7040,green,,,,ambiao,,,0
56211575509,Ambel,-0.18,130.92,7050,yellow,,,,amani,,,0
56231232209,"Yapen: Wooi",-1.63,135.48,10,one,,,,koɾisi,,,0
56231232209,"Yapen: Wooi",-1.63,135.48,20,two,,,,koɾu,,,0
56231232209,"Yapen: Wooi",-1.63,135.48,30,three,,,,toɾu,,,0
56231232209,"Yapen: Wooi",-1.63,135.48,40,four,,,,muana,,,0
56231232209,"Yapen: Wooi",-1.63,135.48,50,five,,,,diŋ,,,0
56231232209,"Yapen: Wooi",-1.63,135.48,60,six,,,,wonaŋ,,,0
56231232209,"Yapen: Wooi",-1.63,135.48,70,seven,,,,itu,,,0
56231232209,"Yapen: Wooi",-1.63,135.48,80,eight,,,,waɾu,,,0
56231232209,"Yapen: Wooi",-1.63,135.48,90,nine,,,,siu,,,0
56231232209,"Yapen: Wooi",-1.63,135.48,100,ten,,,,huɾa,,,0
56231232209,"Yapen: Wooi",-1.63,135.48,110,twenty,,,,piaɾehi,,,0
56231232209,"Yapen: Wooi",-1.63,135.48,150,fifty,,,,"piaɾehi heha diŋ",,,0
56231232209,"Yapen: Wooi",-1.63,135.48,7010,black,,,,metaŋ,,,0
56231232209,"Yapen: Wooi",-1.63,135.48,7020,white,,,,kadui,,,0
56231232209,"Yapen: Wooi",-1.63,135.48,7030,red,,,,ɾia,,,0
56231232209,"Yapen: Wooi",-1.63,135.48,7040,green,,,,kake,,,0
56231232209,"Yapen: Wooi",-1.63,135.48,7050,yellow,,,,βoβotai,,,0
56231262309,"Yapen: Poom",-1.64,135.62,10,one,,,,koɾisi,,,0
56231262309,"Yapen: Poom",-1.64,135.62,20,two,,,,koiɾu,,,0
56231262309,"Yapen: Poom",-1.64,135.62,30,three,,,,toɾu,,,0
56231262309,"Yapen: Poom",-1.64,135.62,40,four,,,,at,,,0
56231262309,"Yapen: Poom",-1.64,135.62,50,five,,,,ɾin,,,0
56231262309,"Yapen: Poom",-1.64,135.62,60,six,,,,wonaŋ,,,0
56231262309,"Yapen: Poom",-1.64,135.62,70,seven,,,,itu,,,0
56231262309,"Yapen: Poom",-1.64,135.62,80,eight,,,,waɾu,,,0
56231262309,"Yapen: Poom",-1.64,135.62,90,nine,,,,siu,,,0
56231262309,"Yapen: Poom",-1.64,135.62,100,ten,,,,hauɾa,,,0
56231262309,"Yapen: Poom",-1.64,135.62,110,twenty,,,,piaɾehi,,,0
56231262309,"Yapen: Poom",-1.64,135.62,150,fifty,,,,piakoiɾuhehakoɾisi,,,0
56231262309,"Yapen: Poom",-1.64,135.62,200,one_hundred,,,,piaɾin,,,0
56231262309,"Yapen: Poom",-1.64,135.62,210,one_thousand,,,,piaɾinβehauɾa,,,0
56231262309,"Yapen: Poom",-1.64,135.62,7010,black,,,,metan,,,0
56231262309,"Yapen: Poom",-1.64,135.62,7020,white,,,,wuha,,,0
56231262309,"Yapen: Poom",-1.64,135.62,7030,red,,,,maɾou,,,0
56231262309,"Yapen: Poom",-1.64,135.62,7040,green,,,,makajandijau,,,0
56231262309,"Yapen: Poom",-1.64,135.62,7050,yellow,,,,kaɾawi,,,0
56231233509,Ansus,-1.73,135.81,10,one,,,,kɔiɾi,,,0
56231233509,Ansus,-1.73,135.81,20,two,,,,bɔkɔdu,,,0
56231233509,Ansus,-1.73,135.81,30,three,,,,bɔtɔɾu,,,0
56231233509,Ansus,-1.73,135.81,40,four,,,,manua,,,0
56231233509,Ansus,-1.73,135.81,50,five,,,,bɔɾiŋ,,,0
56231233509,Ansus,-1.73,135.81,60,six,,,,bɔwɔnaŋ,,,0
56231233509,Ansus,-1.73,135.81,70,seven,,,,bɔitu,,,0
56231233509,Ansus,-1.73,135.81,80,eight,,,,inʤatɔɾu,,,0
56231233509,Ansus,-1.73,135.81,90,nine,,,,inʤataŋ,,,0
56231233509,Ansus,-1.73,135.81,100,ten,,,,bɔuɾa,,,0
56231233509,Ansus,-1.73,135.81,110,twenty,,,,piaɾɛi,,,0
56231233509,Ansus,-1.73,135.81,150,fifty,,,,"piakoɔdu ɛa uɾa",,,0
56231233509,Ansus,-1.73,135.81,200,one_hundred,,,,piaɾiŋ,,,0
56231233509,Ansus,-1.73,135.81,210,one_thousand,,,,"piauɾa wɔɛɾiŋ",,,0
56231233509,Ansus,-1.73,135.81,7010,black,,,,miɛtaŋ,,,0
56231233509,Ansus,-1.73,135.81,7020,white,,,,bjua,,,0
56231233509,Ansus,-1.73,135.81,7030,red,,,,mɛɾai,,,0
56231233509,Ansus,-1.73,135.81,7040,green,,,,mɛkaiwɛɾauŋ,,,0
56231233509,Ansus,-1.73,135.81,7050,yellow,,,,kɛɾawiŋ,,,0
56231422709,Biak,-0.95,135.88,10,one,,,,eseɾ,,,0
56231422709,Biak,-0.95,135.88,20,two,,,,suɾu,,,0
56231422709,Biak,-0.95,135.88,30,three,,,,kjoɾ,,,0
56231422709,Biak,-0.95,135.88,40,four,,,,fjak,,,0
56231422709,Biak,-0.95,135.88,50,five,,,,ɾim,,,0
56231422709,Biak,-0.95,135.88,60,six,,,,women,,,0
56231422709,Biak,-0.95,135.88,70,seven,,,,fik,,,0
56231422709,Biak,-0.95,135.88,80,eight,,,,waɾ,,,0
56231422709,Biak,-0.95,135.88,90,nine,,,,siw,,,0
56231422709,Biak,-0.95,135.88,100,ten,,,,samfuɾ,,,0
56231422709,Biak,-0.95,135.88,110,twenty,,,,samfuɾdisuɾu,,,0
56231422709,Biak,-0.95,135.88,150,fifty,,,,samfuɾdiɾim,,,0
56231422709,Biak,-0.95,135.88,200,one_hundred,,,,utineseɾ,,,0
56231422709,Biak,-0.95,135.88,210,one_thousand,,,,siaɾaneseɾ,,,0
56231422709,Biak,-0.95,135.88,7010,black,,,,paisem,,,0
56231422709,Biak,-0.95,135.88,7020,white,,,,ipjopeɾ,,,0
56231422709,Biak,-0.95,135.88,7030,red,,,,iɾik,,,0
56231422709,Biak,-0.95,135.88,7040,green,,,,iɾumek,,,0
56231422709,Biak,-0.95,135.88,7050,yellow,,,,ɲaɲaɾ,,,0
56261005509,Waropen,-2.31,136.63,10,one,,,,wɔsiɔ,,,0
56261005509,Waropen,-2.31,136.63,20,two,,,,wɔɾuwɔ,,,0
56261005509,Waropen,-2.31,136.63,30,three,,,,ɔɾɔ,,,0
56261005509,Waropen,-2.31,136.63,40,four,,,,funakenda,,,0
56261005509,Waropen,-2.31,136.63,50,five,,,,baiŋɡakenda,,,0
56261005509,Waropen,-2.31,136.63,60,six,,,,baiŋɡakendatɔwoɔsiɔ,,,0
56261005509,Waropen,-2.31,136.63,70,seven,,,,baiŋɡakendatɔwɔɾfɔ,,,0
56261005509,Waropen,-2.31,136.63,80,eight,,,,baiŋɡakendatɔwɔɾɔ,,,0
56261005509,Waropen,-2.31,136.63,90,nine,,,,baiŋɡakendafɔnakenda,,,0
56261005509,Waropen,-2.31,136.63,100,ten,,,,sauwɔɾɔ,,,0
56261005509,Waropen,-2.31,136.63,110,twenty,,,,sauwɔɾɔkɔɾuwɔ,,,0
56261005509,Waropen,-2.31,136.63,150,fifty,,,,sauwɔɾɔbaiŋɡakenda,,,0
56261005509,Waropen,-2.31,136.63,200,one_hundred,,,,hasatiɔ,,,0
56261005509,Waropen,-2.31,136.63,7010,black,,,,mbenɔ,,,0
56261005509,Waropen,-2.31,136.63,7020,white,,,,fakɔo,,,0
56261005509,Waropen,-2.31,136.63,7030,red,,,,ɾanahaɾɔ,,,0
56261005509,Waropen,-2.31,136.63,7040,green,,,,ɡaɡadɔ,,,0
56261005509,Waropen,-2.31,136.63,7050,yellow,,,,ndikɔ,,,0
