LanguageId,LanguageName,Latitude,Longitude,WordId,WordModernName1,WordModernName2,WordProtoName1,WordProtoName2,Phonetic,SpellingAltv1,SpellingAltv2,NotCognateWithMainWordInThisFamily
12121120229,"Galician: Foz",43.55,-7.3,2340,arm,,bracchium,,ˈbɾaθo̞,brazo,,0
12121120229,"Galician: Foz",43.55,-7.3,2250,beard,,barbam,,ˈbaˑɾβa̝,barba,,0
12121120229,"Galician: Foz",43.55,-7.3,2610,blood,,sanguinem,,ˈsaŋɡɪ,sangue,,0
12121120229,"Galician: Foz",43.55,-7.3,7390,broad,,largum,,ˈlarɣo,largo,,0
12121120229,"Galician: Foz",43.55,-7.3,7000,colour,,colorem,,kʰɔ̟ˑr,"cor /  color",,0
12121120229,"Galician: Foz",43.55,-7.3,6070,corn,,granum,,ɡɾa̟ˑŋ,gran,,0
12121120229,"Galician: Foz",43.55,-7.3,8430,dead_fem,,mortuam,,ˈmɔ̞rtɐ,morta,,0
12121120229,"Galician: Foz",43.55,-7.3,3160,deer,,cervum,,ˈθɛˑrβo̞,cervo,,0
12121120229,"Galician: Foz",43.55,-7.3,6520,door,,portam,,ˈpɔ̞ɾtɐ̟,porta,,0
12121120229,"Galician: Foz",43.55,-7.3,2130,ear,,auriculam,,hɔ̈̆ˈɾe̞ˑɟʝɐ̟,orella,,0
12121120229,"Galician: Foz",43.55,-7.3,5520,earth,,terram,,ˈtɛ̞rɐ,terra,,0
12121120229,"Galician: Foz",43.55,-7.3,6530,entrance,,intratam,,ɪ̆nˈtʰɾaˑð̞a̝,entrada,,0
12121120229,"Galician: Foz",43.55,-7.3,7330,fast,,rapidum,,ˈraˑpĭðo̟,rápido,,0
12121120229,"Galician: Foz",43.55,-7.3,4320,father,,pater,,pa̠ˑi,pai,,0
12121120229,"Galician: Foz",43.55,-7.3,6320,flower,,florem,,flˠɔˑr,flor,,0
12121120229,"Galician: Foz",43.55,-7.3,40,four,,quattuor,,ˈkatɾo,catro,,0
12121120229,"Galician: Foz",43.55,-7.3,3190,goat,,capram,,ˈkʰaˑβɾɐ̟,cabra,,0
12121120229,"Galician: Foz",43.55,-7.3,5610,gold,,aurum,,ˈʔɔʊɾo,ouro,,0
12121120229,"Galician: Foz",43.55,-7.3,6310,grass,,herbam,,ˈʔɛrβa̝,herba,,0
12121120229,"Galician: Foz",43.55,-7.3,7040,green,,viridem,,ˈbɛ̝rðe,verde,,0
12121120229,"Galician: Foz",43.55,-7.3,8480,he_believes_subj,,credat,,ˈkʰɾeˑa,crea,,0
12121120229,"Galician: Foz",43.55,-7.3,8410,he_sleeps,,dormit,,ˈdɔ̞ˑrme,dorme,,0
12121120229,"Galician: Foz",43.55,-7.3,5870,heat,,calorem,,kʰă̝ˈlˠɔˑr,calor,,0
12121120229,"Galician: Foz",43.55,-7.3,3820,horn,,cornu,,ˈkʰɔ̞rno,corno,,0
12121120229,"Galician: Foz",43.55,-7.3,5040,hour,,horam,,ˈʔɔˑɾɐ̟,hora,,0
12121120229,"Galician: Foz",43.55,-7.3,8510,I_see,,video,,be̞ˑr,ver,,0
12121120229,"Galician: Foz",43.55,-7.3,8650,it_lasts,,durat,,ˈdʊˑɾɐ̟,dura,,0
12121120229,"Galician: Foz",43.55,-7.3,8170,let_us_go_in,,intramus,,ʔĕnˈtɾamo̟s̺,entramos!,,0
12121120229,"Galician: Foz",43.55,-7.3,4310,mother,,mater,,naˑi,nai,,0
12121120229,"Galician: Foz",43.55,-7.3,4100,name,,nominem,,ˈnɔ̞ˑme,nome,,0
12121120229,"Galician: Foz",43.55,-7.3,6550,oven,,furnum,,ˈfɔ̝rno,forno,,0
12121120229,"Galician: Foz",43.55,-7.3,1810,part,,partem,,ˈpaɾte,parte,,0
12121120229,"Galician: Foz",43.55,-7.3,6200,raw_fem,,crudam,,ˈkʰɾʊˑwɐ,crúa,,0
12121120229,"Galician: Foz",43.55,-7.3,7540,sad,,tristem,,ˈtɾistʰe,triste,,0
12121120229,"Galician: Foz",43.55,-7.3,5240,sea,,mare,,maˑr,mar,,0
12121120229,"Galician: Foz",43.55,-7.3,8630,serve_ipv_pl,,servite,,s̺ë̆ɾˈbiðes,servides,,0
12121120229,"Galician: Foz",43.55,-7.3,5130,star,,stellam,,ˈstʰɾɛ̝la,estrela,,0
12121120229,"Galician: Foz",43.55,-7.3,5510,stone,,petram,,ˈpɛˑðə̟̆ɾa̝,pedra,,0
12121120229,"Galician: Foz",43.55,-7.3,7320,straight,,directum,,de̞ˈɾɛ̝̆ɪ̆tʰo,dereito,,0
12121120229,"Galician: Foz",43.55,-7.3,7610,strong,,fortem,,ˈfɔ̞rte,forte,,0
12121120229,"Galician: Foz",43.55,-7.3,2140,tear,,lacrimam,,ˈlaɣɾɪ̆ma̝,lágrima,,0
12121120229,"Galician: Foz",43.55,-7.3,30,three,,tres,,tɾe̞ˑs̺,tres,,0
12121120229,"Galician: Foz",43.55,-7.3,8640,to_sell,,vendere,,b̥ë̆nˈde̞ˑr˳,vender,,0
12121120229,"Galician: Foz",43.55,-7.3,8490,let_us_hope,,speramus,,ʃpë̆ˈɾa̠mo̞s̺,esperamos,,0
12121120229,"Galician: Foz",43.55,-7.3,6840,wheel,,rotam,,ˈrɔ̞ˑðɐ,roda,,0
12121120229,"Galician: Foz",43.55,-7.3,5080,winter,,hibernum,,ʔĭmˈbɛɾnö,inverno,,0
12121120229,"Galician: Foz",43.55,-7.3,3420,worm,,vermem,,ˈbɛrme,verme,,0
12121120229,"Galician: Foz",43.55,-7.3,8050,carry_you_pl,,portatis,,pɔ̆ɾˈta̠ˑðe,portade,,0
12121120229,"Galician: Foz",43.55,-7.3,740,your_pl_fem,,vostram,,ˈbɔ̞ˑs̺ɐ̟,vosa,,0
12111330008,"Port.: Std Lisbon acc.",38.71667,-9.16667,2340,arm,,bracchium,,bə̆ˈɾaˑsŭ,braço,,0
12111330008,"Port.: Std Lisbon acc.",38.71667,-9.16667,2250,beard,,barbam,,ˈbaˑɾbə,barba,,0
12111330008,"Port.: Std Lisbon acc.",38.71667,-9.16667,2610,blood,,sanguinem,,ˈsɛˑŋɡɯ,sangue,,0
12111330008,"Port.: Std Lisbon acc.",38.71667,-9.16667,7390,broad,,largum,,ˈɫɑˑɾʊ̆ɡu,largo,,0
12111330008,"Port.: Std Lisbon acc.",38.71667,-9.16667,7000,colour,,colorem,,kʰŭˈoˑɾ̥,cor,,0
12111330008,"Port.: Std Lisbon acc.",38.71667,-9.16667,6070,corn,,granum,,ɡɘ̟̆ˈɾæˑõ,grão,,0
12111330008,"Port.: Std Lisbon acc.",38.71667,-9.16667,8430,dead_fem,,mortuam,,ˈmɔɞ̆ɾtɐ,morta,,0
12111330008,"Port.: Std Lisbon acc.",38.71667,-9.16667,3160,deer,,cervum,,ˈsɪĕ̠ɾvu,cervo,,0
12111330008,"Port.: Std Lisbon acc.",38.71667,-9.16667,6520,door,,portam,,ˈpʰɔɞ̆ɾtɜ̟,porta,,0
12111330008,"Port.: Std Lisbon acc.",38.71667,-9.16667,2130,ear,,auriculam,,ʔɔ̝ˈɾɛˑlʲɜ̟,orelha,,0
12111330008,"Port.: Std Lisbon acc.",38.71667,-9.16667,5520,earth,,terram,,ˈtɛ̝ˑæ̆ʁə,terra,,0
12111330008,"Port.: Std Lisbon acc.",38.71667,-9.16667,6530,entrance,,intratam,,ʔɛ̈̆nˈtɾaːðɜ,entrada,,0
12111330008,"Port.: Std Lisbon acc.",38.71667,-9.16667,7330,fast,,rapidum,,ˈχaˑpĭdu,rápido,,0
12111330008,"Port.: Std Lisbon acc.",38.71667,-9.16667,4320,father,,pater,,pɑˑɪˑ,pai,,0
12111330008,"Port.: Std Lisbon acc.",38.71667,-9.16667,6320,flower,,florem,,ˈfɫoɘ̆ɾ̥ɯ̥̆,flor,,0
12111330008,"Port.: Std Lisbon acc.",38.71667,-9.16667,40,four,,quattuor,,ˈkwa̠ˑtɾ̥ŭ̥,quatro,,0
12111330008,"Port.: Std Lisbon acc.",38.71667,-9.16667,3190,goat,,capram,,ˈkʰaˑbɾɜ,cabra,,0
12111330008,"Port.: Std Lisbon acc.",38.71667,-9.16667,5610,gold,,aurum,,ˈʔoːɾu,ouro,,0
12111330008,"Port.: Std Lisbon acc.",38.71667,-9.16667,6310,grass,,herbam,,ˈʔɛɐ̆ɾɘ̠̆vɜ,erva,,0
12111330008,"Port.: Std Lisbon acc.",38.71667,-9.16667,7040,green,,viridem,,ˈveˑə̆ɾdɯ,verde,,0
12111330008,"Port.: Std Lisbon acc.",38.71667,-9.16667,8480,he_believes_subj,,credat,,kʰə̆ˈɾɛijɜ,creia,,0
12111330008,"Port.: Std Lisbon acc.",38.71667,-9.16667,8410,he_sleeps,,dormit,,ˈdɔˑə̆rme̠,dorme,,0
12111330008,"Port.: Std Lisbon acc.",38.71667,-9.16667,5870,heat,,calorem,,kʰɑ̝ˈɫoɘɾɯ,calor,,0
12111330008,"Port.: Std Lisbon acc.",38.71667,-9.16667,3820,horn,,cornu,,ˈkʰwoˑɾnu,corno,,0
12111330008,"Port.: Std Lisbon acc.",38.71667,-9.16667,5040,hour,,horam,,ˈʔɔɐɾ̠ɜ̟,hora,,0
12111330008,"Port.: Std Lisbon acc.",38.71667,-9.16667,8510,I_see,,video,,ˈvɪe̠ɾɘ,ver,,0
12111330008,"Port.: Std Lisbon acc.",38.71667,-9.16667,8650,it_lasts,,durat,,ˈduˑɾ̠ɛ̈,dura,,0
12111330008,"Port.: Std Lisbon acc.",38.71667,-9.16667,8170,let_us_go_in,,intramus,,ʔenˈtɾɛˑmuʃ,"entramos!, entremos!",,0
12111330008,"Port.: Std Lisbon acc.",38.71667,-9.16667,4310,mother,,mater,,mɛ̞ˑɪ̃ˑ,mãe,,0
12111330008,"Port.: Std Lisbon acc.",38.71667,-9.16667,4100,name,,nominem,,ˈnɔ̝ːmë,nome,,0
12111330008,"Port.: Std Lisbon acc.",38.71667,-9.16667,6550,oven,,furnum,,ˈfoˑrnu,forno,,0
12111330008,"Port.: Std Lisbon acc.",38.71667,-9.16667,1810,part,,partem,,pa̟ˑɾ̥tʰ,parte,,0
12111330008,"Port.: Std Lisbon acc.",38.71667,-9.16667,6200,raw_fem,,crudam,,ˈkʰɾuːwɛ,crua,,0
12111330008,"Port.: Std Lisbon acc.",38.71667,-9.16667,7540,sad,,tristem,,ˈtʰɾiˑʃtʰɯ,triste,,0
12111330008,"Port.: Std Lisbon acc.",38.71667,-9.16667,5240,sea,,mare,,maːʈʂ,mar,,0
12111330008,"Port.: Std Lisbon acc.",38.71667,-9.16667,8630,serve_ipv_pl,,servite,,sɘ̆ɾˈviˑdɯʃ,servides,,0
12111330008,"Port.: Std Lisbon acc.",38.71667,-9.16667,5130,star,,stellam,,ˈʃtɾeɐ̆ɫɜ,estrela,,0
12111330008,"Port.: Std Lisbon acc.",38.71667,-9.16667,5510,stone,,petram,,ˈpɛ̝ɐ̆ðə̆ɾɜ,pedra,,0
12111330008,"Port.: Std Lisbon acc.",38.71667,-9.16667,7320,straight,,directum,,diˈɾɛɪtʰu,direito,,0
12111330008,"Port.: Std Lisbon acc.",38.71667,-9.16667,7610,strong,,fortem,,ˈfɔˑɾ̥tʰɯ,forte,,0
12111330008,"Port.: Std Lisbon acc.",38.71667,-9.16667,2140,tear,,lacrimam,,ˈɫaˑɡɾĭmɜ,lágrima,,0
12111330008,"Port.: Std Lisbon acc.",38.71667,-9.16667,30,three,,tres,,tɾeˑĕ̠ʃ,três,,0
12111330008,"Port.: Std Lisbon acc.",38.71667,-9.16667,8640,to_sell,,vendere,,vẽnˈdɪˑĕ̠ʈʂ,vender,,0
12111330008,"Port.: Std Lisbon acc.",38.71667,-9.16667,8490,let_us_hope,,speramus,,ʃpɘ̆ˈɾ̠ɛˑmuʃ,esperamos,,0
12111330008,"Port.: Std Lisbon acc.",38.71667,-9.16667,6840,wheel,,rotam,,ˈχɔːðɛ̈,roda,,0
12111330008,"Port.: Std Lisbon acc.",38.71667,-9.16667,5080,winter,,hibernum,,ʔĩɱˈvɛ̝ɐ̆rnu,Inverno,,0
12111330008,"Port.: Std Lisbon acc.",38.71667,-9.16667,3420,worm,,vermem,,ˈvɛ̝ɛ̆ɾɘ̆mɯ,verme,,0
12111330008,"Port.: Std Lisbon acc.",38.71667,-9.16667,8050,carry_you_pl,,portatis,,supʊ̆ɾˈtaˑiˑ,suportais,,0
12111330008,"Port.: Std Lisbon acc.",38.71667,-9.16667,740,your_pl_fem,,vostram,,ˈvɔ̝̆ɔsɜ,vossa,,0
12131120508,"Spanish Std: Burgos",42.35,-3.7,2340,arm,,bracchium,,ˈbɾɐθˑɔ,brazo,,0
12131120508,"Spanish Std: Burgos",42.35,-3.7,2250,beard,,barbam,,ˈbɐ˞ˑɾbɐ,barba,,0
12131120508,"Spanish Std: Burgos",42.35,-3.7,2610,blood,,sanguinem,,ˈsa̟ŋɡɾe,sangre,,0
12131120508,"Spanish Std: Burgos",42.35,-3.7,7390,broad,,largum,,ˈlɐ̟ɾɣ̞o̞,largo,,0
12131120508,"Spanish Std: Burgos",42.35,-3.7,7000,colour,,colorem,,kʰo̞ˈlˠɔˑɾə̠̆,color,,0
12131120508,"Spanish Std: Burgos",42.35,-3.7,6070,corn,,granum,,ɡə̟̆ˈɾa̟ˑno,grano,,0
12131120508,"Spanish Std: Burgos",42.35,-3.7,8430,dead_fem,,mortuam,,ˈmwə̆ɾta,muerta,,0
12131120508,"Spanish Std: Burgos",42.35,-3.7,3160,deer,,cervum,,ˈθje̠ɾβ̞o̞,ciervo,,0
12131120508,"Spanish Std: Burgos",42.35,-3.7,6520,door,,portam,,pu̞ˈɛ̝̠ɾta,puerta,,0
12131120508,"Spanish Std: Burgos",42.35,-3.7,2130,ear,,auriculam,,o̞ˈɾe̞ˑx̠ɐ,oreja,,0
12131120508,"Spanish Std: Burgos",42.35,-3.7,5520,earth,,terram,,ˈtʰiˑˈɛ̠ra,tierra,,0
12131120508,"Spanish Std: Burgos",42.35,-3.7,6530,entrance,,intratam,,ɪ̆nˈtɾɐˑð̞ɐ,entrada,,0
12131120508,"Spanish Std: Burgos",42.35,-3.7,7330,fast,,rapidum,,ˈrˠɐpĭð̞ɔ̝,rápido,,0
12131120508,"Spanish Std: Burgos",42.35,-3.7,4320,father,,pater,,ˈpʰɐðɾe,padre,,0
12131120508,"Spanish Std: Burgos",42.35,-3.7,6320,flower,,florem,,ˈflɔˑɾə̠̆,flor,,0
12131120508,"Spanish Std: Burgos",42.35,-3.7,40,four,,quattuor,,ˈkwɐtɾo,cuatro,,0
12131120508,"Spanish Std: Burgos",42.35,-3.7,3190,goat,,capram,,ˈkʰaˑβə̆ɾa,cabra,,0
12131120508,"Spanish Std: Burgos",42.35,-3.7,5610,gold,,aurum,,ˈoˑɾɔ̟,oro,,0
12131120508,"Spanish Std: Burgos",42.35,-3.7,6310,grass,,herbam,,ˈjɛ̝̠ɾβ̞a̠,hierba,,0
12131120508,"Spanish Std: Burgos",42.35,-3.7,7040,green,,viridem,,ˈβɛ˞ˑɾðɛ̝,verde,,0
12131120508,"Spanish Std: Burgos",42.35,-3.7,8480,he_believes_subj,,credat,,kʰɾe̞ˑa,crea,,0
12131120508,"Spanish Std: Burgos",42.35,-3.7,8410,he_sleeps,,dormit,,ˈdwə̠ɾmẽ,duerme,,0
12131120508,"Spanish Std: Burgos",42.35,-3.7,5870,heat,,calorem,,kʰa̝ˈlɔ̝ˑɾö̆,calor,,0
12131120508,"Spanish Std: Burgos",42.35,-3.7,3820,horn,,cornu,,ˈkʰwe̠rnö,cuerno,,0
12131120508,"Spanish Std: Burgos",42.35,-3.7,5040,hour,,horam,,ˈoˑɾɐ,hora,,0
12131120508,"Spanish Std: Burgos",42.35,-3.7,8510,I_see,,video,,ˈbɛˑɾɐ̆,ver,,0
12131120508,"Spanish Std: Burgos",42.35,-3.7,8650,it_lasts,,durat,,ˈduˑɾɐ,dura,,0
12131120508,"Spanish Std: Burgos",42.35,-3.7,8170,let_us_go_in,,intramus,,ĕnˈtɾamo̞s̺,¡entremos!,,0
12131120508,"Spanish Std: Burgos",42.35,-3.7,4310,mother,,mater,,ˈmɐˑð̞ɾe,madre,,0
12131120508,"Spanish Std: Burgos",42.35,-3.7,4100,name,,nominem,,ˈno̞mbɾe̞,nombre,,0
12131120508,"Spanish Std: Burgos",42.35,-3.7,6550,oven,,furnum,,ˈoˑrˠnɔ̝̃,horno,,0
12131120508,"Spanish Std: Burgos",42.35,-3.7,1810,part,,partem,,ˈpɐ˞ɾte,parte,,0
12131120508,"Spanish Std: Burgos",42.35,-3.7,6200,raw_fem,,crudam,,ˈkʰɾuˑða,cruda,,0
12131120508,"Spanish Std: Burgos",42.35,-3.7,7540,sad,,tristem,,tɘ̟̆ˈɾistʰe,triste,,0
12131120508,"Spanish Std: Burgos",42.35,-3.7,5240,sea,,mare,,ˈmɐ̟ˑɾə̆,mar,,0
12131120508,"Spanish Std: Burgos",42.35,-3.7,8630,serve_ipv_pl,,servite,,se̠ɾˈbis,servís,,0
12131120508,"Spanish Std: Burgos",42.35,-3.7,5130,star,,stellam,,esˈt̪ʰɾeʎa,estrella,,0
12131120508,"Spanish Std: Burgos",42.35,-3.7,5510,stone,,petram,,ˈpje̠ð̞ɾɐ,piedra,,0
12131120508,"Spanish Std: Burgos",42.35,-3.7,7320,straight,,directum,,de̠ˈɾetʃö,derecho,,0
12131120508,"Spanish Std: Burgos",42.35,-3.7,7610,strong,,fortem,,ˈfwə̠ɾte̞,fuerte,,0
12131120508,"Spanish Std: Burgos",42.35,-3.7,2140,tear,,lacrimam,,ˈlɐˑɣ̞ɾi̞mɐ,lágrima,,0
12131120508,"Spanish Std: Burgos",42.35,-3.7,30,three,,tres,,tɾeˑs,tres,,0
12131120508,"Spanish Std: Burgos",42.35,-3.7,8640,to_sell,,vendere,,benˈdɛˑɾə̆,vender,,0
12131120508,"Spanish Std: Burgos",42.35,-3.7,8490,let_us_hope,,speramus,,ĕspĕˈɾaˑmo̞s̺,esperamos,,0
12131120508,"Spanish Std: Burgos",42.35,-3.7,6840,wheel,,rotam,,ˈrwe̠ð̞a,rueda,,0
12131120508,"Spanish Std: Burgos",42.35,-3.7,5080,winter,,hibernum,,ĭɱˈvjɛ̠r̝nö,invierno,,0
12131120508,"Spanish Std: Burgos",42.35,-3.7,3420,worm,,vermem,,ˈbe̞ˑɾmɛ̝̃,"vierme ???",,0
12131120508,"Spanish Std: Burgos",42.35,-3.7,8050,carry_you_pl,,portatis,,pɔ̝ɾˈtaθ,(so)portad,,0
12131120508,"Spanish Std: Burgos",42.35,-3.7,740,your_pl_fem,,vostram,,ˈbwe̠stɾa,vuestra,,0
12141380509,"Catalan NW: Andorra",42.55833,1.55528,2340,arm,,bracchium,,bɾaːs,,,0
12141380509,"Catalan NW: Andorra",42.55833,1.55528,2250,beard,,barbam,,ˈba̠ɹ̝βa̠,,,0
12141380509,"Catalan NW: Andorra",42.55833,1.55528,2610,blood,,sanguinem,,sã̝ˑŋk,,,0
12141380509,"Catalan NW: Andorra",42.55833,1.55528,7390,broad,,largum,,ˈʎa̟ˑɹ̝̥kʰ,,,0
12141380509,"Catalan NW: Andorra",42.55833,1.55528,7000,colour,,colorem,,kʰʊˈɫo̞ˑ,,,0
12141380509,"Catalan NW: Andorra",42.55833,1.55528,6070,corn,,granum,,ɡɾaː,,,0
12141380509,"Catalan NW: Andorra",42.55833,1.55528,8430,dead_fem,,mortuam,,ˈmɔ̞ˑɾta̝̠,,,0
12141380509,"Catalan NW: Andorra",42.55833,1.55528,3160,deer,,cervum,,ˈsɛ̠ɾβoˑlˠ,,,0
12141380509,"Catalan NW: Andorra",42.55833,1.55528,6520,door,,portam,,ˈpɔˑɾtʰɐ,,,0
12141380509,"Catalan NW: Andorra",42.55833,1.55528,2130,ear,,auriculam,,uˑˈɾeˑʎɐ,,,0
12141380509,"Catalan NW: Andorra",42.55833,1.55528,5520,earth,,terram,,ˈtɛˑɹ̝̥a̝̠,,,0
12141380509,"Catalan NW: Andorra",42.55833,1.55528,6530,entrance,,intratam,,enˈt̪ɾa̠ˑða̝̠,,,0
12141380509,"Catalan NW: Andorra",42.55833,1.55528,7330,fast,,rapidum,,ˈɹ̝̥aˑpiˑt,,,0
12141380509,"Catalan NW: Andorra",42.55833,1.55528,4320,father,,pater,,ˈpa̠ˑɾe̠,,,0
12141380509,"Catalan NW: Andorra",42.55833,1.55528,6320,flower,,florem,,fɫɔo,,,0
12141380509,"Catalan NW: Andorra",42.55833,1.55528,40,four,,quattuor,,kʰwatɾe̠,,,0
12141380509,"Catalan NW: Andorra",42.55833,1.55528,3190,goat,,capram,,kʰa̠ˑβɾa̠,,,0
12141380509,"Catalan NW: Andorra",42.55833,1.55528,5610,gold,,aurum,,ɔ̝ːɹ̝̥,,,0
12141380509,"Catalan NW: Andorra",42.55833,1.55528,6310,grass,,herbam,,ˈe̠ɹ̝βɐ̃,,,0
12141380509,"Catalan NW: Andorra",42.55833,1.55528,7040,green,,viridem,,bɛ̞ːɾ̥tʰ,,,0
12141380509,"Catalan NW: Andorra",42.55833,1.55528,8480,he_believes_subj,,credat,,ˈkʰɾeˑɣ̞i,,,0
12141380509,"Catalan NW: Andorra",42.55833,1.55528,8410,he_sleeps,,dormit,,dɔ̞ːɹ̝̥m,,,0
12141380509,"Catalan NW: Andorra",42.55833,1.55528,5870,heat,,calorem,,kʰɐ̆ˈlˠo̞ˑ,,,0
12141380509,"Catalan NW: Andorra",42.55833,1.55528,3820,horn,,cornu,,ˈbaˑɲɐ,,,0
12141380509,"Catalan NW: Andorra",42.55833,1.55528,5040,hour,,horam,,ˈɔ̞ˑɾa̠,,,0
12141380509,"Catalan NW: Andorra",42.55833,1.55528,8510,I_see,,video,,ˈbɛ̞ʊɾe̠,,,0
12141380509,"Catalan NW: Andorra",42.55833,1.55528,8650,it_lasts,,durat,,ˈduˑɾa̝̠,,,0
12141380509,"Catalan NW: Andorra",42.55833,1.55528,8170,let_us_go_in,,intramus,,e̠nˈt̪ʰɾe̠ˑm,,,0
12141380509,"Catalan NW: Andorra",42.55833,1.55528,4310,mother,,mater,,ˈma̠ˑɾe̠,,,0
12141380509,"Catalan NW: Andorra",42.55833,1.55528,4100,name,,nominem,,nɔ̃ˑm,,,0
12141380509,"Catalan NW: Andorra",42.55833,1.55528,6550,oven,,furnum,,fo̞ˑr̥n,,,0
12141380509,"Catalan NW: Andorra",42.55833,1.55528,1810,part,,partem,,paˑr̥tʰ,,,0
12141380509,"Catalan NW: Andorra",42.55833,1.55528,6200,raw_fem,,crudam,,kʰɾuˑɐ,,,0
12141380509,"Catalan NW: Andorra",42.55833,1.55528,7540,sad,,tristem,,tɾ̥i̠ːst,,,0
12141380509,"Catalan NW: Andorra",42.55833,1.55528,5240,sea,,mare,,maˑɹ̝̥,,,0
12141380509,"Catalan NW: Andorra",42.55833,1.55528,8630,serve_ipv_pl,,servite,,sɛ̝̠ɾˈβiˑuː,,,0
12141380509,"Catalan NW: Andorra",42.55833,1.55528,5130,star,,stellam,,e̠sˈtɛˑl,,,0
12141380509,"Catalan NW: Andorra",42.55833,1.55528,5510,stone,,petram,,ˈpe̞ˑðə̆ɾ̝a,,,0
12141380509,"Catalan NW: Andorra",42.55833,1.55528,7320,straight,,directum,,ˈɹ̝̥ɛ̝ˑktʰe̠,,,0
12141380509,"Catalan NW: Andorra",42.55833,1.55528,7320,straight,,directum,,d̪ɘ̆ˈɾe̞tʰ,,,0
12141380509,"Catalan NW: Andorra",42.55833,1.55528,7610,strong,,fortem,,fɔːɾtʰ,,,0
12141380509,"Catalan NW: Andorra",42.55833,1.55528,2140,tear,,lacrimam,,ˈʎaˑɣɾɪ̆mɐ,,,0
12141380509,"Catalan NW: Andorra",42.55833,1.55528,30,three,,tres,,tɾeːs,,,0
12141380509,"Catalan NW: Andorra",42.55833,1.55528,8640,to_sell,,vendere,,ˈbe̠nd̪̥ɾe̠,,,0
12141380509,"Catalan NW: Andorra",42.55833,1.55528,8490,let_us_hope,,speramus,,ɘ̆spɘˈɾe̠̞m,,,0
12141380509,"Catalan NW: Andorra",42.55833,1.55528,6840,wheel,,rotam,,ˈkɹ̝ɔɐ̆ðɐ̠,,,0
12141380509,"Catalan NW: Andorra",42.55833,1.55528,5080,winter,,hibernum,,iˑˈb̥ɛ̠̞ˑɾn,,,0
12141380509,"Catalan NW: Andorra",42.55833,1.55528,3420,worm,,vermem,,..,,,0
12141380509,"Catalan NW: Andorra",42.55833,1.55528,8050,carry_you_pl,,portatis,,pʊ̆ɾ̥ˈtɛ̝ːuˑ,,,0
12141380509,"Catalan NW: Andorra",42.55833,1.55528,740,your_pl_fem,,vostram,,ˈbɔˑstʰɾe̠,,,0
12211500107,"French Std: Paris Acc.",48.8567,2.3508,2340,arm,,bracchium,,bʁɐˑ,bras,,0
12211500107,"French Std: Paris Acc.",48.8567,2.3508,2250,beard,,barbam,,ˈbɐˑʁ̞bə̤̆,barbe,,0
12211500107,"French Std: Paris Acc.",48.8567,2.3508,2610,blood,,sanguinem,,sɒ̃ˑ,sang,,0
12211500107,"French Std: Paris Acc.",48.8567,2.3508,7390,broad,,largum,,laʁ̞ʒ˳,large,,0
12211500107,"French Std: Paris Acc.",48.8567,2.3508,7000,colour,,colorem,,kʰuˈlœːʁ̥,couleur,,0
12211500107,"French Std: Paris Acc.",48.8567,2.3508,6070,corn,,granum,,ɡə̆ˈʁæ̃ˑ,grain,,0
12211500107,"French Std: Paris Acc.",48.8567,2.3508,8430,dead_fem,,mortuam,,mɔχtʰ,morte,,0
12211500107,"French Std: Paris Acc.",48.8567,2.3508,3160,deer,,cervum,,se̞ˑχf,cerf,,0
12211500107,"French Std: Paris Acc.",48.8567,2.3508,6520,door,,portam,,ˈpɔ̟χtʰ,porte,,0
12211500107,"French Std: Paris Acc.",48.8567,2.3508,2130,ear,,auriculam,,o̞ˈʁeɪ̆ʝɘ̆,oreille,,0
12211500107,"French Std: Paris Acc.",48.8567,2.3508,5520,earth,,terram,,tʰɛ̝ːχ,terre,,0
12211500107,"French Std: Paris Acc.",48.8567,2.3508,6530,entrance,,intratam,,hɐ̃ˈtχɪ,entrée,,0
12211500107,"French Std: Paris Acc.",48.8567,2.3508,7330,fast,,rapidum,,χɜˈpidɘ̆,rapide,,0
12211500107,"French Std: Paris Acc.",48.8567,2.3508,4320,father,,pater,,peˑɜ̆ʁ,père,,0
12211500107,"French Std: Paris Acc.",48.8567,2.3508,6320,flower,,florem,,ˈflœˑʁ̥ə̥̆,fleur,,0
12211500107,"French Std: Paris Acc.",48.8567,2.3508,40,four,,quattuor,,kʰa̝tχ,quatre,,0
12211500107,"French Std: Paris Acc.",48.8567,2.3508,3190,goat,,capram,,ˈʃe̞ˑʋə̆ʁ˳,chèvre,,0
12211500107,"French Std: Paris Acc.",48.8567,2.3508,5610,gold,,aurum,,ɔˑχ,or,,0
12211500107,"French Std: Paris Acc.",48.8567,2.3508,6310,grass,,herbam,,ˈe̞ɜ̆ʁ̞bə̆,herbe,,0
12211500107,"French Std: Paris Acc.",48.8567,2.3508,7040,green,,viridem,,vɛːχ,vert,,0
12211500107,"French Std: Paris Acc.",48.8567,2.3508,8480,he_believes_subj,,credat,,kχwɑˑ,croie,,0
12211500107,"French Std: Paris Acc.",48.8567,2.3508,8410,he_sleeps,,dormit,,dɔˑχ,dort,,0
12211500107,"French Std: Paris Acc.",48.8567,2.3508,5870,heat,,calorem,,ʃɐˈløˑɜ̆χ,chaleur,,0
12211500107,"French Std: Paris Acc.",48.8567,2.3508,3820,horn,,cornu,,ˈkɔʁnɘ̤̆,corne,,0
12211500107,"French Std: Paris Acc.",48.8567,2.3508,5040,hour,,horam,,œˑə̆ʁ̥,heure,,0
12211500107,"French Std: Paris Acc.",48.8567,2.3508,8510,I_see,,video,,˳vwa̠ˑχ,voir,,0
12211500107,"French Std: Paris Acc.",48.8567,2.3508,8650,it_lasts,,durat,,dyˑə̆ʁ̥,dure,,0
12211500107,"French Std: Paris Acc.",48.8567,2.3508,8170,let_us_go_in,,intramus,,ʌ̃ˈtχ̃õˑ,entrons!,,0
12211500107,"French Std: Paris Acc.",48.8567,2.3508,4310,mother,,mater,,me̞ˑɜ̆ʁ,mère,,0
12211500107,"French Std: Paris Acc.",48.8567,2.3508,4100,name,,nominem,,nõ,nom,,0
12211500107,"French Std: Paris Acc.",48.8567,2.3508,6550,oven,,furnum,,fuˑχ,four,,0
12211500107,"French Std: Paris Acc.",48.8567,2.3508,1810,part,,partem,,pa̝̠ːχ,part,,0
12211500107,"French Std: Paris Acc.",48.8567,2.3508,6200,raw_fem,,crudam,,kχyˑç,crue,,0
12211500107,"French Std: Paris Acc.",48.8567,2.3508,7540,sad,,tristem,,tχistʰ,triste,,0
12211500107,"French Std: Paris Acc.",48.8567,2.3508,5240,sea,,mare,,meˑʁ˳,mer,,0
12211500107,"French Std: Paris Acc.",48.8567,2.3508,8630,serve_ipv_pl,,servite,,sɛ̠ʁ̞ˈvɪˑ,servez,,0
12211500107,"French Std: Paris Acc.",48.8567,2.3508,5130,star,,stellam,,ɪ̆ˈtʰwɐlə̤̆,étoile,,0
12211500107,"French Std: Paris Acc.",48.8567,2.3508,5510,stone,,petram,,pçɛːʁ̥,pierre,,0
12211500107,"French Std: Paris Acc.",48.8567,2.3508,7320,straight,,directum,,dχwɑ̝ˑ,droit,,0
12211500107,"French Std: Paris Acc.",48.8567,2.3508,7610,strong,,fortem,,fɔːχ,fort,,0
12211500107,"French Std: Paris Acc.",48.8567,2.3508,2140,tear,,lacrimam,,ˈla̝ʁ̞mɘ̤̆,larme,,0
12211500107,"French Std: Paris Acc.",48.8567,2.3508,30,three,,tres,,tχwɒˑ,trois,,0
12211500107,"French Std: Paris Acc.",48.8567,2.3508,8640,to_sell,,vendere,,ˈvɑ̃ˑdʁ˳ə̤̆,vendre,,0
12211500107,"French Std: Paris Acc.",48.8567,2.3508,8490,let_us_hope,,speramus,,ḛ̆speˈʁ̃õ,espérons,,0
12211500107,"French Std: Paris Acc.",48.8567,2.3508,6840,wheel,,rotam,,ʁuˑ,roue,,0
12211500107,"French Std: Paris Acc.",48.8567,2.3508,5080,winter,,hibernum,,iˈveːʁ̥,hiver,,0
12211500107,"French Std: Paris Acc.",48.8567,2.3508,3420,worm,,vermem,,ˈveːʁ̞ɜ̆,ver,,0
12211500107,"French Std: Paris Acc.",48.8567,2.3508,8050,carry_you_pl,,portatis,,pɔ̆χˈt̪ʰɪˑ,portez,,0
12211500107,"French Std: Paris Acc.",48.8567,2.3508,740,your_pl_fem,,vostram,,ˈvɔ̟tχə̆,votre,,0
12211222909,"Norman: St-Vaast",49.5886,-1.2661,2340,arm,,bracchium,,bʁɒː,,,0
12211222909,"Norman: St-Vaast",49.5886,-1.2661,2250,beard,,barbam,,bɑˑ,,,0
12211222909,"Norman: St-Vaast",49.5886,-1.2661,2610,blood,,sanguinem,,sãː,,,0
12211222909,"Norman: St-Vaast",49.5886,-1.2661,7390,broad,,largum,,ɭɑːʁ̞ʒ,,,0
12211222909,"Norman: St-Vaast",49.5886,-1.2661,7000,colour,,colorem,,kʰuˈløˑ,,,0
12211222909,"Norman: St-Vaast",49.5886,-1.2661,6070,corn,,granum,,ɡχõː,,,0
12211222909,"Norman: St-Vaast",49.5886,-1.2661,8430,dead_fem,,mortuam,,mɔ̝χtʰ,,,0
12211222909,"Norman: St-Vaast",49.5886,-1.2661,3160,deer,,cervum,,sɛ̝ːχ,,,0
12211222909,"Norman: St-Vaast",49.5886,-1.2661,6520,door,,portam,,poˑχtʰ,,,0
12211222909,"Norman: St-Vaast",49.5886,-1.2661,2130,ear,,auriculam,,ʔo̞ˈʁɛˑlɐ̤,,,0
12211222909,"Norman: St-Vaast",49.5886,-1.2661,5520,earth,,terram,,tʰe̞ːχ,,,0
12211222909,"Norman: St-Vaast",49.5886,-1.2661,6530,entrance,,intratam,,ʔõˑˈtχɔː,,,0
12211222909,"Norman: St-Vaast",49.5886,-1.2661,7330,fast,,rapidum,,ʕa̠ˈpʰidɘ̆,,,0
12211222909,"Norman: St-Vaast",49.5886,-1.2661,4320,father,,pater,,pʰeːə,,,0
12211222909,"Norman: St-Vaast",49.5886,-1.2661,6320,flower,,florem,,fjøːχ,,,0
12211222909,"Norman: St-Vaast",49.5886,-1.2661,40,four,,quattuor,,kʰa̟ˑtʰ,,,0
12211222909,"Norman: St-Vaast",49.5886,-1.2661,3190,goat,,capram,,ʃɛ̠vχ̥,,,0
12211222909,"Norman: St-Vaast",49.5886,-1.2661,3190,goat,,capram,,bĭkʰ,,,1
12211222909,"Norman: St-Vaast",49.5886,-1.2661,5610,gold,,aurum,,ʔoːχ,,,0
12211222909,"Norman: St-Vaast",49.5886,-1.2661,6310,grass,,herbam,,ˈʔeˑɰbɘ̆,,,0
12211222909,"Norman: St-Vaast",49.5886,-1.2661,7040,green,,viridem,,vɛːχ,,,0
12211222909,"Norman: St-Vaast",49.5886,-1.2661,8480,he_believes_subj,,credat,,kχɛ̠e,,,0
12211222909,"Norman: St-Vaast",49.5886,-1.2661,8410,he_sleeps,,dormit,,dʰo̞ːχ,,,0
12211222909,"Norman: St-Vaast",49.5886,-1.2661,5870,heat,,calorem,,ʃɐˈløː,,,0
12211222909,"Norman: St-Vaast",49.5886,-1.2661,3820,horn,,cornu,,kʰo̝ːn,,,0
12211222909,"Norman: St-Vaast",49.5886,-1.2661,5040,hour,,horam,,øˑəχ,,,0
12211222909,"Norman: St-Vaast",49.5886,-1.2661,8510,I_see,,video,,veː,,,0
12211222909,"Norman: St-Vaast",49.5886,-1.2661,8650,it_lasts,,durat,,dyːŭχ,,,0
12211222909,"Norman: St-Vaast",49.5886,-1.2661,8170,let_us_go_in,,intramus,,õːˈtʁʊ̃ː,,,0
12211222909,"Norman: St-Vaast",49.5886,-1.2661,4310,mother,,mater,,meːə̆χ,,,0
12211222909,"Norman: St-Vaast",49.5886,-1.2661,4100,name,,nominem,,no̝ː,,,0
12211222909,"Norman: St-Vaast",49.5886,-1.2661,6550,oven,,furnum,,fuːχ,,,0
12211222909,"Norman: St-Vaast",49.5886,-1.2661,1810,part,,partem,,pʰɑ̝ːχ,,,0
12211222909,"Norman: St-Vaast",49.5886,-1.2661,6200,raw_fem,,crudam,,kχʉyˑ,,,0
12211222909,"Norman: St-Vaast",49.5886,-1.2661,7540,sad,,tristem,,tʰχɪs̠tʰ,,,0
12211222909,"Norman: St-Vaast",49.5886,-1.2661,5240,sea,,mare,,meː,,,0
12211222909,"Norman: St-Vaast",49.5886,-1.2661,8630,serve_ipv_pl,,servite,,sĕ̠ɰˈveː,,,0
12211222909,"Norman: St-Vaast",49.5886,-1.2661,8630,serve_ipv_pl,,servite,,seʁ̞ˈvuˑ,,,0
12211222909,"Norman: St-Vaast",49.5886,-1.2661,5130,star,,stellam,,ʔɪtʰuˈẽ̞ˑ,,,0
12211222909,"Norman: St-Vaast",49.5886,-1.2661,5510,stone,,petram,,pʰjeːχ,,,0
12211222909,"Norman: St-Vaast",49.5886,-1.2661,7320,straight,,directum,,dʰɘ̆ˈʁe̞ˑi,,,0
12211222909,"Norman: St-Vaast",49.5886,-1.2661,7610,strong,,fortem,,foːo̝,,,0
12211222909,"Norman: St-Vaast",49.5886,-1.2661,2140,tear,,lacrimam,,le̞ɐ̆ɰm,,,0
12211222909,"Norman: St-Vaast",49.5886,-1.2661,30,three,,tres,,txɛ̠e̞ˑ,,,0
12211222909,"Norman: St-Vaast",49.5886,-1.2661,8640,to_sell,,vendere,,võːχ,,,0
12211222909,"Norman: St-Vaast",49.5886,-1.2661,8490,let_us_hope,,speramus,,e̠speˈχʊ̃ː,,,0
12211222909,"Norman: St-Vaast",49.5886,-1.2661,6840,wheel,,rotam,,ʀuː,,,0
12211222909,"Norman: St-Vaast",49.5886,-1.2661,5080,winter,,hibernum,,iˑˈveː,,,0
12211222909,"Norman: St-Vaast",49.5886,-1.2661,3420,worm,,vermem,,vɛːə̆χ,,,0
12211222909,"Norman: St-Vaast",49.5886,-1.2661,8050,carry_you_pl,,portatis,,pɔ̆χˈtʰeː,,,0
12211222909,"Norman: St-Vaast",49.5886,-1.2661,8050,carry_you_pl,,portatis,,pʰŏχˈtʰɔː,,,0
12211222909,"Norman: St-Vaast",49.5886,-1.2661,740,your_pl_fem,,vostram,,vʊˑtʰ,,,0
12211222909,"Norman: St-Vaast",49.5886,-1.2661,740,your_pl_fem,,vostram,,vo̞tʰ,,,0
12211222909,"Norman: St-Vaast",49.5886,-1.2661,740,your_pl_fem,,vostram,,voːt,,,0
12211436209,"Walloon: Clavier",50.383,5.33,2340,arm,,bracchium,,bʀeˑ,brès,,0
12211436209,"Walloon: Clavier",50.383,5.33,2250,beard,,barbam,,bɒːpʰ,båbe,,0
12211436209,"Walloon: Clavier",50.383,5.33,2610,blood,,sanguinem,,sõː,song,,0
12211436209,"Walloon: Clavier",50.383,5.33,7390,broad,,largum,,lˠʌːɰtʃ,lådje,,0
12211436209,"Walloon: Clavier",50.383,5.33,7000,colour,,colorem,,kʰɔ̈ˈlʷøːχ,coleûr,,0
12211436209,"Walloon: Clavier",50.383,5.33,6070,corn,,granum,,ɡʀɛː,grin,,0
12211436209,"Walloon: Clavier",50.383,5.33,8430,dead_fem,,mortuam,,mwɛtʰ,mwète,,0
12211436209,"Walloon: Clavier",50.383,5.33,3160,deer,,cervum,,sjɪːχ,ciér,,0
12211436209,"Walloon: Clavier",50.383,5.33,6520,door,,portam,,pʰwɛ̝tʰ,pwète,,0
12211436209,"Walloon: Clavier",50.383,5.33,2130,ear,,auriculam,,ʔɔˈʁe̞ijɘ̆,orèye,,0
12211436209,"Walloon: Clavier",50.383,5.33,5520,earth,,terram,,tɛ̈ːχ,tère,,0
12211436209,"Walloon: Clavier",50.383,5.33,6530,entrance,,intratam,,ɜ̟ˑˈtʀe̠ˑiˑ,intrèye,,0
12211436209,"Walloon: Clavier",50.383,5.33,7330,fast,,rapidum,,vi̠tʰ,"** vite",,1
12211436209,"Walloon: Clavier",50.383,5.33,4320,father,,pater,,pɪːχ,pére,,0
12211436209,"Walloon: Clavier",50.383,5.33,6320,flower,,florem,,flʷø̠ːχ,fleûr,,0
12211436209,"Walloon: Clavier",50.383,5.33,40,four,,quattuor,,kʰwɛ̝tʰ,kwète,,0
12211436209,"Walloon: Clavier",50.383,5.33,3190,goat,,capram,,ˈɡɐttʰɘ̆,"gate (!)",,0
12211436209,"Walloon: Clavier",50.383,5.33,5610,gold,,aurum,,ʔoːχ,ôr,,0
12211436209,"Walloon: Clavier",50.383,5.33,6310,grass,,herbam,,jɛ̝p,ièbe,,0
12211436209,"Walloon: Clavier",50.383,5.33,7040,green,,viridem,,vɛ̝ˑχ,vèrt,,0
12211436209,"Walloon: Clavier",50.383,5.33,8480,he_believes_subj,,credat,,kʰʁø̠ːij,creûye,,0
12211436209,"Walloon: Clavier",50.383,5.33,8410,he_sleeps,,dormit,,ˈdwɛ̝mˑɘ̆,dwème,,0
12211436209,"Walloon: Clavier",50.383,5.33,5870,heat,,calorem,,tɕɜ̆ˈlˠø̠ːχ,tchaleûr,,0
12211436209,"Walloon: Clavier",50.383,5.33,3820,horn,,cornu,,kʰwɛ̈ɰn,cwène,,0
12211436209,"Walloon: Clavier",50.383,5.33,5040,hour,,horam,,ʔøːχ,eûre,,0
12211436209,"Walloon: Clavier",50.383,5.33,8510,I_see,,video,,vø̠ːiˑ,veûy,,0
12211436209,"Walloon: Clavier",50.383,5.33,8650,it_lasts,,durat,,dʏˑχ,dure,,0
12211436209,"Walloon: Clavier",50.383,5.33,8170,let_us_go_in,,intramus,,ʔɛˑˈtʁõː,introns!,,0
12211436209,"Walloon: Clavier",50.383,5.33,4310,mother,,mater,,mɪːχ,mére,,0
12211436209,"Walloon: Clavier",50.383,5.33,4100,name,,nominem,,nõː,nom,,0
12211436209,"Walloon: Clavier",50.383,5.33,6550,oven,,furnum,,fɔˑʁ˳,for,,0
12211436209,"Walloon: Clavier",50.383,5.33,1810,part,,partem,,pʌːχ,pårt,,0
12211436209,"Walloon: Clavier",50.383,5.33,6200,raw_fem,,crudam,,kʰʁuː,crouwe,,0
12211436209,"Walloon: Clavier",50.383,5.33,7540,sad,,tristem,,tʁɪˑs,trisse,,0
12211436209,"Walloon: Clavier",50.383,5.33,5240,sea,,mare,,meːχ,mér,,0
12211436209,"Walloon: Clavier",50.383,5.33,8630,serve_ipv_pl,,servite,,sjɛ̈̆ʁˈvɪː,sièrvez!,,0
12211436209,"Walloon: Clavier",50.383,5.33,5130,star,,stellam,,sĭˈtʰø̠ːl,siteûle,,0
12211436209,"Walloon: Clavier",50.383,5.33,5510,stone,,petram,,pʰiːχ,pîre,,0
12211436209,"Walloon: Clavier",50.383,5.33,7320,straight,,directum,,dʀyː,drût,,0
12211436209,"Walloon: Clavier",50.383,5.33,7610,strong,,fortem,,fwɛ̝̠ˑχ,fwèrt,,0
12211436209,"Walloon: Clavier",50.383,5.33,2140,tear,,lacrimam,,lˠʌːm,låme,,0
12211436209,"Walloon: Clavier",50.383,5.33,30,three,,tres,,tʰʁø̠ː,treûs,,0
12211436209,"Walloon: Clavier",50.383,5.33,8640,to_sell,,vendere,,vɛːdɘ̆,vinde,,0
12211436209,"Walloon: Clavier",50.383,5.33,8490,let_us_hope,,speramus,,ʔë̆spëˈʁ̞õː,èspèrons,,0
12211436209,"Walloon: Clavier",50.383,5.33,6840,wheel,,rotam,,ʁɔ̝uˑ,rowe,,0
12211436209,"Walloon: Clavier",50.383,5.33,5080,winter,,hibernum,,ʔĭˈvje̞ːχ,iviêr,,0
12211436209,"Walloon: Clavier",50.383,5.33,3420,worm,,vermem,,vje̞ːχ,viêr,,0
12211436209,"Walloon: Clavier",50.383,5.33,8050,carry_you_pl,,portatis,,pwɛ̈̆xˈtɪː,pwèrtez,,0
12211436209,"Walloon: Clavier",50.383,5.33,740,your_pl_fem,,vostram,,ˈvɔˑssɘ̆,vosse,,0
12231155509,"Gascon: Val d’Aran",42.735,0.79528,2340,arm,,bracchium,,bɾaːs̟,braç,,0
12231155509,"Gascon: Val d’Aran",42.735,0.79528,2250,beard,,barbam,,ba̠ˑɾβʌ,barba,,0
12231155509,"Gascon: Val d’Aran",42.735,0.79528,2610,blood,,sanguinem,,s̟a̠ˑŋk,sang,,0
12231155509,"Gascon: Val d’Aran",42.735,0.79528,7390,broad,,largum,,lʊˑŋkʰ,long,,0
12231155509,"Gascon: Val d’Aran",42.735,0.79528,7000,colour,,colorem,,kʰɑˈɫuː,color,,0
12231155509,"Gascon: Val d’Aran",42.735,0.79528,6070,corn,,granum,,ɡɾaː,gran,,0
12231155509,"Gascon: Val d’Aran",42.735,0.79528,8430,dead_fem,,mortuam,,ˈmo̞ɾtɐ̆,mòrta,,0
12231155509,"Gascon: Val d’Aran",42.735,0.79528,3160,deer,,cervum,,ˈs̟ɛˑɹ̝βi̠,cèrvi,,0
12231155509,"Gascon: Val d’Aran",42.735,0.79528,6520,door,,portam,,ˈpoˑɾtʌ,pòrta,,0
12231155509,"Gascon: Val d’Aran",42.735,0.79528,2130,ear,,auriculam,,a̠ʊˈɾeˑʎɜ,aurelha,,0
12231155509,"Gascon: Val d’Aran",42.735,0.79528,5520,earth,,terram,,ˈtɛ̝ˑr̝ə̠,tèrra,,0
12231155509,"Gascon: Val d’Aran",42.735,0.79528,6530,entrance,,intratam,,enˈtɾa̠ˑðʌ,entrada,,0
12231155509,"Gascon: Val d’Aran",42.735,0.79528,7330,fast,,rapidum,,ˈr̝a̝ˑpitʰ,rapid,,0
12231155509,"Gascon: Val d’Aran",42.735,0.79528,4320,father,,pater,,ˈpaːɾe̠,pair,,0
12231155509,"Gascon: Val d’Aran",42.735,0.79528,6320,flower,,florem,,flˠʊː,flor,,0
12231155509,"Gascon: Val d’Aran",42.735,0.79528,40,four,,quattuor,,ˈkwa̠ˑte,quate,,0
12231155509,"Gascon: Val d’Aran",42.735,0.79528,3190,goat,,capram,,ˈkɾaˑβʌ,craba,,0
12231155509,"Gascon: Val d’Aran",42.735,0.79528,5610,gold,,aurum,,o̞ˑr̝̥,òr,,0
12231155509,"Gascon: Val d’Aran",42.735,0.79528,6310,grass,,herbam,,ˈɛˑɾɘ̆βʌ,èrba,,0
12231155509,"Gascon: Val d’Aran",42.735,0.79528,7040,green,,viridem,,beːɹ̝̥,verd,,0
12231155509,"Gascon: Val d’Aran",42.735,0.79528,8480,he_believes_subj,,credat,,kʰɾei,crei,,0
12231155509,"Gascon: Val d’Aran",42.735,0.79528,8410,he_sleeps,,dormit,,do̟ɾˈmiːs̟,dormisc,,0
12231155509,"Gascon: Val d’Aran",42.735,0.79528,5870,heat,,calorem,,kʰɐ̆ˈɫuː,calor,,0
12231155509,"Gascon: Val d’Aran",42.735,0.79528,3820,horn,,cornu,,ˈkʰoˑɹ̝nɜ̠,còrna,,0
12231155509,"Gascon: Val d’Aran",42.735,0.79528,5040,hour,,horam,,ˈuːɾɐ,ora,,0
12231155509,"Gascon: Val d’Aran",42.735,0.79528,8510,I_see,,video,,beˑiˑ,veir,,0
12231155509,"Gascon: Val d’Aran",42.735,0.79528,8650,it_lasts,,durat,,ˈdyˑɾɜ,dura,,0
12231155509,"Gascon: Val d’Aran",42.735,0.79528,8170,let_us_go_in,,intramus,,enˈtɾaˑm,entram!,,0
12231155509,"Gascon: Val d’Aran",42.735,0.79528,4310,mother,,mater,,ˈmaːɾe̠,mair,,0
12231155509,"Gascon: Val d’Aran",42.735,0.79528,4100,name,,nominem,,no̞ˑm,nòm,,0
12231155509,"Gascon: Val d’Aran",42.735,0.79528,6550,oven,,furnum,,uːr̥,horn,,0
12231155509,"Gascon: Val d’Aran",42.735,0.79528,1810,part,,partem,,pa̠ˑr̥,part,,0
12231155509,"Gascon: Val d’Aran",42.735,0.79528,6200,raw_fem,,crudam,,kʰɾy̠ɐ,crua,,0
12231155509,"Gascon: Val d’Aran",42.735,0.79528,7540,sad,,tristem,,tʰɾiˑs̟,trist,,0
12231155509,"Gascon: Val d’Aran",42.735,0.79528,5240,sea,,mare,,maːɾ̥,mar,,0
12231155509,"Gascon: Val d’Aran",42.735,0.79528,8630,serve_ipv_pl,,servite,,se̠ɹ̝ˈβiː,servi’!,,0
12231155509,"Gascon: Val d’Aran",42.735,0.79528,5130,star,,stellam,,esˈtɾeˑʎɐ,estela,,0
12231155509,"Gascon: Val d’Aran",42.735,0.79528,5510,stone,,petram,,ˈpe̞ˑiˑɾɐ,pèira,,0
12231155509,"Gascon: Val d’Aran",42.735,0.79528,7320,straight,,directum,,dɾɪːt,dret,,0
12231155509,"Gascon: Val d’Aran",42.735,0.79528,7610,strong,,fortem,,fo̞ːɾ̥,fòrt,,0
12231155509,"Gascon: Val d’Aran",42.735,0.79528,2140,tear,,lacrimam,,ˈlɛˑɹ̝mʌ,lèrme/lèrma,,0
12231155509,"Gascon: Val d’Aran",42.735,0.79528,30,three,,tres,,t̪ɾeːs̟,tres,,0
12231155509,"Gascon: Val d’Aran",42.735,0.79528,8640,to_sell,,vendere,,ˈbeˑne̞ˑ,véner,,0
12231155509,"Gascon: Val d’Aran",42.735,0.79528,8490,let_us_hope,,speramus,,e̠spe̠ˈɾaˑm,esperam,,0
12231155509,"Gascon: Val d’Aran",42.735,0.79528,6840,wheel,,rotam,,aˈr̝o̞ːð̞ʌ,arròda,,0
12231155509,"Gascon: Val d’Aran",42.735,0.79528,5080,winter,,hibernum,,..,uvèrn,,0
12231155509,"Gascon: Val d’Aran",42.735,0.79528,3420,worm,,vermem,,ˈbɛ̝ˑɾme̠,vèrme,,0
12231155509,"Gascon: Val d’Aran",42.735,0.79528,8050,carry_you_pl,,portatis,,pʊɾ̝ˈtaˑ,porta’!,,0
12231155509,"Gascon: Val d’Aran",42.735,0.79528,740,your_pl_fem,,vostram,,ˈbo̞ˑst̪ɐ,vòsta,,0
12231420509,"Auvergne: Neschers",45.5911,3.1644,2340,arm,,bracchium,,bɰoˑ,,,0
12231420509,"Auvergne: Neschers",45.5911,3.1644,2250,beard,,barbam,,ˈbɒɔ̆bɔ̝,,,0
12231420509,"Auvergne: Neschers",45.5911,3.1644,2610,blood,,sanguinem,,sɒ̃,,,0
12231420509,"Auvergne: Neschers",45.5911,3.1644,7390,broad,,largum,,ˈla̝̠ʌ̆dzə̆,,,0
12231420509,"Auvergne: Neschers",45.5911,3.1644,7000,colour,,colorem,,kʰʊˈvʊo,,,0
12231420509,"Auvergne: Neschers",45.5911,3.1644,6070,corn,,granum,,ɡχoˑ,,,0
12231420509,"Auvergne: Neschers",45.5911,3.1644,8430,dead_fem,,mortuam,,ˈmwɔχtʌ̆,,,0
12231420509,"Auvergne: Neschers",45.5911,3.1644,3160,deer,,cervum,,ˈʃɑˑʋɰə̆,,,0
12231420509,"Auvergne: Neschers",45.5911,3.1644,6520,door,,portam,,ˈpɔ̝χtʌ,,,0
12231420509,"Auvergne: Neschers",45.5911,3.1644,2130,ear,,auriculam,,ʔɘɰi̠ˈʎɔ̝,,,0
12231420509,"Auvergne: Neschers",45.5911,3.1644,5520,earth,,terram,,ˈcçɐ̠ˑɰʌ,,,0
12231420509,"Auvergne: Neschers",45.5911,3.1644,6530,entrance,,intratam,,ɛ̝nˈtχʌˑdɔ,,,0
12231420509,"Auvergne: Neschers",45.5911,3.1644,7330,fast,,rapidum,,ˈpʁɔ̃ntə̆,,,1
12231420509,"Auvergne: Neschers",45.5911,3.1644,4320,father,,pater,,pɐˑɪ,,,0
12231420509,"Auvergne: Neschers",45.5911,3.1644,6320,flower,,florem,,kxlˠʉˑ,,,0
12231420509,"Auvergne: Neschers",45.5911,3.1644,40,four,,quattuor,,ˈkʰɐtχʌ̆,,,0
12231420509,"Auvergne: Neschers",45.5911,3.1644,3190,goat,,capram,,ˈtsɐ̠ˑbʁ̞ɔ̆,,,0
12231420509,"Auvergne: Neschers",45.5911,3.1644,5610,gold,,aurum,,ʔɔ̝ŭ,,,0
12231420509,"Auvergne: Neschers",45.5911,3.1644,6310,grass,,herbam,,ˈjʌɔ̝̆bʌ,,,0
12231420509,"Auvergne: Neschers",45.5911,3.1644,7040,green,,viridem,,vjɐ̠ˑ,,,0
12231420509,"Auvergne: Neschers",45.5911,3.1644,8480,he_believes_subj,,credat,,ˈkχə̠dˑzʌ,,,0
12231420509,"Auvergne: Neschers",45.5911,3.1644,8410,he_sleeps,,dormit,,ˈdʁ̞ʊˑmʌ,,,0
12231420509,"Auvergne: Neschers",45.5911,3.1644,5870,heat,,calorem,,tsɐˈvuŏ̞,,,0
12231420509,"Auvergne: Neschers",45.5911,3.1644,3820,horn,,cornu,,ˈbɑ̝ˑnɔ̆,,,0
12231420509,"Auvergne: Neschers",45.5911,3.1644,5040,hour,,horam,,ˈʔuˑɰʌ,,,0
12231420509,"Auvergne: Neschers",45.5911,3.1644,8510,I_see,,video,,ˈveːʁ̞ə̆,,,0
12231420509,"Auvergne: Neschers",45.5911,3.1644,8650,it_lasts,,durat,,ˈdʲyːʁ̞ɔ̞,,,0
12231420509,"Auvergne: Neschers",45.5911,3.1644,8170,let_us_go_in,,intramus,,ɛ̠nˈtʁɐ̃ː,,,0
12231420509,"Auvergne: Neschers",45.5911,3.1644,4310,mother,,mater,,mɐˑɪ,,,0
12231420509,"Auvergne: Neschers",45.5911,3.1644,4100,name,,nominem,,nuˑ,,,0
12231420509,"Auvergne: Neschers",45.5911,3.1644,6550,oven,,furnum,,fuˑ,,,0
12231420509,"Auvergne: Neschers",45.5911,3.1644,1810,part,,partem,,pɔˑ,,,0
12231420509,"Auvergne: Neschers",45.5911,3.1644,6200,raw_fem,,crudam,,ˈkχʉˑdɔ,,,0
12231420509,"Auvergne: Neschers",45.5911,3.1644,7540,sad,,tristem,,mʊɰˈnjʊˑ,,,0
12231420509,"Auvergne: Neschers",45.5911,3.1644,5240,sea,,mare,,məˑ,,,0
12231420509,"Auvergne: Neschers",45.5911,3.1644,8630,serve_ipv_pl,,servite,,sɐ̆ɰˈvɑˑ,,,0
12231420509,"Auvergne: Neschers",45.5911,3.1644,5130,star,,stellam,,ˈʃtʰiˑʋʌ,,,0
12231420509,"Auvergne: Neschers",45.5911,3.1644,5130,star,,stellam,,ˈscçʌˑʋʌ,,,0
12231420509,"Auvergne: Neschers",45.5911,3.1644,5510,stone,,petram,,ˈpeːʁ̞ʌ,,,0
12231420509,"Auvergne: Neschers",45.5911,3.1644,7320,straight,,directum,,dɰɛ̝i,,,0
12231420509,"Auvergne: Neschers",45.5911,3.1644,7610,strong,,fortem,,fʊ̆ˈo,,,0
12231420509,"Auvergne: Neschers",45.5911,3.1644,2140,tear,,lacrimam,,liˈɣʁimo,,,0
12231420509,"Auvergne: Neschers",45.5911,3.1644,30,three,,tres,,tʰχi,,,0
12231420509,"Auvergne: Neschers",45.5911,3.1644,8640,to_sell,,vendere,,ˈvɛ̞ˑndɰə̆,,,0
12231420509,"Auvergne: Neschers",45.5911,3.1644,8490,let_us_hope,,speramus,,swʌ̆ˈtɛ̞̃ˑ,,,0
12231420509,"Auvergne: Neschers",45.5911,3.1644,6840,wheel,,rotam,,ˈʁ̞oˑdʌ,,,0
12231420509,"Auvergne: Neschers",45.5911,3.1644,5080,winter,,hibernum,,ʔĭˈvɐ̠ː,,,0
12231420509,"Auvergne: Neschers",45.5911,3.1644,3420,worm,,vermem,,ˈvɛˑɰmə̆,,,0
12231420509,"Auvergne: Neschers",45.5911,3.1644,8050,carry_you_pl,,portatis,,pʊχˈtɪˑ,,,0
12231420509,"Auvergne: Neschers",45.5911,3.1644,740,your_pl_fem,,vostram,,ˈvətχʌ̝,,,0
12321143509,"Romansh: Surmiran",46.60228,9.5965,2340,arm,,bracchium,,bɾ̝aˑtɕ,,,0
12321143509,"Romansh: Surmiran",46.60228,9.5965,2250,beard,,barbam,,ˈbɑːrbɐ,,,0
12321143509,"Romansh: Surmiran",46.60228,9.5965,2610,blood,,sanguinem,,saˑŋkʰ,,,0
12321143509,"Romansh: Surmiran",46.60228,9.5965,7390,broad,,largum,,la̠ːr̝̥tɕ,,,0
12321143509,"Romansh: Surmiran",46.60228,9.5965,7000,colour,,colorem,,kʰŏ̟ˈɫoˑɾĕ̠,,,0
12321143509,"Romansh: Surmiran",46.60228,9.5965,6070,corn,,granum,,ɡɘ̆ˈɾãˑŋ,,,0
12321143509,"Romansh: Surmiran",46.60228,9.5965,8430,dead_fem,,mortuam,,ˈmo̞ːʂtɐ,,,0
12321143509,"Romansh: Surmiran",46.60228,9.5965,3160,deer,,cervum,,tɕeːɾ̝̥f,,,0
12321143509,"Romansh: Surmiran",46.60228,9.5965,6520,door,,portam,,ˈpo̞ˑr̝̥tʰɐ,,,0
12321143509,"Romansh: Surmiran",46.60228,9.5965,2130,ear,,auriculam,,uˈɾeˑɮa,,,0
12321143509,"Romansh: Surmiran",46.60228,9.5965,5520,earth,,terram,,ˈtʰeːə̆ɾɐ,,,0
12321143509,"Romansh: Surmiran",46.60228,9.5965,6530,entrance,,intratam,,ɐ̆nˈtʰɾa̠ːt̬ɐ,,,0
12321143509,"Romansh: Surmiran",46.60228,9.5965,7330,fast,,rapidum,,ʃpeˑr̝̥tʰ,,,1
12321143509,"Romansh: Surmiran",46.60228,9.5965,4320,father,,pater,,ba̝̠ːpʰ,,,0
12321143509,"Romansh: Surmiran",46.60228,9.5965,6320,flower,,florem,,flˠoːʊ̆ʂ,,,0
12321143509,"Romansh: Surmiran",46.60228,9.5965,40,four,,quattuor,,ˈkʰaˑttʰəʂ,,,0
12321143509,"Romansh: Surmiran",46.60228,9.5965,3190,goat,,capram,,ˈtɕoːɾa,,,0
12321143509,"Romansh: Surmiran",46.60228,9.5965,5610,gold,,aurum,,oːr̥,,,0
12321143509,"Romansh: Surmiran",46.60228,9.5965,6310,grass,,herbam,,ˈeˑĕ̠̞ɹ̝va,,,0
12321143509,"Romansh: Surmiran",46.60228,9.5965,7040,green,,viridem,,veˑə̆r̝̥tʰ,,,0
12321143509,"Romansh: Surmiran",46.60228,9.5965,8480,he_believes_subj,,credat,,kʰɾeˑiˑ,,,0
12321143509,"Romansh: Surmiran",46.60228,9.5965,8410,he_sleeps,,dormit,,ˈdo̞ːrmɐ,,,0
12321143509,"Romansh: Surmiran",46.60228,9.5965,5870,heat,,calorem,,kʰɐ̆ˈlˠoˑuʂ,,,0
12321143509,"Romansh: Surmiran",46.60228,9.5965,5870,heat,,calorem,,kʰɜ̆ˈlɪiˑɾ̝ɐ,,,0
12321143509,"Romansh: Surmiran",46.60228,9.5965,3820,horn,,cornu,,ˈkʰɔːrna,,,0
12321143509,"Romansh: Surmiran",46.60228,9.5965,5040,hour,,horam,,ˈoːr̝ɐ,,,0
12321143509,"Romansh: Surmiran",46.60228,9.5965,8510,I_see,,video,,vɜˈzeːiʂ,,,0
12321143509,"Romansh: Surmiran",46.60228,9.5965,8650,it_lasts,,durat,,ˈdeiɾɐ,,,0
12321143509,"Romansh: Surmiran",46.60228,9.5965,8170,let_us_go_in,,intramus,,ănˈtʰɾeˑ,,,0
12321143509,"Romansh: Surmiran",46.60228,9.5965,4310,mother,,mater,,ˈma̠ˑmmɐ,,,0
12321143509,"Romansh: Surmiran",46.60228,9.5965,4100,name,,nominem,,noˑum,,,0
12321143509,"Romansh: Surmiran",46.60228,9.5965,6550,oven,,furnum,,fu̞ːɹ̝n̩,,,0
12321143509,"Romansh: Surmiran",46.60228,9.5965,1810,part,,partem,,pɑːr̝̥tʰ,,,0
12321143509,"Romansh: Surmiran",46.60228,9.5965,6200,raw_fem,,crudam,,kʰɾiːf,,,0
12321143509,"Romansh: Surmiran",46.60228,9.5965,7540,sad,,tristem,,tɾɪĭʃtʰ,,,0
12321143509,"Romansh: Surmiran",46.60228,9.5965,5240,sea,,mare,,mɑːr̝̥,,,0
12321143509,"Romansh: Surmiran",46.60228,9.5965,8630,serve_ipv_pl,,servite,,zəsəɾ̝ˈviˑ,,,0
12321143509,"Romansh: Surmiran",46.60228,9.5965,5130,star,,stellam,,ˈɕtʰeˑiˑla,,,0
12321143509,"Romansh: Surmiran",46.60228,9.5965,5510,stone,,petram,,kʰɾaˑpʰ,,,0
12321143509,"Romansh: Surmiran",46.60228,9.5965,7320,straight,,directum,,dɾeˑtɕ,,,0
12321143509,"Romansh: Surmiran",46.60228,9.5965,7610,strong,,fortem,,feˑə̆ɾm̩,,,0
12321143509,"Romansh: Surmiran",46.60228,9.5965,2140,tear,,lacrimam,,ˈla̠ːrma̝̠,,,0
12321143509,"Romansh: Surmiran",46.60228,9.5965,30,three,,tres,,tɾe̞ːis,,,0
12321143509,"Romansh: Surmiran",46.60228,9.5965,8640,to_sell,,vendere,,ˈveˑndə̆ɾ̥,,,0
12321143509,"Romansh: Surmiran",46.60228,9.5965,8490,let_us_hope,,speramus,,ʃpe̠ˈɾaˑɲ,,,0
12321143509,"Romansh: Surmiran",46.60228,9.5965,6840,wheel,,rotam,,ˈɾ̝uˑʈʈə,,,0
12321143509,"Romansh: Surmiran",46.60228,9.5965,5080,winter,,hibernum,,ɐ̆nˈviːɘɾ̝n,,,0
12321143509,"Romansh: Surmiran",46.60228,9.5965,3420,worm,,vermem,,veˑə̆ɾm̩,,,0
12321143509,"Romansh: Surmiran",46.60228,9.5965,8050,carry_you_pl,,portatis,,pʰʊ̆r̝̥ˈte̞ː,,,0
12321143509,"Romansh: Surmiran",46.60228,9.5965,740,your_pl_fem,,vostram,,vɔ̝ˑss,,,0
12321210109,"Ladin: Dolomites",46.34,11.4,2340,arm,,bracchium,,bʁaˑtʃ,,,0
12321210109,"Ladin: Dolomites",46.34,11.4,2250,beard,,barbam,,ˈbɛːʁbɐ̠,,,0
12321210109,"Ladin: Dolomites",46.34,11.4,2610,blood,,sanguinem,,saˑŋkʰ,,,0
12321210109,"Ladin: Dolomites",46.34,11.4,7390,broad,,largum,,lɛˑχkʰ,,,0
12321210109,"Ladin: Dolomites",46.34,11.4,7000,colour,,colorem,,kʰʊ̆ˈlɜʊχ,,,0
12321210109,"Ladin: Dolomites",46.34,11.4,6070,corn,,granum,,ˈʔɔˑʁdə,,,1
12321210109,"Ladin: Dolomites",46.34,11.4,8430,dead_fem,,mortuam,,ˈmɔˑχtɐ,,,0
12321210109,"Ladin: Dolomites",46.34,11.4,3160,deer,,cervum,,tʃɜ̟ˑχf,,,0
12321210109,"Ladin: Dolomites",46.34,11.4,6520,door,,portam,,ˈpɔˑχtɐ,,,0
12321210109,"Ladin: Dolomites",46.34,11.4,2130,ear,,auriculam,,ŭˈʁɛ̠ˑd̺lɐ,,,0
12321210109,"Ladin: Dolomites",46.34,11.4,5520,earth,,terram,,ˈtçjə̟ʀɐ̝,,,0
12321210109,"Ladin: Dolomites",46.34,11.4,6530,entrance,,intratam,,n̩ˈtχe̝ˑdɐ,,,0
12321210109,"Ladin: Dolomites",46.34,11.4,7330,fast,,rapidum,,dɘ̆ˈbɔˑttɐ̝,,,1
12321210109,"Ladin: Dolomites",46.34,11.4,4320,father,,pater,,ˈpɛ̝ˑʁə,,,0
12321210109,"Ladin: Dolomites",46.34,11.4,6320,flower,,florem,,tʃɔ̞ˑf,,,0
12321210109,"Ladin: Dolomites",46.34,11.4,40,four,,quattuor,,ˈca̝̠ttəχ,,,0
12321210109,"Ladin: Dolomites",46.34,11.4,3190,goat,,capram,,ˈtʃɜ̞ʊʀɐ̝,,,0
12321210109,"Ladin: Dolomites",46.34,11.4,5610,gold,,aurum,,ʔɔːχ,,,0
12321210109,"Ladin: Dolomites",46.34,11.4,6310,grass,,herbam,,ˈjə̟ʁbɐ,,,0
12321210109,"Ladin: Dolomites",46.34,11.4,7040,green,,viridem,,vɜ̟ˑχtʰ,,,0
12321210109,"Ladin: Dolomites",46.34,11.4,8480,he_believes_subj,,credat,,ˈkχɛˑjɐ,,,0
12321210109,"Ladin: Dolomites",46.34,11.4,8410,he_sleeps,,dormit,,ˈdɔˑχm̩,,,0
12321210109,"Ladin: Dolomites",46.34,11.4,5870,heat,,calorem,,tʃaʊt̪ʰ,,,0
12321210109,"Ladin: Dolomites",46.34,11.4,3820,horn,,cornu,,ˈkɔˑχm̩,,,0
12321210109,"Ladin: Dolomites",46.34,11.4,5040,hour,,horam,,ˈʔɐ̝ʊʀɐ̝,,,0
12321210109,"Ladin: Dolomites",46.34,11.4,8510,I_see,,video,,ʔuˈdɜ̟ˑj,,,0
12321210109,"Ladin: Dolomites",46.34,11.4,8650,it_lasts,,durat,,ˈdu̞ˑʀɐ,,,0
12321210109,"Ladin: Dolomites",46.34,11.4,4310,mother,,mater,,ˈmuttɐ,,,0
12321210109,"Ladin: Dolomites",46.34,11.4,4100,name,,nominem,,ˈlʷʊˑmɐ̞,,,0
12321210109,"Ladin: Dolomites",46.34,11.4,6550,oven,,furnum,,fʊʀˈnel,,,0
12321210109,"Ladin: Dolomites",46.34,11.4,1810,part,,partem,,pɛˑχts,,,0
12321210109,"Ladin: Dolomites",46.34,11.4,6200,raw_fem,,crudam,,ˈkχuˑðɐ,,,0
12321210109,"Ladin: Dolomites",46.34,11.4,7540,sad,,tristem,,ˌʒʊ̆dɘ̝moˈʁaˑl,,,0
12321210109,"Ladin: Dolomites",46.34,11.4,5240,sea,,mare,,mɛːχ,,,0
12321210109,"Ladin: Dolomites",46.34,11.4,8630,serve_ipv_pl,,servite,,tʊˈlɜ̟ˑdə,,,0
12321210109,"Ladin: Dolomites",46.34,11.4,5130,star,,stellam,,ˈʃtɛ̝̠ˑɪ̆lɐ̟,,,0
12321210109,"Ladin: Dolomites",46.34,11.4,5510,stone,,petram,,saˑs,,,0
12321210109,"Ladin: Dolomites",46.34,11.4,7320,straight,,directum,,n̩ˈdʁɛ̠ˑt.s,,,0
12321210109,"Ladin: Dolomites",46.34,11.4,7610,strong,,fortem,,ʃte̞ˑχkʰ,,,0
12321210109,"Ladin: Dolomites",46.34,11.4,2140,tear,,lacrimam,,ˈle̝ˑkχĭmɐ,,,0
12321210109,"Ladin: Dolomites",46.34,11.4,30,three,,tres,,tʀɛ̠iĭ̤,,,0
12321210109,"Ladin: Dolomites",46.34,11.4,8640,to_sell,,vendere,,ˈvɜ̟ˑndəˑχ,,,0
12321210109,"Ladin: Dolomites",46.34,11.4,8490,let_us_hope,,speramus,,ʃpəˈʁʊˑn,,,0
12321210109,"Ladin: Dolomites",46.34,11.4,6840,wheel,,rotam,,ˈχɔˑdɐ,,,0
12321210109,"Ladin: Dolomites",46.34,11.4,5080,winter,,hibernum,,ʔiɱˈvjə̟ˑʁm̩,,,0
12321210109,"Ladin: Dolomites",46.34,11.4,3420,worm,,vermem,,ˈjə̟ˑʁm̩,,,0
12321210109,"Ladin: Dolomites",46.34,11.4,8050,carry_you_pl,,portatis,,pʊ̆χˈtɜ̟ˑdə̟,,,0
12321210109,"Ladin: Dolomites",46.34,11.4,740,your_pl_fem,,vostram,,ˈvɔˑʃtɐ,,,0
12421002007,"Italian Std: Tuscany acc.",43.87988,11.09711,2340,arm,,bracchium,,ˈbɾa̝̠ˑttʃo,,,0
12421002007,"Italian Std: Tuscany acc.",43.87988,11.09711,2250,beard,,barbam,,ˈba̝̠ˑɾə̆bɐ,,,0
12421002007,"Italian Std: Tuscany acc.",43.87988,11.09711,2610,blood,,sanguinem,,ˈsa̝ˑŋɡwe̠,,,0
12421002007,"Italian Std: Tuscany acc.",43.87988,11.09711,7390,broad,,largum,,ˈla̝ˑɾɡo,,,0
12421002007,"Italian Std: Tuscany acc.",43.87988,11.09711,7000,colour,,colorem,,kʰoˈlˠoːɾë,,,0
12421002007,"Italian Std: Tuscany acc.",43.87988,11.09711,6070,corn,,granum,,ˈɡɹa̝ˑnɔ̈,,,0
12421002007,"Italian Std: Tuscany acc.",43.87988,11.09711,8430,dead_fem,,mortuam,,ˈmɔˑs̺tɐ,,,0
12421002007,"Italian Std: Tuscany acc.",43.87988,11.09711,3160,deer,,cervum,,ˈtʃɛˑɾvo,,,0
12421002007,"Italian Std: Tuscany acc.",43.87988,11.09711,6520,door,,portam,,ˈpo̞ˑɾtɐ,,,0
12421002007,"Italian Std: Tuscany acc.",43.87988,11.09711,2130,ear,,auriculam,,ʔoˈɾeccçjö,,,0
12421002007,"Italian Std: Tuscany acc.",43.87988,11.09711,5520,earth,,terram,,ˈt̪ʰɛˑɹ̝ˑɐ,,,0
12421002007,"Italian Std: Tuscany acc.",43.87988,11.09711,6530,entrance,,intratam,,ʔĕ̞nˈt̪ɾa̝ˑθɐ,,,0
12421002007,"Italian Std: Tuscany acc.",43.87988,11.09711,7330,fast,,rapidum,,[ə]ˈɾa̝ˑφɪðö,,,0
12421002007,"Italian Std: Tuscany acc.",43.87988,11.09711,4320,father,,pater,,ˈpa̝̠ːðɾe̠,,,0
12421002007,"Italian Std: Tuscany acc.",43.87988,11.09711,6320,flower,,florem,,ˈfjoˑɾe̞,,,0
12421002007,"Italian Std: Tuscany acc.",43.87988,11.09711,40,four,,quattuor,,ˈkʰwa̝̠ˑtʰɹö,,,0
12421002007,"Italian Std: Tuscany acc.",43.87988,11.09711,3190,goat,,capram,,ˈkʰaˑφɾɐ,,,0
12421002007,"Italian Std: Tuscany acc.",43.87988,11.09711,5610,gold,,aurum,,ˈʔɔ̝ːɾo̞,,,0
12421002007,"Italian Std: Tuscany acc.",43.87988,11.09711,6310,grass,,herbam,,ˈʔɛˑɹbɐ,,,0
12421002007,"Italian Std: Tuscany acc.",43.87988,11.09711,7040,green,,viridem,,ˈveˑɾdë,,,0
12421002007,"Italian Std: Tuscany acc.",43.87988,11.09711,8480,he_believes_subj,,credat,,ˈkʰɾeˑð̞ɐ,,,0
12421002007,"Italian Std: Tuscany acc.",43.87988,11.09711,8410,he_sleeps,,dormit,,ˈdɔˑɾmɛ,,,0
12421002007,"Italian Std: Tuscany acc.",43.87988,11.09711,5870,heat,,calorem,,kʰɐˈlˠoːɾe̠,,,0
12421002007,"Italian Std: Tuscany acc.",43.87988,11.09711,3820,horn,,cornu,,ˈkʰɔˑs̺nɔ,,,0
12421002007,"Italian Std: Tuscany acc.",43.87988,11.09711,5040,hour,,horam,,ˈʔoˑɘ̆ɾɐ,,,0
12421002007,"Italian Std: Tuscany acc.",43.87988,11.09711,8510,I_see,,video,,veˈdeːɾe,,,0
12421002007,"Italian Std: Tuscany acc.",43.87988,11.09711,8650,it_lasts,,durat,,ˈduˑɾɐ,,,0
12421002007,"Italian Std: Tuscany acc.",43.87988,11.09711,8170,let_us_go_in,,intramus,,˷ĕ̞nˈtʰɾja̝ˑmö,,,0
12421002007,"Italian Std: Tuscany acc.",43.87988,11.09711,4310,mother,,mater,,ˈma̝ˑd̪ɾe,,,0
12421002007,"Italian Std: Tuscany acc.",43.87988,11.09711,4100,name,,nominem,,ˈno̞ˑmɛ̝,,,0
12421002007,"Italian Std: Tuscany acc.",43.87988,11.09711,6550,oven,,furnum,,ˈfoˑɹ̝nɔ̈,,,0
12421002007,"Italian Std: Tuscany acc.",43.87988,11.09711,1810,part,,partem,,ˈpa̝ːɾtʰe,,,0
12421002007,"Italian Std: Tuscany acc.",43.87988,11.09711,6200,raw_fem,,crudam,,ˈkʰɾuˑd̪ɐ,,,0
12421002007,"Italian Std: Tuscany acc.",43.87988,11.09711,7540,sad,,tristem,,ˈtʰɾist̪ʰe,,,0
12421002007,"Italian Std: Tuscany acc.",43.87988,11.09711,5240,sea,,mare,,ˈma̝̠ːɾe̞,,,0
12421002007,"Italian Std: Tuscany acc.",43.87988,11.09711,8630,serve_ipv_pl,,servite,,sĕ̠ɹ̝ˈviˑt̪ᶿë,,,0
12421002007,"Italian Std: Tuscany acc.",43.87988,11.09711,5130,star,,stellam,,ˈst̪eˑllɐ,,,0
12421002007,"Italian Std: Tuscany acc.",43.87988,11.09711,5510,stone,,petram,,ˈpʰjɛˑt̪ʰɾɐ,,,0
12421002007,"Italian Std: Tuscany acc.",43.87988,11.09711,7320,straight,,directum,,ˈdɾittʰö,,,0
12421002007,"Italian Std: Tuscany acc.",43.87988,11.09711,7610,strong,,fortem,,ˈfɔ̝ˑɹ̝t̪e,,,0
12421002007,"Italian Std: Tuscany acc.",43.87988,11.09711,2140,tear,,lacrimam,,ˈla̝̠ˑxɾ̥ɪ̆mɐ,,,0
12421002007,"Italian Std: Tuscany acc.",43.87988,11.09711,30,three,,tres,,tʰɾe̞ˑ,,,0
12421002007,"Italian Std: Tuscany acc.",43.87988,11.09711,8640,to_sell,,vendere,,ˈveˑndeɾe,,,0
12421002007,"Italian Std: Tuscany acc.",43.87988,11.09711,8490,let_us_hope,,speramus,,speˈɾja̝̤ˑm̤ŏ̤,,,0
12421002007,"Italian Std: Tuscany acc.",43.87988,11.09711,6840,wheel,,rotam,,ˈɹ̝wɔ̝ˑt̪θɐ,,,0
12421002007,"Italian Std: Tuscany acc.",43.87988,11.09711,5080,winter,,hibernum,,ʔĭɱˈvɛːɾnɔ̈,,,0
12421002007,"Italian Std: Tuscany acc.",43.87988,11.09711,3420,worm,,vermem,,ˈvɛˑɾmɛ̝,,,0
12421002007,"Italian Std: Tuscany acc.",43.87988,11.09711,8050,carry_you_pl,,portatis,,pö̆ɹ̝ˈtaˑt̪ᶿë,,,0
12421002007,"Italian Std: Tuscany acc.",43.87988,11.09711,740,your_pl_fem,,vostram,,ˈvɔ̝ˑst̪ɾɐ,,,0
12231572409,"Provençal Alpine: Valdese",44.88906,7.04986,2340,arm,,bracchium,,bɾaˑs̠,,,0
12231572409,"Provençal Alpine: Valdese",44.88906,7.04986,2250,beard,,barbam,,ˈbaːɾbö,,,0
12231572409,"Provençal Alpine: Valdese",44.88906,7.04986,2610,blood,,sanguinem,,ˈsaˑ˜ŋkx,,,0
12231572409,"Provençal Alpine: Valdese",44.88906,7.04986,7390,broad,,largum,,l̰ˠaːɾkx,,,0
12231572409,"Provençal Alpine: Valdese",44.88906,7.04986,7000,colour,,colorem,,kʰʊ̆ˈɫʊˑɘ̠̆ɾ˳,,,0
12231572409,"Provençal Alpine: Valdese",44.88906,7.04986,6070,corn,,granum,,ɡɾaˑŋ,,,0
12231572409,"Provençal Alpine: Valdese",44.88906,7.04986,6070,corn,,granum,,ˈfɾʏˑtʰɔ̈,,,1
12231572409,"Provençal Alpine: Valdese",44.88906,7.04986,8430,dead_fem,,mortuam,,ˈmɔ̆ɔ̞ɾtʰɔ̈,,,0
12231572409,"Provençal Alpine: Valdese",44.88906,7.04986,3160,deer,,cervum,,--,,,0
12231572409,"Provençal Alpine: Valdese",44.88906,7.04986,6520,door,,portam,,ˈpɔːɾtɔ̈,,,0
12231572409,"Provençal Alpine: Valdese",44.88906,7.04986,2130,ear,,auriculam,,ʔoʊˈɾɞˑʎɜ,,,0
12231572409,"Provençal Alpine: Valdese",44.88906,7.04986,5520,earth,,terram,,ˈt̪ʰɛ̝ːɜ̆ɾɔ̈,,,0
12231572409,"Provençal Alpine: Valdese",44.88906,7.04986,6530,entrance,,intratam,,ĩnˈt̪ʰɾa̟ˑdˑö,,,0
12231572409,"Provençal Alpine: Valdese",44.88906,7.04986,7330,fast,,rapidum,,ɾɜ̆ˈpiddë,,,0
12231572409,"Provençal Alpine: Valdese",44.88906,7.04986,4320,father,,pater,,ˈpa̠ˑɪˑɾe̞,,,0
12231572409,"Provençal Alpine: Valdese",44.88906,7.04986,6320,flower,,florem,,flˠʊːɘ̠̆ɾ̥,,,0
12231572409,"Provençal Alpine: Valdese",44.88906,7.04986,40,four,,quattuor,,ˈk˯a̟t̪t̪ʰɾë,,,0
12231572409,"Provençal Alpine: Valdese",44.88906,7.04986,3190,goat,,capram,,ˈcçaˑbbɾö,,,0
12231572409,"Provençal Alpine: Valdese",44.88906,7.04986,5610,gold,,aurum,,ʔɔːɹ̝˳,,,0
12231572409,"Provençal Alpine: Valdese",44.88906,7.04986,6310,grass,,herbam,,ˈʔɛ̞ˑɾbɔ,,,0
12231572409,"Provençal Alpine: Valdese",44.88906,7.04986,7040,green,,viridem,,vɛ̞ːɾt̪ʰ,,,0
12231572409,"Provençal Alpine: Valdese",44.88906,7.04986,8480,he_believes_subj,,credat,,ˈkʰɾɛːjɛ̝,,,0
12231572409,"Provençal Alpine: Valdese",44.88906,7.04986,8410,he_sleeps,,dormit,,ˈd̪yˑɞˑɾmɘ̆,,,0
12231572409,"Provençal Alpine: Valdese",44.88906,7.04986,5870,heat,,calorem,,kʰɐˈlˠuˑʊ̆ɾ̥,,,0
12231572409,"Provençal Alpine: Valdese",44.88906,7.04986,3820,horn,,cornu,,ˈkʰɔˑɜ̆ɾnɘ̆,,,0
12231572409,"Provençal Alpine: Valdese",44.88906,7.04986,5040,hour,,horam,,ˈuːɾʌ,,,0
12231572409,"Provençal Alpine: Valdese",44.88906,7.04986,8510,I_see,,video,,veː,,,0
12231572409,"Provençal Alpine: Valdese",44.88906,7.04986,8650,it_lasts,,durat,,ˈd̪ʰyːɾʌ,,,0
12231572409,"Provençal Alpine: Valdese",44.88906,7.04986,8170,let_us_go_in,,intramus,,ĭnˈt̪ɾʊmmɐ,,,0
12231572409,"Provençal Alpine: Valdese",44.88906,7.04986,4310,mother,,mater,,ˈmaˑɪˑɾɛ,,,0
12231572409,"Provençal Alpine: Valdese",44.88906,7.04986,4100,name,,nominem,,nɔˑm,,,0
12231572409,"Provençal Alpine: Valdese",44.88906,7.04986,6550,oven,,furnum,,ˈfwɞ̨ˑɾnɘ̆,,,0
12231572409,"Provençal Alpine: Valdese",44.88906,7.04986,1810,part,,partem,,pa̠ˑr˳t̪ʰ,,,0
12231572409,"Provençal Alpine: Valdese",44.88906,7.04986,6200,raw_fem,,crudam,,ˈkʰɾ̥ʉːɔ̈,,,0
12231572409,"Provençal Alpine: Valdese",44.88906,7.04986,7540,sad,,tristem,,ˈt̪ɾist̪ʰ,,,0
12231572409,"Provençal Alpine: Valdese",44.88906,7.04986,5240,sea,,mare,,maːɾ,,,0
12231572409,"Provençal Alpine: Valdese",44.88906,7.04986,8630,serve_ipv_pl,,servite,,səɾˈvɛˑ,,,0
12231572409,"Provençal Alpine: Valdese",44.88906,7.04986,5130,star,,stellam,,˷e̞iˈt̪ʰɛ̝ˑɛ̆lˠɔ,,,0
12231572409,"Provençal Alpine: Valdese",44.88906,7.04986,5510,stone,,petram,,ˈpɛˑɪˑɾɔ̈,,,0
12231572409,"Provençal Alpine: Valdese",44.88906,7.04986,7320,straight,,directum,,d̪ə̟̆ˈɾɛ̞it̪ʰ,,,0
12231572409,"Provençal Alpine: Valdese",44.88906,7.04986,7610,strong,,fortem,,ˈfɔɜ̆ɾt̪ʰ,,,0
12231572409,"Provençal Alpine: Valdese",44.88906,7.04986,2140,tear,,lacrimam,,ˈk̬ɾimmo,,,0
12231572409,"Provençal Alpine: Valdese",44.88906,7.04986,30,three,,tres,,t̪ʰɾɛːɪ,,,0
12231572409,"Provençal Alpine: Valdese",44.88906,7.04986,8640,to_sell,,vendere,,ˈvəndɾɛ̈,,,0
12231572409,"Provençal Alpine: Valdese",44.88906,7.04986,8490,let_us_hope,,speramus,,ˈs̠pɾʊˑmmɐ,,,0
12231572409,"Provençal Alpine: Valdese",44.88906,7.04986,6840,wheel,,rotam,,ˈɾuːɔ̝,,,0
12231572409,"Provençal Alpine: Valdese",44.88906,7.04986,5080,winter,,hibernum,,ʔyˈvɛːɾnɘ,,,0
12231572409,"Provençal Alpine: Valdese",44.88906,7.04986,3420,worm,,vermem,,vɛ̞ˑɐ̟̆ɾpʰ,,,0
12231572409,"Provençal Alpine: Valdese",44.88906,7.04986,8050,carry_you_pl,,portatis,,pʰʊɾ̥ˈtɜˑ,,,0
12231572409,"Provençal Alpine: Valdese",44.88906,7.04986,740,your_pl_fem,,vostram,,ˈ˳vɔ̝ːt̪ʰɾɔ̈,,,0
12411320209,"Lombardy: Gardone",45.68333,10.18333,2340,arm,,bracchium,,bɾa̟ˑh,,,0
12411320209,"Lombardy: Gardone",45.68333,10.18333,2250,beard,,barbam,,ˈba̠ˑrbɔ̝,,,0
12411320209,"Lombardy: Gardone",45.68333,10.18333,2610,blood,,sanguinem,,haːŋkʰ,,,0
12411320209,"Lombardy: Gardone",45.68333,10.18333,7390,broad,,largum,,ˈla̟ːɾkʰɜ,,,0
12411320209,"Lombardy: Gardone",45.68333,10.18333,7000,colour,,colorem,,kʰu̞ˈluːɹ̝,,,0
12411320209,"Lombardy: Gardone",45.68333,10.18333,6070,corn,,granum,,ɡra̟ː,,,0
12411320209,"Lombardy: Gardone",45.68333,10.18333,8430,dead_fem,,mortuam,,ˈmoˑɹ̝tɐ,,,0
12411320209,"Lombardy: Gardone",45.68333,10.18333,3160,deer,,cervum,,ˈtʃeˑɹ̝vo,,,0
12411320209,"Lombardy: Gardone",45.68333,10.18333,6520,door,,portam,,ˈpoˑɹ̝tʰɐ,,,0
12411320209,"Lombardy: Gardone",45.68333,10.18333,2130,ear,,auriculam,,o̝ˈɾeˑtʃɐ,,,0
12411320209,"Lombardy: Gardone",45.68333,10.18333,5520,earth,,terram,,ˈtʰeˑɾɐ,,,0
12411320209,"Lombardy: Gardone",45.68333,10.18333,6530,entrance,,intratam,,ĕ̞nˈtʰɾaːðɜ,,,0
12411320209,"Lombardy: Gardone",45.68333,10.18333,7330,fast,,rapidum,,ˈɾaˑpiˑd̪̥ʰɘ̆,,,0
12411320209,"Lombardy: Gardone",45.68333,10.18333,4320,father,,pater,,ˈpaˑde̞ˑɹ̝,,,0
12411320209,"Lombardy: Gardone",45.68333,10.18333,6320,flower,,florem,,fjuːs̺,,,0
12411320209,"Lombardy: Gardone",45.68333,10.18333,40,four,,quattuor,,ˈkʰwaˑtʰe̠ɾ̥,,,0
12411320209,"Lombardy: Gardone",45.68333,10.18333,3190,goat,,capram,,ˈkʰa̟ˑvɾə,,,0
12411320209,"Lombardy: Gardone",45.68333,10.18333,5610,gold,,aurum,,ʔoːr̝,,,0
12411320209,"Lombardy: Gardone",45.68333,10.18333,6310,grass,,herbam,,ˈeˑɹ̝bɜ,,,0
12411320209,"Lombardy: Gardone",45.68333,10.18333,7040,green,,viridem,,veːɹ̝̥,,,0
12411320209,"Lombardy: Gardone",45.68333,10.18333,8480,he_believes_subj,,credat,,kxɾiˈdiˑɛˑ,,,0
12411320209,"Lombardy: Gardone",45.68333,10.18333,8410,he_sleeps,,dormit,,ˈdoˑɹ̝mɑ̝,,,0
12411320209,"Lombardy: Gardone",45.68333,10.18333,5870,heat,,calorem,,kʰa̝ˈluːɹ̝,,,0
12411320209,"Lombardy: Gardone",45.68333,10.18333,3820,horn,,cornu,,ˈkʰo̝ˑɾĕ̠n,,,0
12411320209,"Lombardy: Gardone",45.68333,10.18333,5040,hour,,horam,,ˈʔuˑɹ̝ɜ,,,0
12411320209,"Lombardy: Gardone",45.68333,10.18333,8510,I_see,,video,,vɛ̝ˑt̪ʰ,,,0
12411320209,"Lombardy: Gardone",45.68333,10.18333,8650,it_lasts,,durat,,ˈdyːɹ̝ɐ̠,,,0
12411320209,"Lombardy: Gardone",45.68333,10.18333,8170,let_us_go_in,,intramus,,no̟nˈdeˑtʰɛ̈ɹ̝,,,0
12411320209,"Lombardy: Gardone",45.68333,10.18333,4310,mother,,mater,,ˈmaˑde̞ˑɹ̝,,,0
12411320209,"Lombardy: Gardone",45.68333,10.18333,4100,name,,nominem,,nɔ̝ˑm,,,0
12411320209,"Lombardy: Gardone",45.68333,10.18333,6550,oven,,furnum,,ˈfuːɾe̞n,,,0
12411320209,"Lombardy: Gardone",45.68333,10.18333,1810,part,,partem,,ˈpa̟ːɹ̝t̪ʰə,,,0
12411320209,"Lombardy: Gardone",45.68333,10.18333,6200,raw_fem,,crudam,,ˈkʰɹ̝yˑdɜ,,,0
12411320209,"Lombardy: Gardone",45.68333,10.18333,7540,sad,,tristem,,ˈtʰɹ̝iˑstʰe,,,0
12411320209,"Lombardy: Gardone",45.68333,10.18333,5240,sea,,mare,,ma̟ːɹ̝,,,0
12411320209,"Lombardy: Gardone",45.68333,10.18333,8630,serve_ipv_pl,,servite,,he̞ɹ̝ˈviˑθ,,,0
12411320209,"Lombardy: Gardone",45.68333,10.18333,5130,star,,stellam,,ˈhtʰeˑlɐ,,,0
12411320209,"Lombardy: Gardone",45.68333,10.18333,5510,stone,,petram,,ˈpɾ̥ɪˑdɐ,,,0
12411320209,"Lombardy: Gardone",45.68333,10.18333,7320,straight,,directum,,dɾit̪ʰ,,,0
12411320209,"Lombardy: Gardone",45.68333,10.18333,7610,strong,,fortem,,ˈfɔ̝ːɹ̝te̞,,,0
12411320209,"Lombardy: Gardone",45.68333,10.18333,2140,tear,,lacrimam,,ˈla̟kɾĭmɜ,,,0
12411320209,"Lombardy: Gardone",45.68333,10.18333,30,three,,tres,,t̪ʰɾeˑ,,,0
12411320209,"Lombardy: Gardone",45.68333,10.18333,8640,to_sell,,vendere,,ˈve̞ndɛ̈ɹ̝,,,0
12411320209,"Lombardy: Gardone",45.68333,10.18333,8490,let_us_hope,,speramus,,hpe̞ˈɾoˑm,,,0
12411320209,"Lombardy: Gardone",45.68333,10.18333,6840,wheel,,rotam,,ˈɹ̝øˑdɜ,,,0
12411320209,"Lombardy: Gardone",45.68333,10.18333,5080,winter,,hibernum,,ʔiɱˈve̞ːɹ̝no,,,0
12411320209,"Lombardy: Gardone",45.68333,10.18333,3420,worm,,vermem,,ˈveˑɾem,,,0
12411320209,"Lombardy: Gardone",45.68333,10.18333,8050,carry_you_pl,,portatis,,pʊ̆ɹ̝ˈt̪ʰiː,,,0
12411320209,"Lombardy: Gardone",45.68333,10.18333,740,your_pl_fem,,vostram,,ˈvo̞ˑhtʰɘ,,,0
12451322609,"Sicily C.: Mussomeli",37.58333,13.75,2340,arm,,bracchium,,ˈvɾaˑttso̟,,,0
12451322609,"Sicily C.: Mussomeli",37.58333,13.75,2250,beard,,barbam,,ˈva̠ˑɾbɐ̠,,,0
12451322609,"Sicily C.: Mussomeli",37.58333,13.75,2610,blood,,sanguinem,,ˈsa̝̠ˑŋɡo,,,0
12451322609,"Sicily C.: Mussomeli",37.58333,13.75,7390,broad,,largum,,ˈlˠa̠ːrɡo,,,0
12451322609,"Sicily C.: Mussomeli",37.58333,13.75,7000,colour,,colorem,,kʰʊˈlˠo̞ːɾe̠,,,0
12451322609,"Sicily C.: Mussomeli",37.58333,13.75,6070,corn,,granum,,fɾ̥ʊ̆mˈmiˑĕ̠ntʰo̟,,,1
12451322609,"Sicily C.: Mussomeli",37.58333,13.75,8430,dead_fem,,mortuam,,ˈmɔ̞ˑr̥tɐ,,,0
12451322609,"Sicily C.: Mussomeli",37.58333,13.75,3160,deer,,cervum,,tʃe̠ɾˈbja̝̠ˑttʰo,,,0
12451322609,"Sicily C.: Mussomeli",37.58333,13.75,6520,door,,portam,,ˈpɔ̞ˑr˳tʰɐ,,,0
12451322609,"Sicily C.: Mussomeli",37.58333,13.75,2130,ear,,auriculam,,ʊˈɾiˑccçɐ,,,0
12451322609,"Sicily C.: Mussomeli",37.58333,13.75,5520,earth,,terram,,ˈtʰɛrrɐ,,,0
12451322609,"Sicily C.: Mussomeli",37.58333,13.75,6530,entrance,,intratam,,ˈʈɜˈsuˑtʰɐ,,,0
12451322609,"Sicily C.: Mussomeli",37.58333,13.75,7330,fast,,rapidum,,ˈlɛ̞ˑstʰo̟,,,1
12451322609,"Sicily C.: Mussomeli",37.58333,13.75,4320,father,,pater,,ˈpa̠ːʈʂe̠,,,0
12451322609,"Sicily C.: Mussomeli",37.58333,13.75,6320,flower,,florem,,ˈçoːɾe̠,,,0
12451322609,"Sicily C.: Mussomeli",37.58333,13.75,40,four,,quattuor,,ˈkwa̝̠ˑʈʈʂo̟,,,0
12451322609,"Sicily C.: Mussomeli",37.58333,13.75,3190,goat,,capram,,ˈkʰɾaːpɐ̠,,,0
12451322609,"Sicily C.: Mussomeli",37.58333,13.75,5610,gold,,aurum,,ˈɔ̞ːɾo,,,0
12451322609,"Sicily C.: Mussomeli",37.58333,13.75,6310,grass,,herbam,,ˈɛ̞ˑrbɐ̠,,,0
12451322609,"Sicily C.: Mussomeli",37.58333,13.75,7040,green,,viridem,,ˈve̞ˑrde̠,,,0
12451322609,"Sicily C.: Mussomeli",37.58333,13.75,8480,he_believes_subj,,credat,,ˈkʰɾeːde̠,,,0
12451322609,"Sicily C.: Mussomeli",37.58333,13.75,8410,he_sleeps,,dormit,,ˈdɔ̞ːrme̠̞,,,0
12451322609,"Sicily C.: Mussomeli",37.58333,13.75,5870,heat,,calorem,,ˈkʰa̠ˑllˠo̞,,,0
12451322609,"Sicily C.: Mussomeli",37.58333,13.75,5870,heat,,calorem,,ˈkʰɑˑʊdʰo,,,0
12451322609,"Sicily C.: Mussomeli",37.58333,13.75,3820,horn,,cornu,,ˈkuˑɘɾno̞,,,0
12451322609,"Sicily C.: Mussomeli",37.58333,13.75,5040,hour,,horam,,ˈu̞ːɾɐ,,,0
12451322609,"Sicily C.: Mussomeli",37.58333,13.75,8510,I_see,,video,,ˈveːde̠ɾe̠,,,0
12451322609,"Sicily C.: Mussomeli",37.58333,13.75,8650,it_lasts,,durat,,ˈdu̞ːɾɜ,,,0
12451322609,"Sicily C.: Mussomeli",37.58333,13.75,8170,let_us_go_in,,intramus,,tɾɜˈsiˑĕ̠mo,,,0
12451322609,"Sicily C.: Mussomeli",37.58333,13.75,4310,mother,,mater,,ˈma̠ːʈʂe̠,,,0
12451322609,"Sicily C.: Mussomeli",37.58333,13.75,4100,name,,nominem,,ˈno̞ːme̠,,,0
12451322609,"Sicily C.: Mussomeli",37.58333,13.75,6550,oven,,furnum,,ˈfo̞ːrnɔ,,,0
12451322609,"Sicily C.: Mussomeli",37.58333,13.75,1810,part,,partem,,ˈpa̠ˑr̥tʰe̠,,,0
12451322609,"Sicily C.: Mussomeli",37.58333,13.75,6200,raw_fem,,crudam,,ˈkʰru̞ːdɜ,,,0
12451322609,"Sicily C.: Mussomeli",37.58333,13.75,7540,sad,,tristem,,ˈtʰɾe̞ˑstʰe̠,,,0
12451322609,"Sicily C.: Mussomeli",37.58333,13.75,5240,sea,,mare,,ˈma̠ːɾe̠,,,0
12451322609,"Sicily C.: Mussomeli",37.58333,13.75,8630,serve_ipv_pl,,servite,,sĕ̠ɾˈve̞ːtʰe̠,,,0
12451322609,"Sicily C.: Mussomeli",37.58333,13.75,5130,star,,stellam,,ˈstʰiˑɖɖʐɐ,,,0
12451322609,"Sicily C.: Mussomeli",37.58333,13.75,5510,stone,,petram,,ˈpɛ̞ːʈʂɐ,,,0
12451322609,"Sicily C.: Mussomeli",37.58333,13.75,7320,straight,,directum,,də̆ˈɾe̞ˑttʰo̟,,,0
12451322609,"Sicily C.: Mussomeli",37.58333,13.75,7610,strong,,fortem,,ˈfɔ̞ːr̥tʰe̠,,,0
12451322609,"Sicily C.: Mussomeli",37.58333,13.75,2140,tear,,lacrimam,,ˈlˠa̠ˑkɾɪ̠̆mɐ̠̆,,,0
12451322609,"Sicily C.: Mussomeli",37.58333,13.75,30,three,,tres,,tɾe̞ː,,,0
12451322609,"Sicily C.: Mussomeli",37.58333,13.75,8640,to_sell,,vendere,,ˈveˑnne̠ɾe̠,,,0
12451322609,"Sicily C.: Mussomeli",37.58333,13.75,8490,let_us_hope,,speramus,,spe̠ˈɾja̠ˑmo,,,0
12451322609,"Sicily C.: Mussomeli",37.58333,13.75,6840,wheel,,rotam,,ˈɾɔ̞ːtʰɐ,,,0
12451322609,"Sicily C.: Mussomeli",37.58333,13.75,5080,winter,,hibernum,,ˈmĩ̞ˑə̟̆ɾno̞,,,0
12451322609,"Sicily C.: Mussomeli",37.58333,13.75,3420,worm,,vermem,,ˈvɛ̞ːɾmɛ,,,0
12451322609,"Sicily C.: Mussomeli",37.58333,13.75,8050,carry_you_pl,,portatis,,pʊ̆r̥ˈta̝̠ːtʰe̠,,,0
12451322609,"Sicily C.: Mussomeli",37.58333,13.75,740,your_pl_fem,,vostram,,ˈvu̞ˑst̪ʰɾɐ,,,0
12451322609,"Sicily C.: Mussomeli",37.58333,13.75,740,your_pl_fem,,vostram,,dɪ̠̆vŭˈa̝̠ˑnʈʂe̠,,,1
12461131569,"Corsica: Corte",42.30556,9.14418,2340,arm,,bracchium,,ˈɾæːttʃʊ̆,,,0
12461131569,"Corsica: Corte",42.30556,9.14418,2250,beard,,barbam,,ˈbɛ̞ːɾba̝,,,0
12461131569,"Corsica: Corte",42.30556,9.14418,2610,blood,,sanguinem,,ˈsɒ̃ːŋɡwe,,,0
12461131569,"Corsica: Corte",42.30556,9.14418,7390,broad,,largum,,ˈlæːɾɡʊ,,,0
12461131569,"Corsica: Corte",42.30556,9.14418,7000,colour,,colorem,,kʰuˈlɔ̝ːɾe,,,0
12461131569,"Corsica: Corte",42.30556,9.14418,6070,corn,,granum,,ˈɹ̝ʌ̃ːnu,,,0
12461131569,"Corsica: Corte",42.30556,9.14418,8430,dead_fem,,mortuam,,ˈmo̝ˑs̺tɐ̰̆,,,0
12461131569,"Corsica: Corte",42.30556,9.14418,3160,deer,,cervum,,ˈtʃɛ̞ːɾvu,,,0
12461131569,"Corsica: Corte",42.30556,9.14418,6520,door,,portam,,ˈpʰoːɾ˳ta̝̠,,,0
12461131569,"Corsica: Corte",42.30556,9.14418,2130,ear,,auriculam,,o̞ˈɾeˑccça̝,,,0
12461131569,"Corsica: Corte",42.30556,9.14418,5520,earth,,terram,,ˈtɛ̞ːɹ̝ă̝̰,,,0
12461131569,"Corsica: Corte",42.30556,9.14418,6530,entrance,,intratam,,ʔɛnˈtʰɾa̝ːdɐ,,,0
12461131569,"Corsica: Corte",42.30556,9.14418,6530,entrance,,intratam,,ˈuʃʃʊ̆,,,0
12461131569,"Corsica: Corte",42.30556,9.14418,7330,fast,,rapidum,,ˈlɪˑɕtʰʊ̆,,,1
12461131569,"Corsica: Corte",42.30556,9.14418,4320,father,,pater,,ˈba̝̠ːbʰʊ,,,0
12461131569,"Corsica: Corte",42.30556,9.14418,6320,flower,,florem,,ˈfçjɔ̝ːɾe̞,,,0
12461131569,"Corsica: Corte",42.30556,9.14418,40,four,,quattuor,,ˈkʰwa̝ˑttʰɾʊ,,,0
12461131569,"Corsica: Corte",42.30556,9.14418,3190,goat,,capram,,ˈkʰa̝̠ːbɾɐ,,,0
12461131569,"Corsica: Corte",42.30556,9.14418,5610,gold,,aurum,,ˈɦɔ̝ːɾʊ,,,0
12461131569,"Corsica: Corte",42.30556,9.14418,6310,grass,,herbam,,ˈ˷ɛ̞ːɾbɐ,,,0
12461131569,"Corsica: Corte",42.30556,9.14418,7040,green,,viridem,,ˈbe̞ːɹ̝ɘ̆de,,,0
12461131569,"Corsica: Corte",42.30556,9.14418,8480,he_believes_subj,,credat,,ˈkʰɾe̞ːð̞a̝,,,0
12461131569,"Corsica: Corte",42.30556,9.14418,8410,he_sleeps,,dormit,,ˈdoːɾmɛ̝,,,0
12461131569,"Corsica: Corte",42.30556,9.14418,5870,heat,,calorem,,ˈkʰa̠ːllˠʊ,,,0
12461131569,"Corsica: Corte",42.30556,9.14418,3820,horn,,cornu,,ˈkʰoːɹ̝na,,,0
12461131569,"Corsica: Corte",42.30556,9.14418,5040,hour,,horam,,ˈoːɹ̝ɐ,,,0
12461131569,"Corsica: Corte",42.30556,9.14418,8510,I_see,,video,,ˈbe̞ːð̞e,,,0
12461131569,"Corsica: Corte",42.30556,9.14418,8650,it_lasts,,durat,,ˈdʰuːɾɐ,,,0
12461131569,"Corsica: Corte",42.30556,9.14418,8170,let_us_go_in,,intramus,,ʔɛ̆nˈtʰɾe̞ːmˑu,,,0
12461131569,"Corsica: Corte",42.30556,9.14418,4310,mother,,mater,,ˈmɒ̃ːmˑa̝,,,0
12461131569,"Corsica: Corte",42.30556,9.14418,4100,name,,nominem,,ˈnõːme,,,0
12461131569,"Corsica: Corte",42.30556,9.14418,6550,oven,,furnum,,ˈfɔ̝ːɹnʊ,,,0
12461131569,"Corsica: Corte",42.30556,9.14418,1810,part,,partem,,ˈpæˑs̺tḛ,,,0
12461131569,"Corsica: Corte",42.30556,9.14418,6200,raw_fem,,crudam,,ˈkʰɾuːɐ,,,0
12461131569,"Corsica: Corte",42.30556,9.14418,7540,sad,,tristem,,ˈtʰɾis̠tʰʊ̰̆,,,0
12461131569,"Corsica: Corte",42.30556,9.14418,5240,sea,,mare,,ˈma̠ːɾe,,,0
12461131569,"Corsica: Corte",42.30556,9.14418,8630,serve_ipv_pl,,servite,,seɾˈviːde,,,0
12461131569,"Corsica: Corte",42.30556,9.14418,5130,star,,stellam,,ˈɕtɪːllɐ,,,0
12461131569,"Corsica: Corte",42.30556,9.14418,5510,stone,,petram,,ˈpɪːt̬ə̆ɾa̝,,,0
12461131569,"Corsica: Corte",42.30556,9.14418,7320,straight,,directum,,diˈɹ̝iˑttʰu,,,0
12461131569,"Corsica: Corte",42.30556,9.14418,7610,strong,,fortem,,ˈfoːɾ̥te,,,0
12461131569,"Corsica: Corte",42.30556,9.14418,2140,tear,,lacrimam,,ˈlæːɡɾima̝,,,0
12461131569,"Corsica: Corte",42.30556,9.14418,30,three,,tres,,tʰɾɛ̝ˑ,,,0
12461131569,"Corsica: Corte",42.30556,9.14418,8640,to_sell,,vendere,,ˈbe̞ˑnde,,,0
12461131569,"Corsica: Corte",42.30556,9.14418,8490,let_us_hope,,speramus,,speˈɹ̝eːmˑŭ,,,0
12461131569,"Corsica: Corte",42.30556,9.14418,6840,wheel,,rotam,,ˈɾ̝oːdula̝,,,0
12461131569,"Corsica: Corte",42.30556,9.14418,5080,winter,,hibernum,,˷iŋˈɡwɛ̞ˑɹnʊ,,,0
12461131569,"Corsica: Corte",42.30556,9.14418,3420,worm,,vermem,,ˈbɛ̞ːɾmu,,,0
12461131569,"Corsica: Corte",42.30556,9.14418,8050,carry_you_pl,,portatis,,pʊɾ̥ˈta̠ːde,,,0
12461131569,"Corsica: Corte",42.30556,9.14418,740,your_pl_fem,,vostram,,ˈboːɕtɾa̝,,,0
12461550509,"Sardinian CR: Selargius",39.25984,9.16194,2340,arm,,bracchium,,bɜ̟̆ˈɾattʊ̟,,,0
12461550509,"Sardinian CR: Selargius",39.25984,9.16194,2250,beard,,barbam,,bɜ̟̆ˈɾaːβ̞ɐ,,,0
12461550509,"Sardinian CR: Selargius",39.25984,9.16194,2610,blood,,sanguinem,,ˈsa͂ˑŋɡŏ̟nĭ̠,,,0
12461550509,"Sardinian CR: Selargius",39.25984,9.16194,7390,broad,,largum,,ˈlaːɾə̆ɡʊ̞,,,0
12461550509,"Sardinian CR: Selargius",39.25984,9.16194,7000,colour,,colorem,,kʰɔ̟ˈɫɔːɾɪ,,,0
12461550509,"Sardinian CR: Selargius",39.25984,9.16194,7000,colour,,colorem,,kʰɔ̟ˈɣɔˑɹɪ,,,0
12461550509,"Sardinian CR: Selargius",39.25984,9.16194,6070,corn,,granum,,ˈɣ̞ɹãˑnʊ̟̃̆,,,0
12461550509,"Sardinian CR: Selargius",39.25984,9.16194,8430,dead_fem,,mortuam,,mõ̟tta,,,0
12461550509,"Sardinian CR: Selargius",39.25984,9.16194,3160,deer,,cervum,,tʃɘ̆ˈɾeˑβʊ,,,0
12461550509,"Sardinian CR: Selargius",39.25984,9.16194,6520,door,,portam,,ˈpɔˑttʰa,,,0
12461550509,"Sardinian CR: Selargius",39.25984,9.16194,2130,ear,,auriculam,,o̟ˈɾiˑɡ˳ə,,,0
12461550509,"Sardinian CR: Selargius",39.25984,9.16194,6530,entrance,,intratam,,ĩnˈtʰɾaːda,,,0
12461550509,"Sardinian CR: Selargius",39.25984,9.16194,7330,fast,,rapidum,,ˈlɪˑst,,,1
12461550509,"Sardinian CR: Selargius",39.25984,9.16194,4320,father,,pater,,ˈbaˑbbu,,,0
12461550509,"Sardinian CR: Selargius",39.25984,9.16194,6320,flower,,florem,,ˈfɾɔ̟ːɾɪ,,,0
12461550509,"Sardinian CR: Selargius",39.25984,9.16194,40,four,,quattuor,,ˈkwaˑttʰɘ̆ɾʊ̟,,,0
12461550509,"Sardinian CR: Selargius",39.25984,9.16194,3190,goat,,capram,,ˈkʰɾaˑβ̞ɐ,,,0
12461550509,"Sardinian CR: Selargius",39.25984,9.16194,5610,gold,,aurum,,ˈɔːɾʊ,,,0
12461550509,"Sardinian CR: Selargius",39.25984,9.16194,6310,grass,,herbam,,ˈɛ̝ˑɾbɜ,,,0
12461550509,"Sardinian CR: Selargius",39.25984,9.16194,7040,green,,viridem,,ˈbi̞ˑɹdi,,,0
12461550509,"Sardinian CR: Selargius",39.25984,9.16194,8480,he_believes_subj,,credat,,ˈkʰɾeˑɐ̟ða,,,0
12461550509,"Sardinian CR: Selargius",39.25984,9.16194,8410,he_sleeps,,dormit,,ˈdɾoˑmmɪ̆ði,,,0
12461550509,"Sardinian CR: Selargius",39.25984,9.16194,5870,heat,,calorem,,kʰaˈlˠɔːɾi̠,,,0
12461550509,"Sardinian CR: Selargius",39.25984,9.16194,5870,heat,,calorem,,kʰaˈɣɔːɾɨ̆,,,0
12461550509,"Sardinian CR: Selargius",39.25984,9.16194,3820,horn,,cornu,,ˈkʰo̟ˑrrˠʊ̆,,,0
12461550509,"Sardinian CR: Selargius",39.25984,9.16194,5040,hour,,horam,,ˈɔːɾɐ̟,,,0
12461550509,"Sardinian CR: Selargius",39.25984,9.16194,8510,I_see,,video,,ˈbiːɾi,,,0
12461550509,"Sardinian CR: Selargius",39.25984,9.16194,8650,it_lasts,,durat,,ˈduˑɾɜða,,,0
12461550509,"Sardinian CR: Selargius",39.25984,9.16194,8170,let_us_go_in,,intramus,,ɪ̃̆nˈtʰɾɪˑɘz̺ɘ̆,,,0
12461550509,"Sardinian CR: Selargius",39.25984,9.16194,4310,mother,,mater,,ˈmãˑmma,,,0
12461550509,"Sardinian CR: Selargius",39.25984,9.16194,4310,mother,,mater,,mɐ̆mˈmãˑɪ̃,,,0
12461550509,"Sardinian CR: Selargius",39.25984,9.16194,4100,name,,nominem,,ˈnõ̞ˑmˑɨ̆ni,,,0
12461550509,"Sardinian CR: Selargius",39.25984,9.16194,6550,oven,,furnum,,ˈfʊːrˠɹʊ̞,,,0
12461550509,"Sardinian CR: Selargius",39.25984,9.16194,1810,part,,partem,,ˈpattʰi,,,0
12461550509,"Sardinian CR: Selargius",39.25984,9.16194,6200,raw_fem,,crudam,,ˈkʰɾuˑðɐ,,,0
12461550509,"Sardinian CR: Selargius",39.25984,9.16194,6200,raw_fem,,crudam,,kʰɾuˑɐ,,,0
12461550509,"Sardinian CR: Selargius",39.25984,9.16194,7540,sad,,tristem,,ˈtɾi̞ˑstʰʊ,,,0
12461550509,"Sardinian CR: Selargius",39.25984,9.16194,5240,sea,,mare,,ˈmãːɾi,,,0
12461550509,"Sardinian CR: Selargius",39.25984,9.16194,8630,serve_ipv_pl,,servite,,se̠ɾˈbeːi,,,0
12461550509,"Sardinian CR: Selargius",39.25984,9.16194,5130,star,,stellam,,ˈste̞ˑllɐ̟,,,0
12461550509,"Sardinian CR: Selargius",39.25984,9.16194,5510,stone,,petram,,ˈpeːð̞ɾa,,,0
12461550509,"Sardinian CR: Selargius",39.25984,9.16194,7320,straight,,directum,,deˈɾeˑttʰʊ,,,0
12461550509,"Sardinian CR: Selargius",39.25984,9.16194,7610,strong,,fortem,,ˈfɔˑttʰɪ,,,0
12461550509,"Sardinian CR: Selargius",39.25984,9.16194,2140,tear,,lacrimam,,ˈlaˑɣ̞ɹĕmɘ̝,,,0
12461550509,"Sardinian CR: Selargius",39.25984,9.16194,30,three,,tres,,ˈtʰɾ̥ɛ̝ːzi,,,0
12461550509,"Sardinian CR: Selargius",39.25984,9.16194,8640,to_sell,,vendere,,ˈbẽˑndi,,,0
12461550509,"Sardinian CR: Selargius",39.25984,9.16194,8490,let_us_hope,,speramus,,speˈɾɪˑɘ̠ˑzɘ,,,0
12461550509,"Sardinian CR: Selargius",39.25984,9.16194,6840,wheel,,rotam,,ɐ̟rˈrˠɔːðɜ,,,0
12461550509,"Sardinian CR: Selargius",39.25984,9.16194,5080,winter,,hibernum,,ˈjeːrɹo̟,,,0
12461550509,"Sardinian CR: Selargius",39.25984,9.16194,3420,worm,,vermem,,ˈbɾẽˑmmɪ̃̆nĩ,,,0
12461550509,"Sardinian CR: Selargius",39.25984,9.16194,8050,carry_you_pl,,portatis,,pɔ̟ɾˈtʰaɪ̠sɪ̠̆,,,0
12461550509,"Sardinian CR: Selargius",39.25984,9.16194,740,your_pl_fem,,vostram,,ˈbɔˑstɾa,,,0
12461550509,"Sardinian CR: Selargius",39.25984,9.16194,740,your_pl_fem,,vostram,,sa̠ˈɔˑstʰɾə,,,0
12461550509,"Sardinian CR: Selargius",39.25984,9.16194,740,your_pl_fem,,vostram,,ˈɔˑstʰɾə,,,0
12521405509,"Istro-Romanian:  Žejane",45.44056,14.19444,2340,arm,,bracchium,,ˈuˑme̠r˳,,,1
12521405509,"Istro-Romanian:  Žejane",45.44056,14.19444,2250,beard,,barbam,,ˈbʌˑɐ̆ɾbɐ,,,0
12521405509,"Istro-Romanian:  Žejane",45.44056,14.19444,2610,blood,,sanguinem,,ˈsɘˑnʒɜ,,,0
12521405509,"Istro-Romanian:  Žejane",45.44056,14.19444,7390,broad,,largum,,ˈlˠɑ̝ːɾɡo,,,0
12521405509,"Istro-Romanian:  Žejane",45.44056,14.19444,7000,colour,,colorem,,ˈfo̞ɐ̆ɾbɐ̆,,,1
12521405509,"Istro-Romanian:  Žejane",45.44056,14.19444,6070,corn,,granum,,ɣɘˈɾɘːβ,,,0
12521405509,"Istro-Romanian:  Žejane",45.44056,14.19444,8430,dead_fem,,mortuam,,ˈmwɔ̟ɾtɐ,,,0
12521405509,"Istro-Romanian:  Žejane",45.44056,14.19444,3160,deer,,cervum,,a̝̠ˈʝe̠lˠɘnŏ,,,1
12521405509,"Istro-Romanian:  Žejane",45.44056,14.19444,6520,door,,portam,,ˈuːʃɐ,,,1
12521405509,"Istro-Romanian:  Žejane",45.44056,14.19444,2130,ear,,auriculam,,uˑˈɾe̠ɜk̟ˡjɐ,,,0
12521405509,"Istro-Romanian:  Žejane",45.44056,14.19444,5520,earth,,terram,,ˈpemintʰ,,,0
12521405509,"Istro-Romanian:  Žejane",45.44056,14.19444,6530,entrance,,intratam,,hɘ̆ˈnʊˑntɾʊ̥̆,,,0
12521405509,"Istro-Romanian:  Žejane",45.44056,14.19444,7330,fast,,rapidum,,ˈnʌːɣɘ̠ɫ,,,1
12521405509,"Istro-Romanian:  Žejane",45.44056,14.19444,4320,father,,pater,,ˈtɕɔˑɪjɐ,,,1
12521405509,"Istro-Romanian:  Žejane",45.44056,14.19444,6320,flower,,florem,,ˈɹ̝ʊŏ̟ʒɜ̥̆,,,1
12521405509,"Istro-Romanian:  Žejane",45.44056,14.19444,40,four,,quattuor,,ˈpʌɐ̆tʰɾu̞,,,0
12521405509,"Istro-Romanian:  Žejane",45.44056,14.19444,3190,goat,,capram,,ˈkʰʌˑpɾɐ,,,0
12521405509,"Istro-Romanian:  Žejane",45.44056,14.19444,5610,gold,,aurum,,ˈzɫʌːto̞,,,1
12521405509,"Istro-Romanian:  Žejane",45.44056,14.19444,6310,grass,,herbam,,ˈjɑ̝ːɾbɐ,,,0
12521405509,"Istro-Romanian:  Žejane",45.44056,14.19444,7040,green,,viridem,,dze̠ˑˈlˠee̠n,,,1
12521405509,"Istro-Romanian:  Žejane",45.44056,14.19444,8480,he_believes_subj,,credat,,ˈkʰɾɛɜde̠,,,0
12521405509,"Istro-Romanian:  Žejane",45.44056,14.19444,8410,he_sleeps,,dormit,,ˈdoˑö̆ɹme̞,,,0
12521405509,"Istro-Romanian:  Žejane",45.44056,14.19444,5870,heat,,calorem,,kʰɔˑʌdʰ,,,1
12521405509,"Istro-Romanian:  Žejane",45.44056,14.19444,3820,horn,,cornu,,ˈkʰuo̟ɾnɘ̆,,,0
12521405509,"Istro-Romanian:  Žejane",45.44056,14.19444,5040,hour,,horam,,ˈuːɾɐ,,,0
12521405509,"Istro-Romanian:  Žejane",45.44056,14.19444,8510,I_see,,video,,βe̠ˈdɐˑ,,,0
12521405509,"Istro-Romanian:  Žejane",45.44056,14.19444,8650,it_lasts,,durat,,ˈduɾɜ,,,0
12521405509,"Istro-Romanian:  Žejane",45.44056,14.19444,8170,let_us_go_in,,intramus,,ˈʝiˑɾe̠m˷ɘˈnʊˑntɾʊ̆,,,1
12521405509,"Istro-Romanian:  Žejane",45.44056,14.19444,4310,mother,,mater,,ˈmɔˑɪjɐ,,,1
12521405509,"Istro-Romanian:  Žejane",45.44056,14.19444,4100,name,,nominem,,ˈɫuˑme̠lˠe̞,,,0
12521405509,"Istro-Romanian:  Žejane",45.44056,14.19444,4100,name,,nominem,,ˈʝiːmʌ,,,1
12521405509,"Istro-Romanian:  Žejane",45.44056,14.19444,6550,oven,,furnum,,kŭpˈtoˑɤ̆ɾʊ,,,1
12521405509,"Istro-Romanian:  Žejane",45.44056,14.19444,1810,part,,partem,,kʰuːs,,,1
12521405509,"Istro-Romanian:  Žejane",45.44056,14.19444,6200,raw_fem,,crudam,,ˈɾee̞snɔ̝,,,1
12521405509,"Istro-Romanian:  Žejane",45.44056,14.19444,7540,sad,,tristem,,ˈʒʌːɫɘ̆stən,,,1
12521405509,"Istro-Romanian:  Žejane",45.44056,14.19444,5240,sea,,mare,,ˈmɔˑɐɾɜ,,,0
12521405509,"Istro-Romanian:  Žejane",45.44056,14.19444,5130,star,,stellam,,ˈstɛɐɫɐ,,,0
12521405509,"Istro-Romanian:  Žejane",45.44056,14.19444,5510,stone,,petram,,ˈʔɘ̠ˑɾpʌ,,,1
12521405509,"Istro-Romanian:  Žejane",45.44056,14.19444,7320,straight,,directum,,ˈɹɑ̝ːβ̞no,,,1
12521405509,"Istro-Romanian:  Žejane",45.44056,14.19444,7610,strong,,fortem,,ˈktɔˑɐɾe̠,,,1
12521405509,"Istro-Romanian:  Žejane",45.44056,14.19444,2140,tear,,lacrimam,,ˈsuˑzɜ,,,1
12521405509,"Istro-Romanian:  Žejane",45.44056,14.19444,30,three,,tres,,t̬ɾe̠ːɪ̠,,,0
12521405509,"Istro-Romanian:  Žejane",45.44056,14.19444,8640,to_sell,,vendere,,ˈβiˑnde̠,,,0
12521405509,"Istro-Romanian:  Žejane",45.44056,14.19444,8490,let_us_hope,,speramus,,nɐ̟nɐ̟dˈdɛ̞ˑɪ̆mə̆,,,1
12521405509,"Istro-Romanian:  Žejane",45.44056,14.19444,6840,wheel,,rotam,,ˈkʰoˑɤ̆ɫɐ,,,1
12521405509,"Istro-Romanian:  Žejane",45.44056,14.19444,5080,winter,,hibernum,,ˈjɔˑɾnə,,,0
12521405509,"Istro-Romanian:  Žejane",45.44056,14.19444,3420,worm,,vermem,,ˈhjeˑɾmŏ,,,0
12521405509,"Istro-Romanian:  Žejane",45.44056,14.19444,8050,carry_you_pl,,portatis,,puɾˈtʌˑtsə̆,,,0
12521405509,"Istro-Romanian:  Žejane",45.44056,14.19444,740,your_pl_fem,,vostram,,ʌˈβwo̞ˑstɾɐ,,,0
12511212609,"Romanian: Itm: Hunedoara",45.33639,23.1525,2340,arm,,bracchium,,bɾɐːts,,,0
12511212609,"Romanian: Itm: Hunedoara",45.33639,23.1525,2250,beard,,barbam,,ˈba̠ːɾbɜ,,,0
12511212609,"Romanian: Itm: Hunedoara",45.33639,23.1525,2610,blood,,sanguinem,,ˈsə̟ːndʒɛ,,,0
12511212609,"Romanian: Itm: Hunedoara",45.33639,23.1525,7390,broad,,largum,,lˠa̠ːɾɡ˳,,,0
12511212609,"Romanian: Itm: Hunedoara",45.33639,23.1525,7000,colour,,colorem,,kŭˈɫwa̠ːɾe̞,,,0
12511212609,"Romanian: Itm: Hunedoara",45.33639,23.1525,6070,corn,,granum,,ˈɡɾɨːnɛ̝,,,0
12511212609,"Romanian: Itm: Hunedoara",45.33639,23.1525,8430,dead_fem,,mortuam,,ˈmɔ̝̆ɐˑɾt̪ɐ,,,0
12511212609,"Romanian: Itm: Hunedoara",45.33639,23.1525,3160,deer,,cervum,,tʃjɛ̝ˑɾb,,,0
12511212609,"Romanian: Itm: Hunedoara",45.33639,23.1525,6520,door,,portam,,ˈpŏ̞aˑɾt̪ɜ,,,0
12511212609,"Romanian: Itm: Hunedoara",45.33639,23.1525,2130,ear,,auriculam,,ʊˈɾe̞ːkje̞,,,0
12511212609,"Romanian: Itm: Hunedoara",45.33639,23.1525,5520,earth,,terram,,ˈtsa̠ːɾə,,,0
12511212609,"Romanian: Itm: Hunedoara",45.33639,23.1525,6530,entrance,,intratam,,iˑnˈt̪ɾaːt̪ɜ,,,0
12511212609,"Romanian: Itm: Hunedoara",45.33639,23.1525,7330,fast,,rapidum,,ɹa̝ˑˈpiːd̪̥,,,0
12511212609,"Romanian: Itm: Hunedoara",45.33639,23.1525,4320,father,,pater,,ˈt̪a̠ːt̪ə,,,0
12511212609,"Romanian: Itm: Hunedoara",45.33639,23.1525,6320,flower,,florem,,ˈfɫwɑːɾe̞,,,0
12511212609,"Romanian: Itm: Hunedoara",45.33639,23.1525,40,four,,quattuor,,ˈpɑːt̪ɾʊ,,,0
12511212609,"Romanian: Itm: Hunedoara",45.33639,23.1525,3190,goat,,capram,,ˈka̠ˑpɾɐ,,,0
12511212609,"Romanian: Itm: Hunedoara",45.33639,23.1525,5610,gold,,aurum,,ɑːʊˑɾ̥,,,0
12511212609,"Romanian: Itm: Hunedoara",45.33639,23.1525,6310,grass,,herbam,,ˈjaːɾbə,,,0
12511212609,"Romanian: Itm: Hunedoara",45.33639,23.1525,7040,green,,viridem,,ˈvɛ̝ːɾd̪e,,,0
12511212609,"Romanian: Itm: Hunedoara",45.33639,23.1525,8480,he_believes_subj,,credat,,kʰɾɪ̆ˈa̝ˑd̪ë,,,0
12511212609,"Romanian: Itm: Hunedoara",45.33639,23.1525,8410,he_sleeps,,dormit,,ˈdŏa̝ˑɾme,,,0
12511212609,"Romanian: Itm: Hunedoara",45.33639,23.1525,5870,heat,,calorem,,kɐlˠˈdʊːɾɐ,,,0
12511212609,"Romanian: Itm: Hunedoara",45.33639,23.1525,3820,horn,,cornu,,kɔːɾn̩,,,0
12511212609,"Romanian: Itm: Hunedoara",45.33639,23.1525,5040,hour,,horam,,ˈo̞ːɾɜ,,,0
12511212609,"Romanian: Itm: Hunedoara",45.33639,23.1525,8510,I_see,,video,,vəːd̪˳,,,0
12511212609,"Romanian: Itm: Hunedoara",45.33639,23.1525,8650,it_lasts,,durat,,d̪ʊˈɾja̝ːzə̟,,,0
12511212609,"Romanian: Itm: Hunedoara",45.33639,23.1525,8170,let_us_go_in,,intramus,,ĩnˈt̪ɾɜːm,,,0
12511212609,"Romanian: Itm: Hunedoara",45.33639,23.1525,4310,mother,,mater,,ˈma̠ːmə,,,0
12511212609,"Romanian: Itm: Hunedoara",45.33639,23.1525,4100,name,,nominem,,ˈnoˑmɛ̝,,,0
12511212609,"Romanian: Itm: Hunedoara",45.33639,23.1525,6550,oven,,furnum,,fʊɾˈna̠ˑlˠ,,,0
12511212609,"Romanian: Itm: Hunedoara",45.33639,23.1525,1810,part,,partem,,ˈpa̠ːɾt̪e̞,,,0
12511212609,"Romanian: Itm: Hunedoara",45.33639,23.1525,6200,raw_fem,,crudam,,ˈkɾu̞ːdɜ,,,0
12511212609,"Romanian: Itm: Hunedoara",45.33639,23.1525,7540,sad,,tristem,,t̪ɾiːst̪,,,0
12511212609,"Romanian: Itm: Hunedoara",45.33639,23.1525,5240,sea,,mare,,ˈmɑːɾe,,,0
12511212609,"Romanian: Itm: Hunedoara",45.33639,23.1525,8630,serve_ipv_pl,,servite,,seˑɾˈvi̞ːts̠,,,0
12511212609,"Romanian: Itm: Hunedoara",45.33639,23.1525,5130,star,,stellam,,stja̠ː,,,0
12511212609,"Romanian: Itm: Hunedoara",45.33639,23.1525,5510,stone,,petram,,piˈaˑt̪ɾə,,,0
12511212609,"Romanian: Itm: Hunedoara",45.33639,23.1525,7320,straight,,directum,,dɾɪˑpt,,,0
12511212609,"Romanian: Itm: Hunedoara",45.33639,23.1525,7610,strong,,fortem,,ˈfŏɐˑɾt̪e,,,0
12511212609,"Romanian: Itm: Hunedoara",45.33639,23.1525,2140,tear,,lacrimam,,ˈlˠaːkɾɪ̆mə,,,0
12511212609,"Romanian: Itm: Hunedoara",45.33639,23.1525,30,three,,tres,,t̪ɾe̞ːɪ,,,0
12511212609,"Romanian: Itm: Hunedoara",45.33639,23.1525,8640,to_sell,,vendere,,ˈviːnd̪e,,,0
12511212609,"Romanian: Itm: Hunedoara",45.33639,23.1525,8640,to_sell,,vendere,,və̆nˈza̝̠ːɾe̞,,,0
12511212609,"Romanian: Itm: Hunedoara",45.33639,23.1525,8490,let_us_hope,,speramus,,spɛ̝ˑˈɾɜːm,,,0
12511212609,"Romanian: Itm: Hunedoara",45.33639,23.1525,6840,wheel,,rotam,,ˈɾwa̠ˑt̪ə,,,0
12511212609,"Romanian: Itm: Hunedoara",45.33639,23.1525,5080,winter,,hibernum,,iˈjaːɾnə,,,0
12511212609,"Romanian: Itm: Hunedoara",45.33639,23.1525,3420,worm,,vermem,,ˈvjɛ̝ˑɾme̞,,,0
12511212609,"Romanian: Itm: Hunedoara",45.33639,23.1525,8050,carry_you_pl,,portatis,,pʰʊɾˈta̝ːts̠,,,0
12511212609,"Romanian: Itm: Hunedoara",45.33639,23.1525,740,your_pl_fem,,vostram,,ˈvwɐ̠st̪ɾə̆,,,0
12111824907,"Port.: Brazil: Natal",-5.78333,-35.2,2340,arm,,bracchium,,ˈbɾaːsʊ̆,,,0
12111824907,"Port.: Brazil: Natal",-5.78333,-35.2,2250,beard,,barbam,,ˈba̠ˑɦbɜ,,,0
12111824907,"Port.: Brazil: Natal",-5.78333,-35.2,2610,blood,,sanguinem,,ˈs̪ɐˑĩˑɡi̞,,,0
12111824907,"Port.: Brazil: Natal",-5.78333,-35.2,7390,broad,,largum,,ˈlˠa̠ːɦɡu,,,0
12111824907,"Port.: Brazil: Natal",-5.78333,-35.2,7000,colour,,colorem,,kʰoːh,,,0
12111824907,"Port.: Brazil: Natal",-5.78333,-35.2,6070,corn,,granum,,ɡɘ̆ˈɾɐ̃ːũˑ,,,0
12111824907,"Port.: Brazil: Natal",-5.78333,-35.2,8430,dead_fem,,mortuam,,ˈmɔ̞ˑhtɐ,,,0
12111824907,"Port.: Brazil: Natal",-5.78333,-35.2,3160,deer,,cervum,,ˈseːvu̟,,,0
12111824907,"Port.: Brazil: Natal",-5.78333,-35.2,6520,door,,portam,,ˈpɔːɦ˳tʰɐ,,,0
12111824907,"Port.: Brazil: Natal",-5.78333,-35.2,2130,ear,,auriculam,,oːˈɾ̠eˑĭʎ̝ɐ,,,0
12111824907,"Port.: Brazil: Natal",-5.78333,-35.2,5520,earth,,terram,,ˈtɛːɦɐ,,,0
12111824907,"Port.: Brazil: Natal",-5.78333,-35.2,6530,entrance,,intratam,,ɛ̝̃nˈtɾaːdɐ,,,0
12111824907,"Port.: Brazil: Natal",-5.78333,-35.2,7330,fast,,rapidum,,ˈɦaˑpĭdʊ,,,0
12111824907,"Port.: Brazil: Natal",-5.78333,-35.2,4320,father,,pater,,paˑɪˑ,,,0
12111824907,"Port.: Brazil: Natal",-5.78333,-35.2,6320,flower,,florem,,flˠoːh,,,0
12111824907,"Port.: Brazil: Natal",-5.78333,-35.2,40,four,,quattuor,,ˈkwa̠ːtɾʊ,,,0
12111824907,"Port.: Brazil: Natal",-5.78333,-35.2,3190,goat,,capram,,ˈkʰaːbɘ̆ɾɐ,,,0
12111824907,"Port.: Brazil: Natal",-5.78333,-35.2,5610,gold,,aurum,,ˈʔoˑuˑɾ̠u,,,0
12111824907,"Port.: Brazil: Natal",-5.78333,-35.2,6310,grass,,herbam,,ˈʔɛːɦvɐ,,,0
12111824907,"Port.: Brazil: Natal",-5.78333,-35.2,7040,green,,viridem,,ˈveːɦɘ̆dɪ,,,0
12111824907,"Port.: Brazil: Natal",-5.78333,-35.2,8480,he_believes_subj,,credat,,ˈkʰɾeˑijɐ,,,0
12111824907,"Port.: Brazil: Natal",-5.78333,-35.2,8410,he_sleeps,,dormit,,ˈdɔːɦmi,,,0
12111824907,"Port.: Brazil: Natal",-5.78333,-35.2,5870,heat,,calorem,,ka̝ˈlˠʊːh,,,0
12111824907,"Port.: Brazil: Natal",-5.78333,-35.2,3820,horn,,cornu,,ˈkoːɦnu̟,,,0
12111824907,"Port.: Brazil: Natal",-5.78333,-35.2,5040,hour,,horam,,ˈɔːɾ̠ɐ,,,0
12111824907,"Port.: Brazil: Natal",-5.78333,-35.2,8510,I_see,,video,,veːh,,,0
12111824907,"Port.: Brazil: Natal",-5.78333,-35.2,8650,it_lasts,,durat,,ˈtuːɾ̠ɐ,,,0
12111824907,"Port.: Brazil: Natal",-5.78333,-35.2,8170,let_us_go_in,,intramus,,ẽnˈtɾɛ̞̃ːmʊs,,,0
12111824907,"Port.: Brazil: Natal",-5.78333,-35.2,4310,mother,,mater,,mɐ̃ˑĩˑ,,,0
12111824907,"Port.: Brazil: Natal",-5.78333,-35.2,4100,name,,nominem,,ˈnɔ̃ːmi,,,0
12111824907,"Port.: Brazil: Natal",-5.78333,-35.2,6550,oven,,furnum,,ˈfoːɦnu̟,,,0
12111824907,"Port.: Brazil: Natal",-5.78333,-35.2,1810,part,,partem,,ˈpaˑɦ˳t̪i,,,0
12111824907,"Port.: Brazil: Natal",-5.78333,-35.2,6200,raw_fem,,crudam,,ˈkɾuːwɐ,,,0
12111824907,"Port.: Brazil: Natal",-5.78333,-35.2,7540,sad,,tristem,,ˈtɾɪ̆iˑɕt̪ʰi,,,0
12111824907,"Port.: Brazil: Natal",-5.78333,-35.2,5240,sea,,mare,,maːh,,,0
12111824907,"Port.: Brazil: Natal",-5.78333,-35.2,8630,serve_ipv_pl,,servite,,--,,,0
12111824907,"Port.: Brazil: Natal",-5.78333,-35.2,5130,star,,stellam,,˷esˈt̪ɾeˑlɐ,,,0
12111824907,"Port.: Brazil: Natal",-5.78333,-35.2,5130,star,,stellam,,eɕˈt̪ɾeːlɐ,,,0
12111824907,"Port.: Brazil: Natal",-5.78333,-35.2,5510,stone,,petram,,ˈpɛːdɾɐ,,,0
12111824907,"Port.: Brazil: Natal",-5.78333,-35.2,7320,straight,,directum,,dɪˈɾeɪtʰʷ,,,0
12111824907,"Port.: Brazil: Natal",-5.78333,-35.2,7610,strong,,fortem,,ˈfɔˑɦ˳t̪ʰĭ̥,,,0
12111824907,"Port.: Brazil: Natal",-5.78333,-35.2,2140,tear,,lacrimam,,ˈlaˑɡɾɪ̆mɐ,,,0
12111824907,"Port.: Brazil: Natal",-5.78333,-35.2,30,three,,tres,,tɾeːɪs,,,0
12111824907,"Port.: Brazil: Natal",-5.78333,-35.2,8640,to_sell,,vendere,,vẽ̞nˈdeːh,,,0
12111824907,"Port.: Brazil: Natal",-5.78333,-35.2,8490,let_us_hope,,speramus,,˷espɛˑˈɾɐ̃ːmʊs,,,0
12111824907,"Port.: Brazil: Natal",-5.78333,-35.2,6840,wheel,,rotam,,ˈɦɔːdɐ,,,0
12111824907,"Port.: Brazil: Natal",-5.78333,-35.2,5080,winter,,hibernum,,ĩ̞ˈvɛːɦnu̟,,,0
12111824907,"Port.: Brazil: Natal",-5.78333,-35.2,3420,worm,,vermem,,ˈvɛːɦmi,,,0
12111824907,"Port.: Brazil: Natal",-5.78333,-35.2,8050,carry_you_pl,,portatis,,--,,,0
12111824907,"Port.: Brazil: Natal",-5.78333,-35.2,740,your_pl_fem,,vostram,,ˈvɔːsɐ,,,0
12131915509,"Spanish: Creole: Chabacano",14.48328,120.89885,2340,arm,,bracchium,,ˈbɾaːθo,,,0
12131915509,"Spanish: Creole: Chabacano",14.48328,120.89885,2250,beard,,barbam,,ˈb̥aˑɾbaˑθ,,,0
12131915509,"Spanish: Creole: Chabacano",14.48328,120.89885,2610,blood,,sanguinem,,ˈsaˑŋɡɘ̆ɾe̠,,,0
12131915509,"Spanish: Creole: Chabacano",14.48328,120.89885,7390,broad,,largum,,ˈlaˑɾə̆ɡo̝,,,0
12131915509,"Spanish: Creole: Chabacano",14.48328,120.89885,7000,colour,,colorem,,k̠ʰöˈlɔ̞ːr,,,0
12131915509,"Spanish: Creole: Chabacano",14.48328,120.89885,6070,corn,,granum,,ɡʰəˈɾaːno,,,0
12131915509,"Spanish: Creole: Chabacano",14.48328,120.89885,8430,dead_fem,,mortuam,,ˈmwɛ̝ˑrto,,,0
12131915509,"Spanish: Creole: Chabacano",14.48328,120.89885,3160,deer,,cervum,,ˈɕɛ̝ˑɾbo̝,,,0
12131915509,"Spanish: Creole: Chabacano",14.48328,120.89885,6520,door,,portam,,ˈpʰwɛ̞ˑɾta̝,,,0
12131915509,"Spanish: Creole: Chabacano",14.48328,120.89885,2130,ear,,auriculam,,uˈɾɛˑaːθ,,,0
12131915509,"Spanish: Creole: Chabacano",14.48328,120.89885,5520,earth,,terram,,ˈtʰjɛˑrɐ,,,0
12131915509,"Spanish: Creole: Chabacano",14.48328,120.89885,6530,entrance,,intratam,,ĕ̠nˈtɾaːdɐ,,,0
12131915509,"Spanish: Creole: Chabacano",14.48328,120.89885,7330,fast,,rapidum,,ˈra̝pɪ̠dʊ̆,,,0
12131915509,"Spanish: Creole: Chabacano",14.48328,120.89885,4320,father,,pater,,ˈpaːdɾɪ̠,,,0
12131915509,"Spanish: Creole: Chabacano",14.48328,120.89885,6320,flower,,florem,,flɔːr,,,0
12131915509,"Spanish: Creole: Chabacano",14.48328,120.89885,40,four,,quattuor,,ˈkʰwatɾo,,,0
12131915509,"Spanish: Creole: Chabacano",14.48328,120.89885,3190,goat,,capram,,ˈk̠a̠ˑbɾa̝,,,0
12131915509,"Spanish: Creole: Chabacano",14.48328,120.89885,5610,gold,,aurum,,ˈɔːro̝,,,0
12131915509,"Spanish: Creole: Chabacano",14.48328,120.89885,6310,grass,,herbam,,i̤ˈjɛ̝̠ˑɾbɐ,,,0
12131915509,"Spanish: Creole: Chabacano",14.48328,120.89885,7040,green,,viridem,,ˈbɛːrdɪ,,,0
12131915509,"Spanish: Creole: Chabacano",14.48328,120.89885,8480,he_believes_subj,,credat,,kʰɾɛ̞ˑ,,,0
12131915509,"Spanish: Creole: Chabacano",14.48328,120.89885,8410,he_sleeps,,dormit,,dʊ̟rˈmɪ̃ː,,,0
12131915509,"Spanish: Creole: Chabacano",14.48328,120.89885,5870,heat,,calorem,,kʰɐˈlɔːɾ,,,0
12131915509,"Spanish: Creole: Chabacano",14.48328,120.89885,3820,horn,,cornu,,ˈkʰwɛˑrnu̞,,,0
12131915509,"Spanish: Creole: Chabacano",14.48328,120.89885,5040,hour,,horam,,ˈɔːɾɐ,,,0
12131915509,"Spanish: Creole: Chabacano",14.48328,120.89885,8510,I_see,,video,,mɪˈɾaː,,,0
12131915509,"Spanish: Creole: Chabacano",14.48328,120.89885,8650,it_lasts,,durat,,du̟ˈɾaː,,,0
12131915509,"Spanish: Creole: Chabacano",14.48328,120.89885,8170,let_us_go_in,,intramus,,ĭnˈtɾaˑnɪ̆s̪ɔ,,,0
12131915509,"Spanish: Creole: Chabacano",14.48328,120.89885,4310,mother,,mater,,ˈmaːdɾɪ̠,,,0
12131915509,"Spanish: Creole: Chabacano",14.48328,120.89885,4100,name,,nominem,,ˈnɔ̞ˑmbɾɪ,,,0
12131915509,"Spanish: Creole: Chabacano",14.48328,120.89885,6550,oven,,furnum,,ˈɔːrno̝,,,0
12131915509,"Spanish: Creole: Chabacano",14.48328,120.89885,1810,part,,partem,,ˈpaːrtɪ,,,0
12131915509,"Spanish: Creole: Chabacano",14.48328,120.89885,6200,raw_fem,,crudam,,ˈkʰɾu̞ˑdɐ,,,0
12131915509,"Spanish: Creole: Chabacano",14.48328,120.89885,7540,sad,,tristem,,ˈt̪ɾi̞ˑst̪ɪ,,,0
12131915509,"Spanish: Creole: Chabacano",14.48328,120.89885,5240,sea,,mare,,ma̠ːr,,,0
12131915509,"Spanish: Creole: Chabacano",14.48328,120.89885,8630,serve_ipv_pl,,servite,,s̪əɾˈbi̞ː,,,0
12131915509,"Spanish: Creole: Chabacano",14.48328,120.89885,5130,star,,stellam,,e̠sˈt̪ɾɛˑljɐ,,,0
12131915509,"Spanish: Creole: Chabacano",14.48328,120.89885,5510,stone,,petram,,ˈpʰjɛ̝ˑdɾɐ,,,0
12131915509,"Spanish: Creole: Chabacano",14.48328,120.89885,7320,straight,,directum,,de̞ˈɾɛ̝ːtɕo,,,0
12131915509,"Spanish: Creole: Chabacano",14.48328,120.89885,7610,strong,,fortem,,ˈfwɛ̠ˑrtɪ,,,0
12131915509,"Spanish: Creole: Chabacano",14.48328,120.89885,2140,tear,,lacrimam,,ˈlaˑɡɾɪmaθ,,,0
12131915509,"Spanish: Creole: Chabacano",14.48328,120.89885,30,three,,tres,,t̪ˈɾɛ̞ːθ,,,0
12131915509,"Spanish: Creole: Chabacano",14.48328,120.89885,8640,to_sell,,vendere,,bɪ̠̆nˈdɪː,,,0
12131915509,"Spanish: Creole: Chabacano",14.48328,120.89885,8490,let_us_hope,,speramus,,ɪ̠̆s̪pɘˈɾaˑnɪ̆s̪ɔ,,,0
12131915509,"Spanish: Creole: Chabacano",14.48328,120.89885,6840,wheel,,rotam,,r̥u̞ˈɛ̠ˑdɐ,,,0
12131915509,"Spanish: Creole: Chabacano",14.48328,120.89885,5080,winter,,hibernum,,ĭmˈbjɛ̝ˑɾə̆no,,,0
12131915509,"Spanish: Creole: Chabacano",14.48328,120.89885,3420,worm,,vermem,,..,,,0
12131915509,"Spanish: Creole: Chabacano",14.48328,120.89885,8050,carry_you_pl,,portatis,,s̪ʊ̟̆pʊ̆rˈtaː,,,0
12131915509,"Spanish: Creole: Chabacano",14.48328,120.89885,740,your_pl_fem,,vostram,,ˈvwɛ̝ˑs̪t̪ɾɐ,,,0
12131915509,"Spanish: Creole: Chabacano",14.48328,120.89885,740,your_pl_fem,,vostram,,ɡɘ̝sˈtɛ̝ːdeˑθ,,,1
