LanguageId,LanguageName,Latitude,Longitude,WordId,WordModernName1,WordModernName2,WordProtoName1,WordProtoName2,Phonetic,SpellingAltv1,SpellingAltv2,NotCognateWithMainWordInThisFamily
13821000008,"Latvian: Std",56.94889,24.10639,30,three,tri,tri,,tɾiːs,trīs,,0
13821000008,"Latvian: Std",56.94889,24.10639,40,four,chetyre,chetyre,,ˈtʃɛtɾɪ,četri,,0
13821000008,"Latvian: Std",56.94889,24.10639,7210,long,dolgij,dolgij,,ɡɐ̟ɾʃ,garš,,0
13821000008,"Latvian: Std",56.94889,24.10639,7380,wide,shirokij,shirokij,,pɫɐ̠ts,plats,,0
13821000008,"Latvian: Std",56.94889,24.10639,7410,sharp_fem,ostraya,ostraya,,ˈɑ̟sːɐ̞,asa,,0
13821000008,"Latvian: Std",56.94889,24.10639,7520,old,staryj,staryj,,væ̠tsː,vecs,,0
13821000008,"Latvian: Std",56.94889,24.10639,7650,alive,zhivoj,zhivoj,,dziːfs,dzīvs,,0
13821000008,"Latvian: Std",56.94889,24.10639,7710,good_neut,dobro_,dobro_,,ɫɑ̟ps,"labs  [all neut=masc]",,0
13821000008,"Latvian: Std",56.94889,24.10639,7740,true_neut,vernoe,vernoe,,ˈpɑ̟tɪje̞s,patiess,,0
13821000008,"Latvian: Std",56.94889,24.10639,7910,hot_fem,tyoplaya,tyoplaya,,ˈkɑ̟rstɐ̞,karsta,,0
13821000008,"Latvian: Std",56.94889,24.10639,7940,wet_neut,mokroe,mokroe,,sɫɑ̟pʃ,slapjš,,0
13821000008,"Latvian: Std",56.94889,24.10639,820,on_the_left,na_levo_,na_levo_,,pɑ̟̆ˈkɾɛɪ̆sɪ,"pa kreisi",,0
13821000008,"Latvian: Std",56.94889,24.10639,2140,tears,slyozy,slyozy,,ˈɑ̟sɛ̠ɾəs,asaras,,0
13821000008,"Latvian: Std",56.94889,24.10639,2250,beard,boroda,boroda,,ˈbɑːɾda̠,bārda,,0
13821000008,"Latvian: Std",56.94889,24.10639,2310,hands,ruki,ruki,,ˈɾu.ɔkɐs,rokas,,0
13821000008,"Latvian: Std",56.94889,24.10639,2610,blood,krov_,krov_,,ˈɑ̟sɘ̟nɘ̟s,asinis,,0
13821000008,"Latvian: Std",56.94889,24.10639,2810,heart,serdce,serdce,,sɘ̟rtʰ,sirds,,0
13821000008,"Latvian: Std",56.94889,24.10639,4330,brother,brat,brat,,ˈbɾɑ̟ːɫɘ̟s,brālis,,0
13821000008,"Latvian: Std",56.94889,24.10639,4332,brothers,brat_ya,brat_ya,,ˈbɾɑ̟ːlɪ,brāļi,,0
13821000008,"Latvian: Std",56.94889,24.10639,4100,name,imya,imya,,vɑ̟ːɾts,vārds,,0
13821000008,"Latvian: Std",56.94889,24.10639,4110,words,slova,slova,,ˈvɑ̟ːɾdɪ,vārdi,,0
13821000008,"Latvian: Std",56.94889,24.10639,3240,fish_pl,ryby,ryby,,ˈzi̽.ʊs,zivis,,0
13821000008,"Latvian: Std",56.94889,24.10639,3310,cow,korova,korova,,ɡŭɔfs,govs,,0
13821000008,"Latvian: Std",56.94889,24.10639,3820,horn,rog,rog,,ra̠ks,rags,,0
13821000008,"Latvian: Std",56.94889,24.10639,3840,wing,krylo,krylo,,spɑ̟ɾnts,spārns,,0
13821000008,"Latvian: Std",56.94889,24.10639,3850,feather,pero,pero,,ˈspɑ̟ːɫvɑ̟,spalva,,0
13821000008,"Latvian: Std",56.94889,24.10639,5220,rivers,reki,reki,,ˈupəs,upes,,0
13821000008,"Latvian: Std",56.94889,24.10639,5230,lake,ozero,ozero,,ˈɛzɛɾs,ezers,,0
13821000008,"Latvian: Std",56.94889,24.10639,5232,lakes,ozera,ozera,,ˈɛ̞zɛɾɪ̰,ezeri,,0
13821000008,"Latvian: Std",56.94889,24.10639,5240,sea,more,more,,ˈjuːɾɐ̞,jūra,,0
13821000008,"Latvian: Std",56.94889,24.10639,6230,bark,kora,kora,,ˈmi̞za̠,miza,,0
13821000008,"Latvian: Std",56.94889,24.10639,6240,root,koren_,koren_,,ˈsɑ̟knɛ,sakne,,0
13821000008,"Latvian: Std",56.94889,24.10639,6270,thorn,tyorn,tyorn,,ˈɛːɾkʃtʲi̽̆s,eerkšķis,,0
13821000008,"Latvian: Std",56.94889,24.10639,6310,grass,trava,trava,,ˈzɑ̟ːɫɛ̠,zāle,,0
13821000008,"Latvian: Std",56.94889,24.10639,5850,wind,veter,veter,,ˈvɛːĭʃ,vējš,,0
13821000008,"Latvian: Std",56.94889,24.10639,5920,thunder,grom,grom,,ˈpæ̠ɾku̞ns,pērkons,,0
13821000008,"Latvian: Std",56.94889,24.10639,6070,grain,zerno,zerno,,ˈzɘ̟rnɘ̟s,"zirnis  [pea]",,0
13821000008,"Latvian: Std",56.94889,24.10639,6840,wheel,koleso,koleso,,ˈɾɪtːɛnɪs,"ritenis, rats",,0
13821000008,"Latvian: Std",56.94889,24.10639,6860,game,igra,igra,,ˈspɛːɫɛ̠,spēle,,0
13821000008,"Latvian: Std",56.94889,24.10639,6940,citadel,gorod,gorod,,ˈpɘ̟ɫsa̠ta̠,pilsēta,,0
13821000008,"Latvian: Std",56.94889,24.10639,8000,there_is,est_,est_,,iɾ,ir,,0
13821000008,"Latvian: Std",56.94889,24.10639,8130,you_are_falling,padaesh_,padaesh_,,kɾiːtɪ,kriiti,,0
13821000008,"Latvian: Std",56.94889,24.10639,8320,we_drink,p_yom,p_yom,,ˈdzæ̠ɾɑ̟m,dzeram,,0
13821000008,"Latvian: Std",56.94889,24.10639,8430,dead_fem,mertva,mertva,,ˈmi̞ɾu̽sɪ,mirusi,,0
13821000008,"Latvian: Std",56.94889,24.10639,8480,you_believe,verish_,verish_,,ˈti̽tsɪ,tici,,0
13821000008,"Latvian: Std",56.94889,24.10639,8850,he_rubbed,tyor,tyor,,ˈbɛɾzɛːja,berzēja,,0
13821000008,"Latvian: Std",56.94889,24.10639,8890,we_are_digging,kopaem,kopaem,,ˈɾu.ɔkɐ̠m,rokam,,0
13821000008,"Latvian: Std",56.94889,24.10639,8980,it_froze,zamyorzlo,zamyorzlo,,ˈsa̠sɑ̟ɫɑ̟,sasala,,0
13821000008,"Latvian: Std",56.94889,24.10639,9100,write_ipv_sg,pishi,pishi,,ˈɾɑ̟kstɪ,raksti!,,0
13821000008,"Latvian: Std",56.94889,24.10639,710,my,moj,moj,,mɑ̟nts,mans,,0
13821000008,"Latvian: Std",56.94889,24.10639,1230,where,gde,gde,,ku̞r,kur,,0
13821000008,"Latvian: Std",56.94889,24.10639,1330,there,tam,tam,,tur,tur,,0
13821000008,"Latvian: Std",56.94889,24.10639,1410,at_sea,v_more,v_more,,ˈjuːrɑ̰ˑ,juuraa,,0
13821000008,"Latvian: Std",56.94889,24.10639,5060,summer,leto,leto,,ˈvɑ̟sɐ̟̰ɾa̠̰,vasara,,0
13821000507,"Latvian: Std (Cēsis)",57.31667,25.26667,30,three,tri,tri,,tɾiˑs,trīs,,0
13821000507,"Latvian: Std (Cēsis)",57.31667,25.26667,40,four,chetyre,chetyre,,ˈtʃɛtɾɪ,četri,,0
13821000507,"Latvian: Std (Cēsis)",57.31667,25.26667,7210,long,dolgij,dolgij,,ɡɑ̟ʂ,garš,,0
13821000507,"Latvian: Std (Cēsis)",57.31667,25.26667,7380,wide,shirokij,shirokij,,pɫɑts,plats,,0
13821000507,"Latvian: Std (Cēsis)",57.31667,25.26667,7410,sharp_fem,ostraya,ostraya,,ˈɑsːə,asa,,0
13821000507,"Latvian: Std (Cēsis)",57.31667,25.26667,7520,old,staryj,staryj,,va̠tsː,vecs,,0
13821000507,"Latvian: Std (Cēsis)",57.31667,25.26667,7650,alive,zhivoj,zhivoj,,dziːʋs,dzīvs,,0
13821000507,"Latvian: Std (Cēsis)",57.31667,25.26667,7710,good_neut,dobro_,dobro_,,ɫɑps,"labs  [all neut=masc]",,0
13821000507,"Latvian: Std (Cēsis)",57.31667,25.26667,7740,true_neut,vernoe,vernoe,,ˈpɑtɪ.əs,patiess,,0
13821000507,"Latvian: Std (Cēsis)",57.31667,25.26667,7910,hot_fem,tyoplaya,tyoplaya,,ˈkɑɾstɐ,karsta,,0
13821000507,"Latvian: Std (Cēsis)",57.31667,25.26667,7940,wet_neut,mokroe,mokroe,,,slapjš,,0
13821000507,"Latvian: Std (Cēsis)",57.31667,25.26667,820,on_the_left,na_levo_,na_levo_,,,"pa kreisi",,0
13821000507,"Latvian: Std (Cēsis)",57.31667,25.26667,2140,tears,slyozy,slyozy,,ˈɑsəɾəs,asaras,,0
13821000507,"Latvian: Std (Cēsis)",57.31667,25.26667,2250,beard,boroda,boroda,,ˈbɑɾdɐ̆,bārda,,0
13821000507,"Latvian: Std (Cēsis)",57.31667,25.26667,2310,hands,ruki,ruki,,ˈɾu.ɔkə̥s,rokas,,0
13821000507,"Latvian: Std (Cēsis)",57.31667,25.26667,2610,blood,krov_,krov_,,ˈɑ̟sɘ̟nɪs,asinis,,0
13821000507,"Latvian: Std (Cēsis)",57.31667,25.26667,2810,heart,serdce,serdce,,sɪɾts,sirds,,0
13821000507,"Latvian: Std (Cēsis)",57.31667,25.26667,4330,brother,brat,brat,,ˈbrɑɫɘ̟̆s,brālis,,0
13821000507,"Latvian: Std (Cēsis)",57.31667,25.26667,4332,brothers,brat_ya,brat_ya,,ˈbɾɑːlʲĭ,brāļi,,0
13821000507,"Latvian: Std (Cēsis)",57.31667,25.26667,4100,name,imya,imya,,vɑːɾts,vārds,,0
13821000507,"Latvian: Std (Cēsis)",57.31667,25.26667,4110,words,slova,slova,,ˈvɑːɾdɪ,vārdi,,0
13821000507,"Latvian: Std (Cēsis)",57.31667,25.26667,3240,fish_pl,ryby,ryby,,ˈzi̽vɪs,zivis,,0
13821000507,"Latvian: Std (Cēsis)",57.31667,25.26667,3310,cow,korova,korova,,ˈɡu.ʌfs,govs,,0
13821000507,"Latvian: Std (Cēsis)",57.31667,25.26667,3820,horn,rog,rog,,rɑ̟ks,rags,,0
13821000507,"Latvian: Std (Cēsis)",57.31667,25.26667,3840,wing,krylo,krylo,,spɑɾnts,spārns,,0
13821000507,"Latvian: Std (Cēsis)",57.31667,25.26667,3850,feather,pero,pero,,ˈspɑɫvɐ̠,spalva,,0
13821000507,"Latvian: Std (Cēsis)",57.31667,25.26667,5220,rivers,reki,reki,,ˈupəs,upes,,0
13821000507,"Latvian: Std (Cēsis)",57.31667,25.26667,5230,lake,ozero,ozero,,ˈæ̠zəɾts,ezers,,0
13821000507,"Latvian: Std (Cēsis)",57.31667,25.26667,5232,lakes,ozera,ozera,,ˈæzəɾɪ̆,ezeri,,0
13821000507,"Latvian: Std (Cēsis)",57.31667,25.26667,5240,sea,more,more,,ˈjuːɾɐ,jūra,,0
13821000507,"Latvian: Std (Cēsis)",57.31667,25.26667,6230,bark,kora,kora,,ˈmĩzʲɐ̟,miza,,0
13821000507,"Latvian: Std (Cēsis)",57.31667,25.26667,6240,root,koren_,koren_,,ˈsɑknɘ̟,sakne,,0
13821000507,"Latvian: Std (Cēsis)",57.31667,25.26667,6270,thorn,tyorn,tyorn,,ˈɛːɾkʃtɪs,eerkšķis,,0
13821000507,"Latvian: Std (Cēsis)",57.31667,25.26667,6310,grass,trava,trava,,zɑːɫə̆,zāle,,0
13821000507,"Latvian: Std (Cēsis)",57.31667,25.26667,5850,wind,veter,veter,,vɛeʂ,vējš,,0
13821000507,"Latvian: Std (Cēsis)",57.31667,25.26667,5920,thunder,grom,grom,,ˈpaɾkwu̟nts,pērkons,,0
13821000507,"Latvian: Std (Cēsis)",57.31667,25.26667,6070,grain,zerno,zerno,,ˈzi̽ɾnɪs,"zirnis  [pea]",,0
13821000507,"Latvian: Std (Cēsis)",57.31667,25.26667,6840,wheel,koleso,koleso,,ˈɾitəs,"ritenis, rats",,0
13821000507,"Latvian: Std (Cēsis)",57.31667,25.26667,6840,wheel,koleso,koleso,,ɾɑts,"ritenis, rats",,0
13821000507,"Latvian: Std (Cēsis)",57.31667,25.26667,6860,game,igra,igra,,ˈspɛːɫə,spēle,,0
13821000507,"Latvian: Std (Cēsis)",57.31667,25.26667,6940,citadel,gorod,gorod,,pɪɫˈsa̠t,pilsēta,,0
13821000507,"Latvian: Std (Cēsis)",57.31667,25.26667,8000,there_is,est_,est_,,iɾ,ir,,0
13821000507,"Latvian: Std (Cēsis)",57.31667,25.26667,8130,you_are_falling,padaesh_,padaesh_,,kɾiːt,kriiti,,0
13821000507,"Latvian: Std (Cēsis)",57.31667,25.26667,8320,we_drink,p_yom,p_yom,,ˈtsa̠ɾa̠m,dzeram,,0
13821000507,"Latvian: Std (Cēsis)",57.31667,25.26667,8430,dead_fem,mertva,mertva,,ˈmi̽ɾu̟sɘ̟,mirusi,,0
13821000507,"Latvian: Std (Cēsis)",57.31667,25.26667,8480,you_believe,verish_,verish_,,ˈtitsə,tici,,0
13821000507,"Latvian: Std (Cēsis)",57.31667,25.26667,8850,he_rubbed,tyor,tyor,,ˈbɛɾzɛː.ɪ,berzēja,,0
13821000507,"Latvian: Std (Cēsis)",57.31667,25.26667,8890,we_are_digging,kopaem,kopaem,,ˈɾŭokɐm,rokam,,0
13821000507,"Latvian: Std (Cēsis)",57.31667,25.26667,8980,it_froze,zamyorzlo,zamyorzlo,,ˈsɑ̟sɐɫʉ̆,sasala,,0
13821000507,"Latvian: Std (Cēsis)",57.31667,25.26667,9100,write_ipv_sg,pishi,pishi,,ˈɾɑkstɪ̥,raksti!,,0
13821000507,"Latvian: Std (Cēsis)",57.31667,25.26667,710,my,moj,moj,,mɑ̟nts,mans,,0
13821000507,"Latvian: Std (Cēsis)",57.31667,25.26667,1230,where,gde,gde,,ku̞ɾ̥,kur,,0
13821000507,"Latvian: Std (Cēsis)",57.31667,25.26667,1330,there,tam,tam,,tu̽ɾ̥,tur,,0
13821000507,"Latvian: Std (Cēsis)",57.31667,25.26667,1410,at_sea,v_more,v_more,,ˈju̽ːɾa̠,juuraa,,0
13821000507,"Latvian: Std (Cēsis)",57.31667,25.26667,5060,summer,leto,leto,,ˈvɑsəɾə̆,vasara,,0
13841000008,"Lithuanian: Std",54.68333,25.28333,30,three,tri,tri,,tɾʲǐːs,trys,,0
13841000008,"Lithuanian: Std",54.68333,25.28333,40,four,chetyre,chetyre,,kʲɛtʉˈɾʲɪ,keturi,,0
13841000008,"Lithuanian: Std",54.68333,25.28333,7210,long,dolgij,dolgij,,ˈʔɪɫɡɐs,ilgas,,0
13841000008,"Lithuanian: Std",54.68333,25.28333,7380,wide,shirokij,shirokij,,pɫɐtʊ̟s,platus,,0
13841000008,"Lithuanian: Std",54.68333,25.28333,7410,sharp_fem,ostraya,ostraya,,ɐʃˈtɾʲɪ,aštri,,0
13841000008,"Lithuanian: Std",54.68333,25.28333,7520,old,staryj,staryj,,ˈsʲa̠ːnɐs,senas,,0
13841000008,"Lithuanian: Std",54.68333,25.28333,7650,alive,zhivoj,zhivoj,,ˈɡʲiːvɐ̝s,gyvas,,0
13841000008,"Lithuanian: Std",54.68333,25.28333,7710,good_neut,dobro_,dobro_,,ɡʲæ̠ˈra̠,gera,,0
13841000008,"Lithuanian: Std",54.68333,25.28333,7710,good_neut,dobro_,dobro_,,ˈɡʲæ̠rəs,gera,,0
13841000008,"Lithuanian: Std",54.68333,25.28333,7740,true_neut,vernoe,vernoe,,ˈtʲĭĕ̠sɐ,tiesa,,0
13841000008,"Lithuanian: Std",54.68333,25.28333,7910,hot_fem,tyoplaya,tyoplaya,,kɐrʂˈta̠,karšta,,0
13841000008,"Lithuanian: Std",54.68333,25.28333,7940,wet_neut,mokroe,mokroe,,ˈʃɫɑ̟pɛ̽̆a,šlapia,,0
13841000008,"Lithuanian: Std",54.68333,25.28333,7940,wet_neut,mokroe,mokroe,,ˈʃɫɑ̟pɐs,šlapia,,0
13841000008,"Lithuanian: Std",54.68333,25.28333,820,on_the_left,na_levo_,na_levo_,,kɘ̟ɪ̆ˈɾʲeja̝,kairėj(e),,0
13841000008,"Lithuanian: Std",54.68333,25.28333,2140,tears,slyozy,slyozy,,ˈɑ̟ːʂəɾə˞s,ašaros,,0
13841000008,"Lithuanian: Std",54.68333,25.28333,2250,beard,boroda,boroda,,bɐ̝rðˈda̠,barzda,,0
13841000008,"Lithuanian: Std",54.68333,25.28333,2310,hands,ruki,ruki,,ˈrɑ̟ŋkɔs,rankos,,0
13841000008,"Lithuanian: Std",54.68333,25.28333,2610,blood,krov_,krov_,,ˈkʰrɔujɛ̞s,kraujas,,0
13841000008,"Lithuanian: Std",54.68333,25.28333,2810,heart,serdce,serdce,,ʃɘ̟ɾˈdɘ̟s,širdis,,0
13841000008,"Lithuanian: Std",54.68333,25.28333,4330,brother,brat,brat,,ˈbɾo̞ːlɘ̟s,brolis,,0
13841000008,"Lithuanian: Std",54.68333,25.28333,4332,brothers,brat_ya,brat_ya,,ˈbɾo̞ːlʲeĭ,broliai,,0
13841000008,"Lithuanian: Std",54.68333,25.28333,4100,name,imya,imya,,ˈvɑ̟rdɐ̝s,vardas,,0
13841000008,"Lithuanian: Std",54.68333,25.28333,4110,words,slova,slova,,ˈʐo̞ːdʒeĭ̞,žodžiai,,0
13841000008,"Lithuanian: Std",54.68333,25.28333,3240,fish_pl,ryby,ryby,,ʐ͡ɣʊˈvʲiˑs,žuvys,,0
13841000008,"Lithuanian: Std",54.68333,25.28333,3310,cow,korova,korova,,kɑ̟ɾve̠,karvė,,0
13841000008,"Lithuanian: Std",54.68333,25.28333,3820,horn,rog,rog,,ˈrɑ̟ːɡəs,ragas,,0
13841000008,"Lithuanian: Std",54.68333,25.28333,3840,wing,krylo,krylo,,ˈspɑ̟rnɐ̝s,sparnas,,0
13841000008,"Lithuanian: Std",54.68333,25.28333,3850,feather,pero,pero,,ˈkʰɑ̟ĭlɘ̟s,kailis,,0
13841000008,"Lithuanian: Std",54.68333,25.28333,5220,rivers,reki,reki,,u̞ˈpĭes,upės,,0
13841000008,"Lithuanian: Std",54.68333,25.28333,5230,lake,ozero,ozero,,ˈʔæːʐɜɾɜs,ežeras,,0
13841000008,"Lithuanian: Std",54.68333,25.28333,5232,lakes,ozera,ozera,,ʔɛ̽ʐɛ̠ˈɾɛĭ,ežerai,,0
13841000008,"Lithuanian: Std",54.68333,25.28333,5240,sea,more,more,,ˈʝuːɾɑ̟,jūra,,0
13841000008,"Lithuanian: Std",54.68333,25.28333,6230,bark,kora,kora,,ʒjɛ̽ˈvɪ̆e,žievė,,0
13841000008,"Lithuanian: Std",54.68333,25.28333,6240,root,koren_,koren_,,ʂɐˈknɘ̟s,šaknis,,0
13841000008,"Lithuanian: Std",54.68333,25.28333,6270,thorn,tyorn,tyorn,,spiˑˈɡlʲiːs,spyglys,,0
13841000008,"Lithuanian: Std",54.68333,25.28333,6310,grass,trava,trava,,ʐo̽ˈlʲeˑ,žolė,,0
13841000008,"Lithuanian: Std",54.68333,25.28333,5850,wind,veter,veter,,ˈvʲeːjɐ̟s,vėjas,,0
13841000008,"Lithuanian: Std",54.68333,25.28333,5920,thunder,grom,grom,,ɡɾʲɔ̟ʊ̆sˈtɪnɘ̟s,griaustinis,,0
13841000008,"Lithuanian: Std",54.68333,25.28333,6070,grain,zerno,zerno,,ˈʒɪɾnɘ̟s,žirnis,,0
13841000008,"Lithuanian: Std",54.68333,25.28333,6840,wheel,koleso,koleso,,ˈrɑ̟ːtɐs,ratas,,0
13841000008,"Lithuanian: Std",54.68333,25.28333,6860,game,igra,igra,,ˈʒɪdɘ̟mæ̠s,žaidimas,,0
13841000008,"Lithuanian: Std",54.68333,25.28333,6940,citadel,gorod,gorod,,tvɘ̟̆rˈtɔ̝ːvʲe,tvirtovė,,0
13841000008,"Lithuanian: Std",54.68333,25.28333,8000,there_is,est_,est_,,ʔiˈrɑ̟,yra,,0
13841000008,"Lithuanian: Std",54.68333,25.28333,8130,you_are_falling,padaesh_,padaesh_,,kɾɛ̽nˈtɘ̟,krenti,,0
13841000008,"Lithuanian: Std",54.68333,25.28333,8320,we_drink,p_yom,p_yom,,ˈɡʲæ̠ːɾɛmɛ,geriame,,0
13841000008,"Lithuanian: Std",54.68333,25.28333,8430,dead_fem,mertva,mertva,,ˈmɘ̟ɾʊ̟sɘ̟,mirusi,,0
13841000008,"Lithuanian: Std",54.68333,25.28333,8480,you_believe,verish_,verish_,,tʲiˈkʲe,tiki,,0
13841000008,"Lithuanian: Std",54.68333,25.28333,8850,he_rubbed,tyor,tyor,,ˈtɾʲiːɲɪ̆ɛ,trynė,,0
13841000008,"Lithuanian: Std",54.68333,25.28333,8890,we_are_digging,kopaem,kopaem,,ˈkɑ̟ːsɛ̠mɛ̠,kasame,,0
13841000008,"Lithuanian: Std",54.68333,25.28333,8980,it_froze,zamyorzlo,zamyorzlo,,a̠ˈtʃɑ̟ːɫɔ,užšalo,,0
13841000008,"Lithuanian: Std",54.68333,25.28333,9100,write_ipv_sg,pishi,pishi,,ɾɐ̟ˈɕikʰ,rašyk!,,0
13841000008,"Lithuanian: Std",54.68333,25.28333,710,my,moj,moj,,ˈmɑ̟̃nɔ,mano,,0
13841000008,"Lithuanian: Std",54.68333,25.28333,1230,where,gde,gde,,kʊr,kur,,0
13841000008,"Lithuanian: Std",54.68333,25.28333,1330,there,tam,tam,,tæ̠n,ten,,0
13841000008,"Lithuanian: Std",54.68333,25.28333,1410,at_sea,v_more,v_more,,ˈʝuɾɔjæ,jūroje,,0
13841000008,"Lithuanian: Std",54.68333,25.28333,5060,summer,leto,leto,,ˈv̞ɑ̟ːsɐ̟ɾɐ̟,vasara,,0
13841143509,"Lithuanian: Panevėžys",55.73333,24.35,30,three,tri,tri,,▶,trys,,0
13841143509,"Lithuanian: Panevėžys",55.73333,24.35,40,four,chetyre,chetyre,,▶,keturi,,0
13841143509,"Lithuanian: Panevėžys",55.73333,24.35,7210,long,dolgij,dolgij,,▶,ilgas,,0
13841143509,"Lithuanian: Panevėžys",55.73333,24.35,7380,wide,shirokij,shirokij,,▶,platus,,0
13841143509,"Lithuanian: Panevėžys",55.73333,24.35,7410,sharp_fem,ostraya,ostraya,,▶,aštri,,0
13841143509,"Lithuanian: Panevėžys",55.73333,24.35,7520,old,staryj,staryj,,▶,senas,,0
13841143509,"Lithuanian: Panevėžys",55.73333,24.35,7650,alive,zhivoj,zhivoj,,▶,gyvas,,0
13841143509,"Lithuanian: Panevėžys",55.73333,24.35,7710,good_neut,dobro_,dobro_,,▶,gera,,0
13841143509,"Lithuanian: Panevėžys",55.73333,24.35,7740,true_neut,vernoe,vernoe,,▶,tiesa,,0
13841143509,"Lithuanian: Panevėžys",55.73333,24.35,7910,hot_fem,tyoplaya,tyoplaya,,▶,karšta,,0
13841143509,"Lithuanian: Panevėžys",55.73333,24.35,7940,wet_neut,mokroe,mokroe,,▶,šlapia,,0
13841143509,"Lithuanian: Panevėžys",55.73333,24.35,820,on_the_left,na_levo_,na_levo_,,▶,kairėj(e),,0
13841143509,"Lithuanian: Panevėžys",55.73333,24.35,2140,tears,slyozy,slyozy,,▶,ašaros,,0
13841143509,"Lithuanian: Panevėžys",55.73333,24.35,2250,beard,boroda,boroda,,▶,barzda,,0
13841143509,"Lithuanian: Panevėžys",55.73333,24.35,2310,hands,ruki,ruki,,▶,rankos,,0
13841143509,"Lithuanian: Panevėžys",55.73333,24.35,2610,blood,krov_,krov_,,▶,kraujas,,0
13841143509,"Lithuanian: Panevėžys",55.73333,24.35,2810,heart,serdce,serdce,,▶,širdis,,0
13841143509,"Lithuanian: Panevėžys",55.73333,24.35,4330,brother,brat,brat,,▶,brolis,,0
13841143509,"Lithuanian: Panevėžys",55.73333,24.35,4332,brothers,brat_ya,brat_ya,,▶,broliai,,0
13841143509,"Lithuanian: Panevėžys",55.73333,24.35,4100,name,imya,imya,,▶,vardas,,0
13841143509,"Lithuanian: Panevėžys",55.73333,24.35,4110,words,slova,slova,,▶,žodžiai,,0
13841143509,"Lithuanian: Panevėžys",55.73333,24.35,3240,fish_pl,ryby,ryby,,▶,žuvys,,0
13841143509,"Lithuanian: Panevėžys",55.73333,24.35,3310,cow,korova,korova,,▶,karvė,,0
13841143509,"Lithuanian: Panevėžys",55.73333,24.35,3820,horn,rog,rog,,▶,ragas,,0
13841143509,"Lithuanian: Panevėžys",55.73333,24.35,3840,wing,krylo,krylo,,▶,sparnas,,0
13841143509,"Lithuanian: Panevėžys",55.73333,24.35,3850,feather,pero,pero,,▶,kailis,,0
13841143509,"Lithuanian: Panevėžys",55.73333,24.35,5220,rivers,reki,reki,,▶,upės,,0
13841143509,"Lithuanian: Panevėžys",55.73333,24.35,5230,lake,ozero,ozero,,,,,0
13841143509,"Lithuanian: Panevėžys",55.73333,24.35,5232,lakes,ozera,ozera,,▶,ežerai,,0
13841143509,"Lithuanian: Panevėžys",55.73333,24.35,5240,sea,more,more,,▶,jūra,,0
13841143509,"Lithuanian: Panevėžys",55.73333,24.35,6230,bark,kora,kora,,▶,žievė,,0
13841143509,"Lithuanian: Panevėžys",55.73333,24.35,6240,root,koren_,koren_,,▶,šaknis,,0
13841143509,"Lithuanian: Panevėžys",55.73333,24.35,6270,thorn,tyorn,tyorn,,▶,spyglys,,0
13841143509,"Lithuanian: Panevėžys",55.73333,24.35,6310,grass,trava,trava,,▶,žolė,,0
13841143509,"Lithuanian: Panevėžys",55.73333,24.35,5850,wind,veter,veter,,▶,vėjas,,0
13841143509,"Lithuanian: Panevėžys",55.73333,24.35,5920,thunder,grom,grom,,▶,griaustinis,,0
13841143509,"Lithuanian: Panevėžys",55.73333,24.35,6070,grain,zerno,zerno,,▶,žirnis,,0
13841143509,"Lithuanian: Panevėžys",55.73333,24.35,6840,wheel,koleso,koleso,,▶,ratas,,0
13841143509,"Lithuanian: Panevėžys",55.73333,24.35,6860,game,igra,igra,,▶,žaidimas,,0
13841143509,"Lithuanian: Panevėžys",55.73333,24.35,6940,citadel,gorod,gorod,,,tvirtovė,,0
13841143509,"Lithuanian: Panevėžys",55.73333,24.35,8000,there_is,est_,est_,,▶,yra,,0
13841143509,"Lithuanian: Panevėžys",55.73333,24.35,8130,you_are_falling,padaesh_,padaesh_,,▶,krenti,,0
13841143509,"Lithuanian: Panevėžys",55.73333,24.35,8320,we_drink,p_yom,p_yom,,▶,geriame,,0
13841143509,"Lithuanian: Panevėžys",55.73333,24.35,8430,dead_fem,mertva,mertva,,▶,mirusi,,0
13841143509,"Lithuanian: Panevėžys",55.73333,24.35,8480,you_believe,verish_,verish_,,▶,tiki,,0
13841143509,"Lithuanian: Panevėžys",55.73333,24.35,8850,he_rubbed,tyor,tyor,,▶,trynė,,0
13841143509,"Lithuanian: Panevėžys",55.73333,24.35,8890,we_are_digging,kopaem,kopaem,,▶,kasame,,0
13841143509,"Lithuanian: Panevėžys",55.73333,24.35,8980,it_froze,zamyorzlo,zamyorzlo,,▶,užšalo,,0
13841143509,"Lithuanian: Panevėžys",55.73333,24.35,9100,write_ipv_sg,pishi,pishi,,▶,rašyk!,,0
13841143509,"Lithuanian: Panevėžys",55.73333,24.35,710,my,moj,moj,,▶,mano,,0
13841143509,"Lithuanian: Panevėžys",55.73333,24.35,1230,where,gde,gde,,▶,kur,,0
13841143509,"Lithuanian: Panevėžys",55.73333,24.35,1330,there,tam,tam,,▶,ten,,0
13841143509,"Lithuanian: Panevėžys",55.73333,24.35,1410,at_sea,v_more,v_more,,▶,jūroje,,0
13841143509,"Lithuanian: Panevėžys",55.73333,24.35,5060,summer,leto,leto,,▶,vasara,,0
13111210507,"Russian: St Petersburg",59.95,30.3,30,three,tri,tri,,tɾʲi,три,,0
13111210507,"Russian: St Petersburg",59.95,30.3,40,four,chetyre,chetyre,,tʃɪ̆ˈtɨ̟ɾʲɪ,четыре,,0
13111210507,"Russian: St Petersburg",59.95,30.3,7210,long,dolgij,dolgij,,ˈdɔɫɟ̠iˑ,долгий,,0
13111210507,"Russian: St Petersburg",59.95,30.3,7380,wide,shirokij,shirokij,,ʂɘˈɾɔc̠ĭ̠j̥,широкий,,0
13111210507,"Russian: St Petersburg",59.95,30.3,7410,sharp_fem,ostraya,ostraya,,ˈɔstɾ-ɛ̠ˑ,острая,,0
13111210507,"Russian: St Petersburg",59.95,30.3,7520,old,staryj,staryj,,ˈsta̠ɾ-ɘ̟j̥,старый,,0
13111210507,"Russian: St Petersburg",59.95,30.3,7650,alive,zhivoj,zhivoj,,ʐɘˈvoj,живой,,0
13111210507,"Russian: St Petersburg",59.95,30.3,7710,good_neut,dobro_,dobro_,,də̆ˈbɾɔ̝,добро,,0
13111210507,"Russian: St Petersburg",59.95,30.3,7740,true_neut,vernoe,vernoe,,ˈvʲĭ̠ɐ̟ɾn-ɛ̠ˑ,верное,,0
13111210507,"Russian: St Petersburg",59.95,30.3,7910,hot_fem,tyoplaya,tyoplaya,,ˈtsʲɔpɫɜ̆ɛ̠,тёплая,,0
13111210507,"Russian: St Petersburg",59.95,30.3,7940,wet_neut,mokroe,mokroe,,ˈmɔkɾ-ɛ̠ˑ,мокрое,,0
13111210507,"Russian: St Petersburg",59.95,30.3,820,on_the_left,na_levo_,na_levo_,,nɐˈlʲevɐ,налевo,,0
13111210507,"Russian: St Petersburg",59.95,30.3,820,on_the_left,na_levo_,na_levo_,,ˈlʲevɐ,левo,,0
13111210507,"Russian: St Petersburg",59.95,30.3,2140,tears,slyozy,slyozy,,ˈslʲɪ̆ɔ̟zɨ̞,слёзы,,0
13111210507,"Russian: St Petersburg",59.95,30.3,2250,beard,boroda,boroda,,bʌ̆ɾəˈda̠,борода,,0
13111210507,"Russian: St Petersburg",59.95,30.3,2310,hands,ruki,ruki,,ˈɾucʰi̠,руки,,0
13111210507,"Russian: St Petersburg",59.95,30.3,2610,blood,krov_,krov_,,kɾɔfʲ,кровь,,0
13111210507,"Russian: St Petersburg",59.95,30.3,2810,heart,serdce,serdce,,ˈsʲĭ̠ɛ̠̆ɾtsɜ̟,сердце,,0
13111210507,"Russian: St Petersburg",59.95,30.3,4330,brother,brat,brat,,bɾa̠tʰ,брат,,0
13111210507,"Russian: St Petersburg",59.95,30.3,4332,brothers,brat_ya,brat_ya,,ˈbɾa̠tʲʰĭ̠ə̆,братья,,0
13111210507,"Russian: St Petersburg",59.95,30.3,4332,brothers,brat_ya,brat_ya,,ˈbɾa̠tʲç̆ĭ̠ə̆,братья,,0
13111210507,"Russian: St Petersburg",59.95,30.3,4100,name,imya,imya,,imʲæ̠,имя,,0
13111210507,"Russian: St Petersburg",59.95,30.3,4110,words,slova,slova,,sɫɐ̠ˈva̠,слова,,0
13111210507,"Russian: St Petersburg",59.95,30.3,3240,fish_pl,ryby,ryby,,ˈrɘ̟b-ɨ̞,рыбы,,0
13111210507,"Russian: St Petersburg",59.95,30.3,3310,cow,korova,korova,,kɐ̠ˈɾɔvɐ̠,корова,,0
13111210507,"Russian: St Petersburg",59.95,30.3,3820,horn,rog,rog,,rɔkʰ,рог,,0
13111210507,"Russian: St Petersburg",59.95,30.3,3840,wing,krylo,krylo,,kɾəˈɫɔ,крыло,,0
13111210507,"Russian: St Petersburg",59.95,30.3,3850,feather,pero,pero,,pʲĭ̠ə̆ˈɾɔ,перо,,0
13111210507,"Russian: St Petersburg",59.95,30.3,5220,rivers,reki,reki,,ˈɾʲi̞ci̞,реки,,0
13111210507,"Russian: St Petersburg",59.95,30.3,5230,lake,ozero,ozero,,ˈʔŏɔ̟̆zʲɛ̠̆ɾɐ,озеро,,0
13111210507,"Russian: St Petersburg",59.95,30.3,5232,lakes,ozera,ozera,,ʔɐˈzʲɪ̆ɔ̝ɾa̠,озёра,,0
13111210507,"Russian: St Petersburg",59.95,30.3,5240,sea,more,more,,ˈmɔɾʲĕɛ̆,море,,0
13111210507,"Russian: St Petersburg",59.95,30.3,6230,bark,kora,kora,,kʰa̠ˈra̠,кора,,0
13111210507,"Russian: St Petersburg",59.95,30.3,6240,root,koren_,koren_,,ˈkʰŏɔ̟ɾʲɪɲ,корень,,0
13111210507,"Russian: St Petersburg",59.95,30.3,6270,thorn,tyorn,tyorn,,tɕɔ̟rn,тёрн,,0
13111210507,"Russian: St Petersburg",59.95,30.3,6310,grass,trava,trava,,tɾɐˈva̠,трава,,0
13111210507,"Russian: St Petersburg",59.95,30.3,5850,wind,veter,veter,,ˈvʲi̽tʲər,ветер,,0
13111210507,"Russian: St Petersburg",59.95,30.3,5920,thunder,grom,grom,,ɡrɔm,гром,,0
13111210507,"Russian: St Petersburg",59.95,30.3,6070,grain,zerno,zerno,,zʲɘ̟̆ɾˈnɔ,зерно,,0
13111210507,"Russian: St Petersburg",59.95,30.3,6840,wheel,koleso,koleso,,kʰə̆lʲɪˈsɔ,колесо,,0
13111210507,"Russian: St Petersburg",59.95,30.3,6860,game,igra,igra,,iˈɡra̠,игра,,0
13111210507,"Russian: St Petersburg",59.95,30.3,6940,citadel,gorod,gorod,,ˈɡɔ̝ɾɐ̠tʰ,город,,0
13111210507,"Russian: St Petersburg",59.95,30.3,8000,there_is,est_,est_,,ʝi̠sʲtʲ,есть,,0
13111210507,"Russian: St Petersburg",59.95,30.3,8130,you_are_falling,padaesh_,padaesh_,,ˈpa̠dɘ̟ˑʂ,падаешь,,0
13111210507,"Russian: St Petersburg",59.95,30.3,8320,we_drink,p_yom,p_yom,,pʲʝɔm,пьём,,0
13111210507,"Russian: St Petersburg",59.95,30.3,8430,dead_fem,mertva,mertva,,mʲɪ̆ɾˈtva̠,мёртвая,,0
13111210507,"Russian: St Petersburg",59.95,30.3,8480,you_believe,verish_,verish_,,ˈvʲi̽ɾʲɪ̆ʂ,веришь,,0
13111210507,"Russian: St Petersburg",59.95,30.3,8850,he_rubbed,tyor,tyor,,tɕɪ̆ɔr,тёр,,0
13111210507,"Russian: St Petersburg",59.95,30.3,8890,we_are_digging,kopaem,kopaem,,kʰʌ̆ˈpa.ɛ̠m,копаем,,0
13111210507,"Russian: St Petersburg",59.95,30.3,8980,it_froze,zamyorzlo,zamyorzlo,,zɐ-ˈmʲɪ̆ɔ̟ɾzɫɐ,замёрзло,,0
13111210507,"Russian: St Petersburg",59.95,30.3,9100,write_ipv_sg,pishi,pishi,,pʲi̠ˈʂɨ,пиши,,0
13111210507,"Russian: St Petersburg",59.95,30.3,710,my,moj,moj,,mɔj,мой,,0
13111210507,"Russian: St Petersburg",59.95,30.3,1230,where,gde,gde,,ɡdʲĭ̠ɛ̠̆,где,,0
13111210507,"Russian: St Petersburg",59.95,30.3,1330,there,tam,tam,,ta̠m,там,,0
13111210507,"Russian: St Petersburg",59.95,30.3,1410,at_sea,v_more,v_more,,ˈvmɔɾʲ-ɛ,"в море",,0
13111210507,"Russian: St Petersburg",59.95,30.3,5060,summer,leto,leto,,ˈlʲĭ̠ɛ̠̆tʰɐ,лето,,0
13111270509,"Russian: Penza",53.68721,43.05719,30,three,tri,tri,,tɾʲiː,три,,0
13111270509,"Russian: Penza",53.68721,43.05719,30,three,tri,tri,,tɾʲiˑ,три,,0
13111270509,"Russian: Penza",53.68721,43.05719,40,four,chetyre,chetyre,,tʂɘ̟ˈtɨi̠ɾʲi̠,четыре,,0
13111270509,"Russian: Penza",53.68721,43.05719,40,four,chetyre,chetyre,,tʃiˈtɨ̟ɾʲɪ,четыре,,0
13111270509,"Russian: Penza",53.68721,43.05719,7210,long,dolgij,dolgij,,ˈdoɔ̝ɫɟi̽,долгий,,0
13111270509,"Russian: Penza",53.68721,43.05719,7380,wide,shirokij,shirokij,,ʂˠɵˈro̞ĭ̞ci̽,широкий,,0
13111270509,"Russian: Penza",53.68721,43.05719,7410,sharp_fem,ostraya,ostraya,,ˈɔ̝stɾ-æ̠ĕ̞ə,острая,,0
13111270509,"Russian: Penza",53.68721,43.05719,7520,old,staryj,staryj,,ˈsta̠ːɾ-ɘ̟̆ɪ̆,старый,,0
13111270509,"Russian: Penza",53.68721,43.05719,7650,alive,zhivoj,zhivoj,,ʐˠɵ̜ˈvɔ̝ːj,живой,,0
13111270509,"Russian: Penza",53.68721,43.05719,7710,good_neut,dobro_,dobro_,,daˈbroˑɒ̜̆,добро,,0
13111270509,"Russian: Penza",53.68721,43.05719,7740,true_neut,vernoe,vernoe,,vʲɪɜ̟rn-ɞ̜̆ɪ̆ɛ̠,верное,,0
13111270509,"Russian: Penza",53.68721,43.05719,7910,hot_fem,tyoplaya,tyoplaya,,ˈtɕoɔ̝pɫɐ,тёплая,,0
13111270509,"Russian: Penza",53.68721,43.05719,7940,wet_neut,mokroe,mokroe,,ˈmŭ̞ɔkɾ-ɐ̆ɪ̆ɛ̠,мокрое,,0
13111270509,"Russian: Penza",53.68721,43.05719,820,on_the_left,na_levo_,na_levo_,,nɐˈlʲɪvɑ̟,"налевo / слева",,0
13111270509,"Russian: Penza",53.68721,43.05719,820,on_the_left,na_levo_,na_levo_,,ˈlʲɪvɑ̟,"налевo / слева",,0
13111270509,"Russian: Penza",53.68721,43.05719,2140,tears,slyozy,slyozy,,ˈslʲoɔzɘ,слёзы,,0
13111270509,"Russian: Penza",53.68721,43.05719,2250,beard,boroda,boroda,,bɞ̜̆ɾɐdɑ̟ː,борода,,0
13111270509,"Russian: Penza",53.68721,43.05719,2310,hands,ruki,ruki,,ˈruːci,руки,,0
13111270509,"Russian: Penza",53.68721,43.05719,2610,blood,krov_,krov_,,kroɔ̟fʲ,кровь,,0
13111270509,"Russian: Penza",53.68721,43.05719,2810,heart,serdce,serdce,,ˈsʲiɜɾtsɘ̟,сердце,,0
13111270509,"Russian: Penza",53.68721,43.05719,4330,brother,brat,brat,,bra̠ːt,брат,,0
13111270509,"Russian: Penza",53.68721,43.05719,4332,brothers,brat_ya,brat_ya,,ˈbra̠ːtʲĭɐ̟̆,братья,,0
13111270509,"Russian: Penza",53.68721,43.05719,4100,name,imya,imya,,ˈiːmʲɪ̆æ̠̆,имя,,0
13111270509,"Russian: Penza",53.68721,43.05719,4110,words,slova,slova,,sɫɑ̟ˈvɑ̟,слова,,0
13111270509,"Russian: Penza",53.68721,43.05719,3240,fish_pl,ryby,ryby,,ˈrɨi̠b-ɘ,рыбы,,0
13111270509,"Russian: Penza",53.68721,43.05719,3310,cow,korova,korova,,kaˈro̝ɔʋɐ̠,корова,,0
13111270509,"Russian: Penza",53.68721,43.05719,3820,horn,rog,rog,,roɔ̝k,рог,,0
13111270509,"Russian: Penza",53.68721,43.05719,3840,wing,krylo,krylo,,kɾɵˈɫo̞ˑɐ̠̆,крыло,,0
13111270509,"Russian: Penza",53.68721,43.05719,3850,feather,pero,pero,,pʲɪ̆ɜ̟̆ro̞ɒ̟̆,перо,,0
13111270509,"Russian: Penza",53.68721,43.05719,5220,rivers,reki,reki,,ˈrʲe̝eci,реки,,0
13111270509,"Russian: Penza",53.68721,43.05719,5230,lake,ozero,ozero,,,озеро,,0
13111270509,"Russian: Penza",53.68721,43.05719,5232,lakes,ozera,ozera,,aˈzʲŏ̝ɔ̆ɾɐ̠,озёра,,0
13111270509,"Russian: Penza",53.68721,43.05719,5240,sea,more,more,,ˈmŏ̃ɔ̟̆ɾʲĭɛ̆,море,,0
13111270509,"Russian: Penza",53.68721,43.05719,6230,bark,kora,kora,,kɐˈra̠ˑ,кора,,0
13111270509,"Russian: Penza",53.68721,43.05719,6240,root,koren_,koren_,,ˈkoɔɾʲi̞ɲ,корень,,0
13111270509,"Russian: Penza",53.68721,43.05719,6270,thorn,tyorn,tyorn,,tʲŏɔ̆rn,тёрн,,0
13111270509,"Russian: Penza",53.68721,43.05719,6310,grass,trava,trava,,traˈva̠ˑ,трава,,0
13111270509,"Russian: Penza",53.68721,43.05719,5850,wind,veter,veter,,ˈvʲi̽etsʲi̽̆ə̆ɾ,ветер,,0
13111270509,"Russian: Penza",53.68721,43.05719,5920,thunder,grom,grom,,ɡrɔm,гром,,0
13111270509,"Russian: Penza",53.68721,43.05719,6070,grain,zerno,zerno,,zʲɐɾˈno̞ɐ̠̆,зерно,,0
13111270509,"Russian: Penza",53.68721,43.05719,6840,wheel,koleso,koleso,,kɘ̟̆lʲæˈsɔ̝ɐ̠̆,колесо,,0
13111270509,"Russian: Penza",53.68721,43.05719,6860,game,igra,igra,,iˈɡra̠ː,игра,,0
13111270509,"Russian: Penza",53.68721,43.05719,6940,citadel,gorod,gorod,,ˈɡoɔɾɘ̟t,город,,0
13111270509,"Russian: Penza",53.68721,43.05719,8000,there_is,est_,est_,,ʝe̝e̞sʲtsʲ,есть,,0
13111270509,"Russian: Penza",53.68721,43.05719,8130,you_are_falling,padaesh_,padaesh_,,ˈpɒadɘ̟̆ĭɪ̆ʂˠ,падаешь,,0
13111270509,"Russian: Penza",53.68721,43.05719,8320,we_drink,p_yom,p_yom,,pʲʝɔ̝ˑm,пьём,,0
13111270509,"Russian: Penza",53.68721,43.05719,8430,dead_fem,mertva,mertva,,mʲɪ̆ɜ̆rˈtva̠,мёртвая,,0
13111270509,"Russian: Penza",53.68721,43.05719,8480,you_believe,verish_,verish_,,ˈvʲi̽eɾʲɪʂˠ,веришь,,0
13111270509,"Russian: Penza",53.68721,43.05719,8850,he_rubbed,tyor,tyor,,tʲi̽̆ŏ̞ɔ̆r,тёр,,0
13111270509,"Russian: Penza",53.68721,43.05719,8890,we_are_digging,kopaem,kopaem,,kaˈpɑ̽.ɪm,копаем,,0
13111270509,"Russian: Penza",53.68721,43.05719,8980,it_froze,zamyorzlo,zamyorzlo,,za-ˈmʲɪ̆ɔɾzɫɐ̠,замёрзло,,0
13111270509,"Russian: Penza",53.68721,43.05719,9100,write_ipv_sg,pishi,pishi,,pʲi̽ˈʂˠɨi̠,пиши,,0
13111270509,"Russian: Penza",53.68721,43.05719,710,my,moj,moj,,mŭŏ̞j,мой,,0
13111270509,"Russian: Penza",53.68721,43.05719,1230,where,gde,gde,,ɡdʲiɜ̟,где,,0
13111270509,"Russian: Penza",53.68721,43.05719,1330,there,tam,tam,,tɑ̟ˑm,там,,0
13111270509,"Russian: Penza",53.68721,43.05719,1410,at_sea,v_more,v_more,,ˈvmɔ̟ɾʲ-ɪ̆ɜ̟̆,"в море",,0
13111270509,"Russian: Penza",53.68721,43.05719,5060,summer,leto,leto,,ˈlʲiɛ̠tə,лето,,0
13181000008,"Belarusian: Std",52.47504,24.51535,7710,good_neut,dobro_,dobro_,,,,,0
13121210557,"Ukrainian: NW",50.33333,26.51667,30,three,tri,tri,,tɾĕ̟ɪ̆,три,,0
13121210557,"Ukrainian: NW",50.33333,26.51667,40,four,chetyre,chetyre,,tʃɵ̞tɨ̟ˑɾɪ,чотири,,0
13121210557,"Ukrainian: NW",50.33333,26.51667,7210,long,dolgij,dolgij,,ˈdɔ̝ɫ̞ɦɪ̆ĭ,довгий,,0
13121210557,"Ukrainian: NW",50.33333,26.51667,7380,wide,shirokij,shirokij,,ʂɘˈɾɔ̝kʲĭ,широкий,,0
13121210557,"Ukrainian: NW",50.33333,26.51667,7410,sharp_fem,ostraya,ostraya,,ˈɦɔ̝stɾ-ɐ,гостра,,0
13121210557,"Ukrainian: NW",50.33333,26.51667,7520,old,staryj,staryj,,staˈɾ-ɨ̆ĭj̥,старий,,0
13121210557,"Ukrainian: NW",50.33333,26.51667,7650,alive,zhivoj,zhivoj,,ʐɘ̟ˈvɨ̆ĭ̠,живий,,0
13121210557,"Ukrainian: NW",50.33333,26.51667,7710,good_neut,dobro_,dobro_,,dɔ̽ˈbɾɔ̝,добре,,0
13121210557,"Ukrainian: NW",50.33333,26.51667,7740,true_neut,vernoe,vernoe,,ˈv̞ʲi̠ɜ̟̆rn-ɛ,вірне,,0
13121210557,"Ukrainian: NW",50.33333,26.51667,7910,hot_fem,tyoplaya,tyoplaya,,ˈtɛ̝pɫɑ̟,тепла,,0
13121210557,"Ukrainian: NW",50.33333,26.51667,7940,wet_neut,mokroe,mokroe,,ˈmɔ̝kʰɾ-ɛ,мокре,,0
13121210557,"Ukrainian: NW",50.33333,26.51667,820,on_the_left,na_levo_,na_levo_,,ˈlʲevo̞,"наліво / зліва",,0
13121210557,"Ukrainian: NW",50.33333,26.51667,820,on_the_left,na_levo_,na_levo_,,naˈlʲevo̞,"наліво / зліва",,0
13121210557,"Ukrainian: NW",50.33333,26.51667,2140,tears,slyozy,slyozy,,ˈsʲlʲɔ̟z̥ɘ̟,сльози,,0
13121210557,"Ukrainian: NW",50.33333,26.51667,2250,beard,boroda,boroda,,bɔɾɔ̟ˈda̠,борода,,0
13121210557,"Ukrainian: NW",50.33333,26.51667,2310,hands,ruki,ruki,,ˈɾu̞kʰɘ̟,руки,,0
13121210557,"Ukrainian: NW",50.33333,26.51667,2610,blood,krov_,krov_,,kʰɾɔ̝f,кров,,0
13121210557,"Ukrainian: NW",50.33333,26.51667,2810,heart,serdce,serdce,,ˈsɛ̠ɾtsə̟,серце,,0
13121210557,"Ukrainian: NW",50.33333,26.51667,4330,brother,brat,brat,,bɾɑ̟t,брат,,0
13121210557,"Ukrainian: NW",50.33333,26.51667,4332,brothers,brat_ya,brat_ya,,,брати,,0
13121210557,"Ukrainian: NW",50.33333,26.51667,4100,name,imya,imya,,ˈi̞mʝ̞ĭæ̆,ім’я,,0
13121210557,"Ukrainian: NW",50.33333,26.51667,4110,words,slova,slova,,sɫɔˈv̞ɑ,слова,,0
13121210557,"Ukrainian: NW",50.33333,26.51667,3240,fish_pl,ryby,ryby,,ˈɾɘ̟b-ɪ̠,риби,,0
13121210557,"Ukrainian: NW",50.33333,26.51667,3310,cow,korova,korova,,kʰɔˈɾɔ̝ˑβ̞ɐ,корова,,0
13121210557,"Ukrainian: NW",50.33333,26.51667,3820,horn,rog,rog,,ɾʲix,ріг,,0
13121210557,"Ukrainian: NW",50.33333,26.51667,3840,wing,krylo,krylo,,kʰɾɘ̟ˈɫɔˑ,крило,,0
13121210557,"Ukrainian: NW",50.33333,26.51667,3850,feather,pero,pero,,pɜˈɾɔ̝ˑ,перо,,0
13121210557,"Ukrainian: NW",50.33333,26.51667,5220,rivers,reki,reki,,ˈɾʲikʰɪ,ріки,,0
13121210557,"Ukrainian: NW",50.33333,26.51667,5230,lake,ozero,ozero,,ˈɔ̝zɜ̟ɾɔ̟,озеро,,0
13121210557,"Ukrainian: NW",50.33333,26.51667,5232,lakes,ozera,ozera,,ɔ̟ˈzɛ̠ˑɾɐ,озера,,0
13121210557,"Ukrainian: NW",50.33333,26.51667,5240,sea,more,more,,ˈmŭ̞ɔ̟̆ɾɜ̟,море,,0
13121210557,"Ukrainian: NW",50.33333,26.51667,6230,bark,kora,kora,,kɔ̝ˈɾa̠,кора,,0
13121210557,"Ukrainian: NW",50.33333,26.51667,6240,root,koren_,koren_,,ˈkɔ̝ɾʲinʲ,корінь,,0
13121210557,"Ukrainian: NW",50.33333,26.51667,6270,thorn,tyorn,tyorn,,ˈtɛ̝ˑɾɛn,терен,,0
13121210557,"Ukrainian: NW",50.33333,26.51667,6310,grass,trava,trava,,trɑ̟ˈvɑ,трава,,0
13121210557,"Ukrainian: NW",50.33333,26.51667,5850,wind,veter,veter,,ˈvʲitɛɾ,вітер,,0
13121210557,"Ukrainian: NW",50.33333,26.51667,5920,thunder,grom,grom,,ɦɾʲi̞m,грім,,0
13121210557,"Ukrainian: NW",50.33333,26.51667,6070,grain,zerno,zerno,,zɛ̽ɾˈnɔ,зерно,,0
13121210557,"Ukrainian: NW",50.33333,26.51667,6840,wheel,koleso,koleso,,kɔ̝ˈɫɛ̠sɔ̟,коло,,0
13121210557,"Ukrainian: NW",50.33333,26.51667,6860,game,igra,igra,,ɦɾɑ̟,гра,,0
13121210557,"Ukrainian: NW",50.33333,26.51667,6940,citadel,gorod,gorod,,ɦɔˈɾɔ̝tʰ,город,,0
13121210557,"Ukrainian: NW",50.33333,26.51667,8000,there_is,est_,est_,,ʝɛ̝,є,,0
13121210557,"Ukrainian: NW",50.33333,26.51667,8130,you_are_falling,padaesh_,padaesh_,,ˈpɑdɛjiʂ,падаєш,,0
13121210557,"Ukrainian: NW",50.33333,26.51667,8320,we_drink,p_yom,p_yom,,pɪ̆ˈʝĭɛ̆m,п’єм,,0
13121210557,"Ukrainian: NW",50.33333,26.51667,8430,dead_fem,mertva,mertva,,ˈmɜ̟ɾtvɑ̟,мертва,,0
13121210557,"Ukrainian: NW",50.33333,26.51667,8480,you_believe,verish_,verish_,,ˈv̞ʲiɪ̆ɾ̞ɘ̟ʂ,віриш,,0
13121210557,"Ukrainian: NW",50.33333,26.51667,8850,he_rubbed,tyor,tyor,,tɛɾ,тер,,0
13121210557,"Ukrainian: NW",50.33333,26.51667,8890,we_are_digging,kopaem,kopaem,,kʰɔ̝̆ˈpɑjɛ̝̆mɔ,копаємо,,0
13121210557,"Ukrainian: NW",50.33333,26.51667,8980,it_froze,zamyorzlo,zamyorzlo,,zɐ-ˈmɜ̟ɾzɫɔ̟,замерзло,,0
13121210557,"Ukrainian: NW",50.33333,26.51667,9100,write_ipv_sg,pishi,pishi,,pɘ̟ˈʂɨ̆ĭ̠,пиши,,0
13121210557,"Ukrainian: NW",50.33333,26.51667,710,my,moj,moj,,mʲiç,мій,,0
13121210557,"Ukrainian: NW",50.33333,26.51667,1230,where,gde,gde,,dɛ̝,де,,0
13121210557,"Ukrainian: NW",50.33333,26.51667,1330,there,tam,tam,,tɑm,там,,0
13121210557,"Ukrainian: NW",50.33333,26.51667,1410,at_sea,v_more,v_more,,ˈβ̞mɔ̝ɾ-ɛ̠,"в, у морі",,0
13121210557,"Ukrainian: NW",50.33333,26.51667,5060,summer,leto,leto,,ˈlʲitɔ̟,літо,,0
13131680509,"Rusyn: Maramureş",47.99492,23.53511,30,three,tri,tri,,tɾɘ̟,,,0
13131680509,"Rusyn: Maramureş",47.99492,23.53511,40,four,chetyre,chetyre,,tʂəˈtɛ̽ɾɘ̟,,,0
13131680509,"Rusyn: Maramureş",47.99492,23.53511,7210,long,dolgij,dolgij,,ˈdɔ̝wɦi̠,,,0
13131680509,"Rusyn: Maramureş",47.99492,23.53511,7380,wide,shirokij,shirokij,,ʂɘ̟ˈɾɔk̟ʰi̠,,,0
13131680509,"Rusyn: Maramureş",47.99492,23.53511,7410,sharp_fem,ostraya,ostraya,,ˈɔstɾ-a̠,,,0
13131680509,"Rusyn: Maramureş",47.99492,23.53511,7520,old,staryj,staryj,,stɔ̟ˈɾ-ɘ̟̆ĭ̠,,,0
13131680509,"Rusyn: Maramureş",47.99492,23.53511,7650,alive,zhivoj,zhivoj,,ʐɘˈvɘ̟̆ĭ̠,,,0
13131680509,"Rusyn: Maramureş",47.99492,23.53511,7710,good_neut,dobro_,dobro_,,ˈdɔbr-ɘ̟,,,0
13131680509,"Rusyn: Maramureş",47.99492,23.53511,7740,true_neut,vernoe,vernoe,,ˈviɾnɔ,,,0
13131680509,"Rusyn: Maramureş",47.99492,23.53511,7910,hot_fem,tyoplaya,tyoplaya,,ˈtɛ̠pla̠,,,0
13131680509,"Rusyn: Maramureş",47.99492,23.53511,7940,wet_neut,mokroe,mokroe,,mɔˈkrɔ,,,0
13131680509,"Rusyn: Maramureş",47.99492,23.53511,820,on_the_left,na_levo_,na_levo_,,ˈlʲeˑvɔ,,,0
13131680509,"Rusyn: Maramureş",47.99492,23.53511,820,on_the_left,na_levo_,na_levo_,,ˈnalʲəˑvɔ,,,0
13131680509,"Rusyn: Maramureş",47.99492,23.53511,2140,tears,slyozy,slyozy,,slɘ̟ˈzɛ̽,,,0
13131680509,"Rusyn: Maramureş",47.99492,23.53511,2250,beard,boroda,boroda,,bɔɾɔˈdɑ̟,,,0
13131680509,"Rusyn: Maramureş",47.99492,23.53511,2310,hands,ruki,ruki,,ˈɾukɘ̟,,,0
13131680509,"Rusyn: Maramureş",47.99492,23.53511,2610,blood,krov_,krov_,,krə̟ˈvɑ̟,,,0
13131680509,"Rusyn: Maramureş",47.99492,23.53511,2810,heart,serdce,serdce,,ˈsɐ̟ɾtsɘ̟,,,0
13131680509,"Rusyn: Maramureş",47.99492,23.53511,4330,brother,brat,brat,,bɾɑ̟tʰ,,,0
13131680509,"Rusyn: Maramureş",47.99492,23.53511,4332,brothers,brat_ya,brat_ya,,ˈbɾɑ̟tʲĭa̠,,,0
13131680509,"Rusyn: Maramureş",47.99492,23.53511,4100,name,imya,imya,,i̠mˈɲĭa̠,,,0
13131680509,"Rusyn: Maramureş",47.99492,23.53511,4110,words,slova,slova,,slɔˈvɑ̟,,,0
13131680509,"Rusyn: Maramureş",47.99492,23.53511,3240,fish_pl,ryby,ryby,,ˈɾɘ̟b-ɑ̟,,,0
13131680509,"Rusyn: Maramureş",47.99492,23.53511,3310,cow,korova,korova,,kʰɔ̟ˈɾɔv̞ɑ̟,,,0
13131680509,"Rusyn: Maramureş",47.99492,23.53511,3820,horn,rog,rog,,ɾux,,,0
13131680509,"Rusyn: Maramureş",47.99492,23.53511,3840,wing,krylo,krylo,,kɾɘ̟ˈlɔ,,,0
13131680509,"Rusyn: Maramureş",47.99492,23.53511,3850,feather,pero,pero,,pɛ̝ˈɾɔ,,,0
13131680509,"Rusyn: Maramureş",47.99492,23.53511,5220,rivers,reki,reki,,ɾi̠ˈkʰɑ̟,,,0
13131680509,"Rusyn: Maramureş",47.99492,23.53511,5230,lake,ozero,ozero,,ˈɔzəɾ̞ɔ̽,,,0
13131680509,"Rusyn: Maramureş",47.99492,23.53511,5232,lakes,ozera,ozera,,ˈɔzəɾɑ̟,,,0
13131680509,"Rusyn: Maramureş",47.99492,23.53511,5240,sea,more,more,,ˈmɔɾɘ̟,,,0
13131680509,"Rusyn: Maramureş",47.99492,23.53511,6230,bark,kora,kora,,kʰɔˈɾɑ̟,,,0
13131680509,"Rusyn: Maramureş",47.99492,23.53511,6240,root,koren_,koren_,,ˈkʰɔɾɨ̞ɲ,,,0
13131680509,"Rusyn: Maramureş",47.99492,23.53511,6270,thorn,tyorn,tyorn,,,,,0
13131680509,"Rusyn: Maramureş",47.99492,23.53511,6310,grass,trava,trava,,tɾɑ̟ˈvɑ̟,,,0
13131680509,"Rusyn: Maramureş",47.99492,23.53511,5850,wind,veter,veter,,ˈvʲi̠tɛ̠ɾ,,,0
13131680509,"Rusyn: Maramureş",47.99492,23.53511,5920,thunder,grom,grom,,ɣɾum,,,0
13131680509,"Rusyn: Maramureş",47.99492,23.53511,6070,grain,zerno,zerno,,ˈzø̠̜ɾnɔ,,,0
13131680509,"Rusyn: Maramureş",47.99492,23.53511,6840,wheel,koleso,koleso,,ˈkʰɔləsɔ,,,0
13131680509,"Rusyn: Maramureş",47.99492,23.53511,6860,game,igra,igra,,ˈi̠ɦɾa̠ŋka̠,,,0
13131680509,"Rusyn: Maramureş",47.99492,23.53511,6940,citadel,gorod,gorod,,ˈɦɔɾɔ̟d̬̥ʰ,,,0
13131680509,"Rusyn: Maramureş",47.99492,23.53511,8000,there_is,est_,est_,,ʝ̞æ̠,,,0
13131680509,"Rusyn: Maramureş",47.99492,23.53511,8130,you_are_falling,padaesh_,padaesh_,,pɑ̟ˈdaʂ,,,0
13131680509,"Rusyn: Maramureş",47.99492,23.53511,8320,we_drink,p_yom,p_yom,,pʰʲjɛˈmɛ̞,,,0
13131680509,"Rusyn: Maramureş",47.99492,23.53511,8430,dead_fem,mertva,mertva,,ˈmæ̠ɾtvɑ̟,,,0
13131680509,"Rusyn: Maramureş",47.99492,23.53511,8480,you_believe,verish_,verish_,,ˈvʲiɾɘ̟ʂ,,,0
13131680509,"Rusyn: Maramureş",47.99492,23.53511,8850,he_rubbed,tyor,tyor,,tɛ̠ɾ,,,0
13131680509,"Rusyn: Maramureş",47.99492,23.53511,8890,we_are_digging,kopaem,kopaem,,kʰɔ̝ˈpɒ̟̜mɘ̟,,,0
13131680509,"Rusyn: Maramureş",47.99492,23.53511,8980,it_froze,zamyorzlo,zamyorzlo,,za̠-ˈmæ̠ɾzlɔ,,,0
13131680509,"Rusyn: Maramureş",47.99492,23.53511,9100,write_ipv_sg,pishi,pishi,,pɘ̟ˈʂɘ̟,,,0
13131680509,"Rusyn: Maramureş",47.99492,23.53511,710,my,moj,moj,,mo̝j,,,0
13131680509,"Rusyn: Maramureş",47.99492,23.53511,1230,where,gde,gde,,dɐ̟,,,0
13131680509,"Rusyn: Maramureş",47.99492,23.53511,1330,there,tam,tam,,tɑ̟m,,,0
13131680509,"Rusyn: Maramureş",47.99492,23.53511,1410,at_sea,v_more,v_more,,u,,,0
13131680509,"Rusyn: Maramureş",47.99492,23.53511,5060,summer,leto,leto,,ˈlʲitɔ,,,0
13211000507,"Polish: Std",51.78333,19.46667,30,three,tri,tri,,t.ʂɘ̟,trzy,,0
13211000507,"Polish: Std",51.78333,19.46667,40,four,chetyre,chetyre,,ˈtʂtɛɾɘ̟,cztery,,0
13211000507,"Polish: Std",51.78333,19.46667,7210,long,dolgij,dolgij,,ˈdwuɡ̥ʲi,długi,,0
13211000507,"Polish: Std",51.78333,19.46667,7380,wide,shirokij,shirokij,,ʂɛˈɾɔ̞̟kʰʲi,szeroki,,0
13211000507,"Polish: Std",51.78333,19.46667,7410,sharp_fem,ostraya,ostraya,,ˈʌstɾ-a̠,ostra,,0
13211000507,"Polish: Std",51.78333,19.46667,7520,old,staryj,staryj,,ˈstaɾ-ɘ̟,stary,,0
13211000507,"Polish: Std",51.78333,19.46667,7650,alive,zhivoj,zhivoj,,ˈʐɘ̟vɘ̟,żywy,,0
13211000507,"Polish: Std",51.78333,19.46667,7710,good_neut,dobro_,dobro_,,ˈdɔ̞̜bɾ-ɛ,dobre,,0
13211000507,"Polish: Std",51.78333,19.46667,7740,true_neut,vernoe,vernoe,,ˈvʲjɛɾn-ɛ,wierne,,0
13211000507,"Polish: Std",51.78333,19.46667,7910,hot_fem,tyoplaya,tyoplaya,,ˈtɕɛ̝pwɑ̟,ciepła,,0
13211000507,"Polish: Std",51.78333,19.46667,7940,wet_neut,mokroe,mokroe,,ˈmʌkʰɾ-ɛ,mokre,,0
13211000507,"Polish: Std",51.78333,19.46667,820,on_the_left,na_levo_,na_levo_,,,"na lewo / z lewa",,0
13211000507,"Polish: Std",51.78333,19.46667,2140,tears,slyozy,slyozy,,wzɘ̟,łzy,,0
13211000507,"Polish: Std",51.78333,19.46667,2250,beard,boroda,boroda,,ˈbɾɔ̜da,broda,,0
13211000507,"Polish: Std",51.78333,19.46667,2310,hands,ruki,ruki,,ˈɾɛ̞̆ɛ̞̃̆ntsɛ̠,ręce,,0
13211000507,"Polish: Std",51.78333,19.46667,2610,blood,krov_,krov_,,kʰɾɛf,krew,,0
13211000507,"Polish: Std",51.78333,19.46667,2810,heart,serdce,serdce,,ˈsɛ̞ɾtsɛ,serce,,0
13211000507,"Polish: Std",51.78333,19.46667,4330,brother,brat,brat,,bɾatʰ,brat,,0
13211000507,"Polish: Std",51.78333,19.46667,4332,brothers,brat_ya,brat_ya,,ˈbɾatɕa,bracia,,0
13211000507,"Polish: Std",51.78333,19.46667,4100,name,imya,imya,,ˈimʲjɛɰ̃,imię,,0
13211000507,"Polish: Std",51.78333,19.46667,4110,words,slova,slova,,ˈswɔva̠,słowa,,0
13211000507,"Polish: Std",51.78333,19.46667,3240,fish_pl,ryby,ryby,,ˈrɘ̟b-ɘ̟,ryby,,0
13211000507,"Polish: Std",51.78333,19.46667,3310,cow,korova,korova,,ˈkɾɔ̞̜vɑ̟,krowa,,0
13211000507,"Polish: Std",51.78333,19.46667,3820,horn,rog,rog,,ru̞kʰ,róg,,0
13211000507,"Polish: Std",51.78333,19.46667,3840,wing,krylo,krylo,,ˈs-kʂɘ̟dwɔ̞̜,skrzydło,,0
13211000507,"Polish: Std",51.78333,19.46667,3850,feather,pero,pero,,ˈpʰʲʊ̠ɾʌ,pióro,,0
13211000507,"Polish: Std",51.78333,19.46667,5220,rivers,reki,reki,,ˈʐɛ̠kʲi,rzeki,,0
13211000507,"Polish: Std",51.78333,19.46667,5230,lake,ozero,ozero,,ji̞ˈʑʌ̟ɾɔ̜,jezioro,,0
13211000507,"Polish: Std",51.78333,19.46667,5232,lakes,ozera,ozera,,ji̞ˈʑʌ̟ɾa̠,jeziora,,0
13211000507,"Polish: Std",51.78333,19.46667,5240,sea,more,more,,ˈmɔ̜ʐɜ̟,morze,,0
13211000507,"Polish: Std",51.78333,19.46667,6230,bark,kora,kora,,ˈkʰɔ̜ɾa,kora,,0
13211000507,"Polish: Std",51.78333,19.46667,6240,root,koren_,koren_,,ˈkʰɔ̜ʐəɲ,korzeń,,0
13211000507,"Polish: Std",51.78333,19.46667,6270,thorn,tyorn,tyorn,,tɕɛɾɲ,cierń,,0
13211000507,"Polish: Std",51.78333,19.46667,6310,grass,trava,trava,,ˈtɾa̠va̠,trawa,,0
13211000507,"Polish: Std",51.78333,19.46667,5850,wind,veter,veter,,vʲjatɾ̥,wiatr,,0
13211000507,"Polish: Std",51.78333,19.46667,5920,thunder,grom,grom,,ɡʐmʌ̞tʰ,grom,,0
13211000507,"Polish: Std",51.78333,19.46667,6070,grain,zerno,zerno,,ˈʑærna,ziarno,,0
13211000507,"Polish: Std",51.78333,19.46667,6840,wheel,koleso,koleso,,ˈkʌ̞wɑ̟,koło,,0
13211000507,"Polish: Std",51.78333,19.46667,6860,game,igra,igra,,ɡɾa̠,gra,,0
13211000507,"Polish: Std",51.78333,19.46667,6940,citadel,gorod,gorod,,ɡɾutʰ,gród,,0
13211000507,"Polish: Std",51.78333,19.46667,8000,there_is,est_,est_,,j̝ɛ̝stʰ,jest,,0
13211000507,"Polish: Std",51.78333,19.46667,8130,you_are_falling,padaesh_,padaesh_,,u-ˈpa̠da̠ʂ,padasz,,0
13211000507,"Polish: Std",51.78333,19.46667,8320,we_drink,p_yom,p_yom,,pʰʲĭjɛmɘ̟,pijemy,,0
13211000507,"Polish: Std",51.78333,19.46667,8430,dead_fem,mertva,mertva,,ˈmartʰfa̠,martwa,,0
13211000507,"Polish: Std",51.78333,19.46667,8480,you_believe,verish_,verish_,,ˈvʲjɛʐɘ̟ʂ,wierzysz,,0
13211000507,"Polish: Std",51.78333,19.46667,8850,he_rubbed,tyor,tyor,,tarw,tarł,,0
13211000507,"Polish: Std",51.78333,19.46667,8890,we_are_digging,kopaem,kopaem,,kʰʌ̆ˈpʰʲjɛmɘ̟,kopiemy,,0
13211000507,"Polish: Std",51.78333,19.46667,8980,it_froze,zamyorzlo,zamyorzlo,,za̠-ˈma̠rzwɔ̜,zamarzło,,0
13211000507,"Polish: Std",51.78333,19.46667,9100,write_ipv_sg,pishi,pishi,,pʰʲiʂ,pisz,,0
13211000507,"Polish: Std",51.78333,19.46667,710,my,moj,moj,,mu̞j,mój,,0
13211000507,"Polish: Std",51.78333,19.46667,1230,where,gde,gde,,ɡdʑɛ̝,gdzie,,0
13211000507,"Polish: Std",51.78333,19.46667,1330,there,tam,tam,,ta̠mə̆,tam,,0
13211000507,"Polish: Std",51.78333,19.46667,1410,at_sea,v_more,v_more,,ˈvmʌ̞ʐ-u,"w morzu",,0
13211000507,"Polish: Std",51.78333,19.46667,5060,summer,leto,leto,,ˈla̠tʰɔ̜,lato,,0
13211206109,"Polish: Gtr Poland",52.28333,15.81667,30,three,tri,tri,,tʂɘ̟ɪ̯,,,0
13211206109,"Polish: Gtr Poland",52.28333,15.81667,40,four,chetyre,chetyre,,ˈtʂtɘ̟ɾɘ̟,,,0
13211206109,"Polish: Gtr Poland",52.28333,15.81667,7210,long,dolgij,dolgij,,dʊ̜ˈʐɘ̟kʰʲi̽,,,0
13211206109,"Polish: Gtr Poland",52.28333,15.81667,7380,wide,shirokij,shirokij,,ʂɘ̟ˈɾo̯ɘ̟kʰʲi̽,,,0
13211206109,"Polish: Gtr Poland",52.28333,15.81667,7410,sharp_fem,ostraya,ostraya,,ˈwɛstɾɔ,,,0
13211206109,"Polish: Gtr Poland",52.28333,15.81667,7520,old,staryj,staryj,,ˈstaɾɘ̟ɪ̯,,,0
13211206109,"Polish: Gtr Poland",52.28333,15.81667,7650,alive,zhivoj,zhivoj,,ʐ̬̥ɘ̟v̝ɘ̟ɪ̯,,,0
13211206109,"Polish: Gtr Poland",52.28333,15.81667,7710,good_neut,dobro_,dobro_,,ˈdo̯ɜbɾɛ̠,,,0
13211206109,"Polish: Gtr Poland",52.28333,15.81667,7740,true_neut,vernoe,vernoe,,ˈv̝ʲjɛ̝ɾnɛ̠,,,0
13211206109,"Polish: Gtr Poland",52.28333,15.81667,7910,hot_fem,tyoplaya,tyoplaya,,ˈtɕɛ̝pwa,,,0
13211206109,"Polish: Gtr Poland",52.28333,15.81667,7940,wet_neut,mokroe,mokroe,,ˈmɔ̃krə,,,0
13211206109,"Polish: Gtr Poland",52.28333,15.81667,820,on_the_left,na_levo_,na_levo_,,naˈlɛ̠vʊ̯ɜ,,,0
13211206109,"Polish: Gtr Poland",52.28333,15.81667,2140,tears,slyozy,slyozy,,ˈpwatʂki̽,,,0
13211206109,"Polish: Gtr Poland",52.28333,15.81667,2250,beard,boroda,boroda,,ˈbɾɔ̯ɜd̬̥a,,,0
13211206109,"Polish: Gtr Poland",52.28333,15.81667,2310,hands,ruki,ruki,,ˈɾɘ̟ntsə̟,,,0
13211206109,"Polish: Gtr Poland",52.28333,15.81667,2610,blood,krov_,krov_,,kɾɛf,,,0
13211206109,"Polish: Gtr Poland",52.28333,15.81667,2810,heart,serdce,serdce,,ˈsɛɾtsɛ̠,,,0
13211206109,"Polish: Gtr Poland",52.28333,15.81667,4330,brother,brat,brat,,ˈbɾatɕɐ,,,0
13211206109,"Polish: Gtr Poland",52.28333,15.81667,4332,brothers,brat_ya,brat_ya,,bɾat,,,0
13211206109,"Polish: Gtr Poland",52.28333,15.81667,4100,name,imya,imya,,ˈimʲjɛ,,,0
13211206109,"Polish: Gtr Poland",52.28333,15.81667,4110,words,slova,slova,,ˈswɞ̜va,,,0
13211206109,"Polish: Gtr Poland",52.28333,15.81667,3240,fish_pl,ryby,ryby,,ˈɾɘ̟bɘ̟ɪ̯,,,0
13211206109,"Polish: Gtr Poland",52.28333,15.81667,3310,cow,korova,korova,,ˈkʰɾo̯ɜva,,,0
13211206109,"Polish: Gtr Poland",52.28333,15.81667,3820,horn,rog,rog,,ɾuk,,,0
13211206109,"Polish: Gtr Poland",52.28333,15.81667,3840,wing,krylo,krylo,,ˈskʂɘ̟dwɜ̠,,,0
13211206109,"Polish: Gtr Poland",52.28333,15.81667,3850,feather,pero,pero,,ˈpʰʲʊ̜ɾʊ̯ɜ,,,0
13211206109,"Polish: Gtr Poland",52.28333,15.81667,5220,rivers,reki,reki,,ˈʐɛ̽k̟i̽,,,0
13211206109,"Polish: Gtr Poland",52.28333,15.81667,5230,lake,ozero,ozero,,jeˈʑɞɾɔ̯ɜ,,,0
13211206109,"Polish: Gtr Poland",52.28333,15.81667,5232,lakes,ozera,ozera,,jeˈʑʌɾa,,,0
13211206109,"Polish: Gtr Poland",52.28333,15.81667,5240,sea,more,more,,ˈmɔ̯ɜʐɛ̠,,,0
13211206109,"Polish: Gtr Poland",52.28333,15.81667,6230,bark,kora,kora,,ˈkɔɾa,,,0
13211206109,"Polish: Gtr Poland",52.28333,15.81667,6240,root,koren_,koren_,,ˈkwɛ̠ʐɘ̟ɲ,,,0
13211206109,"Polish: Gtr Poland",52.28333,15.81667,6270,thorn,tyorn,tyorn,,tɕɛ̝ɾɲ,,,0
13211206109,"Polish: Gtr Poland",52.28333,15.81667,6310,grass,trava,trava,,ˈtɾɔvɐ̟,,,0
13211206109,"Polish: Gtr Poland",52.28333,15.81667,5850,wind,veter,veter,,vʲɪ̯atɾ̥,,,0
13211206109,"Polish: Gtr Poland",52.28333,15.81667,5920,thunder,grom,grom,,ɡʐmɔ̯ɜt,,,0
13211206109,"Polish: Gtr Poland",52.28333,15.81667,6070,grain,zerno,zerno,,ˈʑaɾnɔə̯,,,0
13211206109,"Polish: Gtr Poland",52.28333,15.81667,6840,wheel,koleso,koleso,,ˈkoʊ̯ə,,,0
13211206109,"Polish: Gtr Poland",52.28333,15.81667,8000,there_is,est_,est_,,jɛ̝st,,,0
13211206109,"Polish: Gtr Poland",52.28333,15.81667,8130,you_are_falling,padaesh_,padaesh_,,pʂəˈvɾʊtɕi,,,0
13211206109,"Polish: Gtr Poland",52.28333,15.81667,8320,we_drink,p_yom,p_yom,,ˈpʰʲɪ.imɘ̟ɪ̯,,,0
13211206109,"Polish: Gtr Poland",52.28333,15.81667,8430,dead_fem,mertva,mertva,,ˈmartfɔ,,,0
13211206109,"Polish: Gtr Poland",52.28333,15.81667,8480,you_believe,verish_,verish_,,v̝̬̥ʲjɛ̝ʐɘ̟ʂ,,,0
13211206109,"Polish: Gtr Poland",52.28333,15.81667,8850,he_rubbed,tyor,tyor,,ˈtʰaɾ,,,0
13211206109,"Polish: Gtr Poland",52.28333,15.81667,8890,we_are_digging,kopaem,kopaem,,ˈkʰo̯ɞ̜pʲi̽m,,,0
13211206109,"Polish: Gtr Poland",52.28333,15.81667,8980,it_froze,zamyorzlo,zamyorzlo,,zaˈmaʐʊ̯ɜ,,,0
13211206109,"Polish: Gtr Poland",52.28333,15.81667,9100,write_ipv_sg,pishi,pishi,,pʰʲiʂ,,,0
13211206109,"Polish: Gtr Poland",52.28333,15.81667,710,my,moj,moj,,muɪ̯,,,0
13211206109,"Polish: Gtr Poland",52.28333,15.81667,1230,where,gde,gde,,dʑɛ̝,,,0
13211206109,"Polish: Gtr Poland",52.28333,15.81667,1330,there,tam,tam,,tʰæ̠m,,,0
13211206109,"Polish: Gtr Poland",52.28333,15.81667,1410,at_sea,v_more,v_more,,ˈvmwɜʐ-ʌ̝ʊ̜,,,0
13211206109,"Polish: Gtr Poland",52.28333,15.81667,5060,summer,leto,leto,,ˈlatʰwə,,,0
13211403509,"Polish: Mazovian",53.33295,21.52154,30,three,tri,tri,,t.ʂɪ,,,0
13211403509,"Polish: Mazovian",53.33295,21.52154,40,four,chetyre,chetyre,,ˈʂtɘ̟ɾɪ,,,0
13211403509,"Polish: Mazovian",53.33295,21.52154,7210,long,dolgij,dolgij,,ˈdwuɡ̟ɪ̟,,,0
13211403509,"Polish: Mazovian",53.33295,21.52154,7380,wide,shirokij,shirokij,,ˈsɘ̟ɾɔk̟ɪ̟,,,0
13211403509,"Polish: Mazovian",53.33295,21.52154,7410,sharp_fem,ostraya,ostraya,,ˈwɔstɾa,,,0
13211403509,"Polish: Mazovian",53.33295,21.52154,7520,old,staryj,staryj,,ˈstaɾɪ,,,0
13211403509,"Polish: Mazovian",53.33295,21.52154,7650,alive,zhivoj,zhivoj,,ˈzɘ̟vɪ̟,,,0
13211403509,"Polish: Mazovian",53.33295,21.52154,7710,good_neut,dobro_,dobro_,,ˈdɔbɾə,,,0
13211403509,"Polish: Mazovian",53.33295,21.52154,7740,true_neut,vernoe,vernoe,,ˈʑɛrnɛ̠̃,,,0
13211403509,"Polish: Mazovian",53.33295,21.52154,7910,hot_fem,tyoplaya,tyoplaya,,ˈtʃɛ̝pʊ̯a,,,0
13211403509,"Polish: Mazovian",53.33295,21.52154,7940,wet_neut,mokroe,mokroe,,ˈmɔ̝kɾə̟,,,0
13211403509,"Polish: Mazovian",53.33295,21.52154,820,on_the_left,na_levo_,na_levo_,,naˈlo,,,0
13211403509,"Polish: Mazovian",53.33295,21.52154,2140,tears,slyozy,slyozy,,wzi̽,,,0
13211403509,"Polish: Mazovian",53.33295,21.52154,2140,tears,slyozy,slyozy,,pakutɕɛ̝̃ntɪ,,,1
13211403509,"Polish: Mazovian",53.33295,21.52154,2250,beard,boroda,boroda,,ˈbɾɔda,,,0
13211403509,"Polish: Mazovian",53.33295,21.52154,2310,hands,ruki,ruki,,ˈɾɛ̽ntsə,,,0
13211403509,"Polish: Mazovian",53.33295,21.52154,2610,blood,krov_,krov_,,kɾɛ̠f,,,0
13211403509,"Polish: Mazovian",53.33295,21.52154,2810,heart,serdce,serdce,,ˈsɘ̟ɾtsə̟,,,0
13211403509,"Polish: Mazovian",53.33295,21.52154,4330,brother,brat,brat,,bɾat,,,0
13211403509,"Polish: Mazovian",53.33295,21.52154,4332,brothers,brat_ya,brat_ya,,bɾatɕa,,,0
13211403509,"Polish: Mazovian",53.33295,21.52154,4100,name,imya,imya,,ˈimɲɛ̝̃,,,0
13211403509,"Polish: Mazovian",53.33295,21.52154,4110,words,slova,slova,,ˈswɔ̝va,,,0
13211403509,"Polish: Mazovian",53.33295,21.52154,3240,fish_pl,ryby,ryby,,ˈɾɘ̟ɪbɪ,,,0
13211403509,"Polish: Mazovian",53.33295,21.52154,3310,cow,korova,korova,,ˈkɾ̞ɔva,,,0
13211403509,"Polish: Mazovian",53.33295,21.52154,3820,horn,rog,rog,,ɾu̞k,,,0
13211403509,"Polish: Mazovian",53.33295,21.52154,3840,wing,krylo,krylo,,ˈskʂɪdwɔ,,,0
13211403509,"Polish: Mazovian",53.33295,21.52154,3850,feather,pero,pero,,ˈpɕʊ̟̜ɾɔ,,,0
13211403509,"Polish: Mazovian",53.33295,21.52154,5220,rivers,reki,reki,,ˈʐɘ̟k̟ɪ,,,0
13211403509,"Polish: Mazovian",53.33295,21.52154,5220,rivers,reki,reki,,ˈstɾuɡ̟ɪ,,,1
13211403509,"Polish: Mazovian",53.33295,21.52154,5230,lake,ozero,ozero,,jeˈʑɔɾɔ,,,0
13211403509,"Polish: Mazovian",53.33295,21.52154,5240,sea,more,more,,ˈmɔʐə,,,0
13211403509,"Polish: Mazovian",53.33295,21.52154,6230,bark,kora,kora,,ˈku̞ra,,,0
13211403509,"Polish: Mazovian",53.33295,21.52154,6240,root,koren_,koren_,,ˈkɔʐɘ̟ɲ,,,0
13211403509,"Polish: Mazovian",53.33295,21.52154,6270,thorn,tyorn,tyorn,,tɕɛ̝ɾɲ,,,0
13211403509,"Polish: Mazovian",53.33295,21.52154,6310,grass,trava,trava,,ˈtɾava,,,0
13211403509,"Polish: Mazovian",53.33295,21.52154,5850,wind,veter,veter,,ʑɛ̝t.ʂ,,,0
13211403509,"Polish: Mazovian",53.33295,21.52154,5920,thunder,grom,grom,,ɡʐmɔt,,,0
13211403509,"Polish: Mazovian",53.33295,21.52154,6070,grain,zerno,zerno,,ˈʑæɾka,,,0
13211403509,"Polish: Mazovian",53.33295,21.52154,6840,wheel,koleso,koleso,,ˈkɔ̝o̯ɔ,,,0
13211403509,"Polish: Mazovian",53.33295,21.52154,8000,there_is,est_,est_,,jɛ̝st,,,0
13211403509,"Polish: Mazovian",53.33295,21.52154,8320,we_drink,p_yom,p_yom,,ˈpɕijɛ̃m,,,0
13211403509,"Polish: Mazovian",53.33295,21.52154,8430,dead_fem,mertva,mertva,,ˈmaɾtfa,,,0
13211403509,"Polish: Mazovian",53.33295,21.52154,8480,you_believe,verish_,verish_,,ˈʑ̽ɛ̝ʐɐs,,,0
13211403509,"Polish: Mazovian",53.33295,21.52154,8850,he_rubbed,tyor,tyor,,ˈskɾ̞ɔbɔo̯,,,0
13211403509,"Polish: Mazovian",53.33295,21.52154,8890,we_are_digging,kopaem,kopaem,,ˈkɔpɕɪ̃m,,,0
13211403509,"Polish: Mazovian",53.33295,21.52154,8980,it_froze,zamyorzlo,zamyorzlo,,ˈzamaɾzu,,,0
13211403509,"Polish: Mazovian",53.33295,21.52154,9100,write_ipv_sg,pishi,pishi,,pɕis,,,0
13211403509,"Polish: Mazovian",53.33295,21.52154,710,my,moj,moj,,mõ̟j,,,0
13211403509,"Polish: Mazovian",53.33295,21.52154,1230,where,gde,gde,,ɡdʑɛ̝,,,0
13211403509,"Polish: Mazovian",53.33295,21.52154,1330,there,tam,tam,,tam,,,0
13211403509,"Polish: Mazovian",53.33295,21.52154,1410,at_sea,v_more,v_more,,ˈvmɔʐu,,,0
13211403509,"Polish: Mazovian",53.33295,21.52154,5060,summer,leto,leto,,ˈlatɔ,,,0
13221145407,"Kashubian: Std",54.34611,17.89167,30,three,tri,tri,,t.ʂɛ,trzë,,0
13221145407,"Kashubian: Std",54.34611,17.89167,40,four,chetyre,chetyre,,ˈɕtɛɾɛ̠,sztërë,,0
13221145407,"Kashubian: Std",54.34611,17.89167,7210,long,dolgij,dolgij,,ˈdwudʒi,dłudżi,,0
13221145407,"Kashubian: Std",54.34611,17.89167,7380,wide,shirokij,shirokij,,ʃɛ̝ˈɾɔ̟tɕi,szeroczi,,0
13221145407,"Kashubian: Std",54.34611,17.89167,7410,sharp_fem,ostraya,ostraya,,ˈwɛstɾ-ɵ̜,òstrô,,0
13221145407,"Kashubian: Std",54.34611,17.89167,7520,old,staryj,staryj,,ˈstɘ̟ɾ-i,"stôri, stari",,0
13221145407,"Kashubian: Std",54.34611,17.89167,7650,alive,zhivoj,zhivoj,,ˈʒɛ̝vi̽,żëwi,,0
13221145407,"Kashubian: Std",54.34611,17.89167,7710,good_neut,dobro_,dobro_,,ˈdɔbɾ-ɪ,dobré,,0
13221145407,"Kashubian: Std",54.34611,17.89167,7740,true_neut,vernoe,vernoe,,ˈvjɛ̝ɾn-ɘ̟,wiérné,,0
13221145407,"Kashubian: Std",54.34611,17.89167,7910,hot_fem,tyoplaya,tyoplaya,,ˈtsɛpwɘ,cepłô,,0
13221145407,"Kashubian: Std",54.34611,17.89167,7940,wet_neut,mokroe,mokroe,,ˈmwɛkɾ-ɘ̟,mòkré,,0
13221145407,"Kashubian: Std",54.34611,17.89167,820,on_the_left,na_levo_,na_levo_,,,"na lewò",,0
13221145407,"Kashubian: Std",54.34611,17.89167,2140,tears,slyozy,slyozy,,wzɛ,łzë,,0
13221145407,"Kashubian: Std",54.34611,17.89167,2250,beard,boroda,boroda,,ˈbɾɔdɑ̟,broda,,0
13221145407,"Kashubian: Std",54.34611,17.89167,2310,hands,ruki,ruki,,ˈɾɔɰ̃tsɛ̠,rãce,,0
13221145407,"Kashubian: Std",54.34611,17.89167,2610,blood,krov_,krov_,,kɾɛf,krew,,0
13221145407,"Kashubian: Std",54.34611,17.89167,2810,heart,serdce,serdce,,ˈsɛɾtsɛ̠,serce,,0
13221145407,"Kashubian: Std",54.34611,17.89167,4330,brother,brat,brat,,bɾa̠tʰ,"brat / bracyna",,0
13221145407,"Kashubian: Std",54.34611,17.89167,4332,brothers,brat_ya,brat_ya,,bɾa̠tsa̠,"braca / bracô / bracynowie",,0
13221145407,"Kashubian: Std",54.34611,17.89167,4100,name,imya,imya,,ˈmʲjɔnɔ,"miono, jimiã",,0
13221145407,"Kashubian: Std",54.34611,17.89167,4110,words,slova,slova,,ˈswɔvɑ̟,słowa,,0
13221145407,"Kashubian: Std",54.34611,17.89167,3240,fish_pl,ryby,ryby,,ˈɾɛ̠b-ɛ̠,rëbë,,0
13221145407,"Kashubian: Std",54.34611,17.89167,3310,cow,korova,korova,,ˈkɾɔvɑ̟,krowa,,0
13221145407,"Kashubian: Std",54.34611,17.89167,3820,horn,rog,rog,,ɾu̞kʰ,róg,,0
13221145407,"Kashubian: Std",54.34611,17.89167,3840,wing,krylo,krylo,,ˈs-kʂi̽dwɔ,"skrzidło / skrzëdło[?]",,0
13221145407,"Kashubian: Std",54.34611,17.89167,3850,feather,pero,pero,,ˈpʰʲɪ̆ʊɾɔ̞,pióro,,0
13221145407,"Kashubian: Std",54.34611,17.89167,5220,rivers,reki,reki,,ˈʐɘ̟tɕi,rzéczi,,0
13221145407,"Kashubian: Std",54.34611,17.89167,5230,lake,ozero,ozero,,ˈjɛ̝zɞ̜ɾɔ̟,jezoro,,0
13221145407,"Kashubian: Std",54.34611,17.89167,5232,lakes,ozera,ozera,,ˈjɛ̝zɞ̜ɾa̠,jezora,,0
13221145407,"Kashubian: Std",54.34611,17.89167,5240,sea,more,more,,ˈmwɛʐɛ,mòrze,,0
13221145407,"Kashubian: Std",54.34611,17.89167,6230,bark,kora,kora,,ˈkʰwɛɾa̠,kóra,,0
13221145407,"Kashubian: Std",54.34611,17.89167,6240,root,koren_,koren_,,ˈkʰwɛʐɘ̟ɲ,kòrzéń,,0
13221145407,"Kashubian: Std",54.34611,17.89167,6270,thorn,tyorn,tyorn,,ˈtsɘ̟ɾɲɔ,"cérniô, cérzniô",,0
13221145407,"Kashubian: Std",54.34611,17.89167,6310,grass,trava,trava,,ˈtɾɘvɑ̟,trôwa,,0
13221145407,"Kashubian: Std",54.34611,17.89167,5850,wind,veter,veter,,ˈvʲɪ̆atɛɾ,wiater,,0
13221145407,"Kashubian: Std",54.34611,17.89167,5920,thunder,grom,grom,,ɡɾɔm,"grom / grzmòt",,0
13221145407,"Kashubian: Std",54.34611,17.89167,6070,grain,zerno,zerno,,ˈzɘ̟ɾnɔ,zôrno,,0
13221145407,"Kashubian: Std",54.34611,17.89167,6840,wheel,koleso,koleso,,ˈkʰwœ̜wɔ,kòło,,0
13221145407,"Kashubian: Std",54.34611,17.89167,6860,game,igra,igra,,ɡɾɑ̟,gra,,0
13221145407,"Kashubian: Std",54.34611,17.89167,6940,citadel,gorod,gorod,,,gród,,0
13221145407,"Kashubian: Std",54.34611,17.89167,8000,there_is,est_,est_,,jɛ,je,,0
13221145407,"Kashubian: Std",54.34611,17.89167,8130,you_are_falling,padaesh_,padaesh_,,ˈpɑ̟dɘ̟ʃ,"padôsz / pôdôsz",,0
13221145407,"Kashubian: Std",54.34611,17.89167,8320,we_drink,p_yom,p_yom,,ˈpʲijɛm-ɛ,pijemë,,0
13221145407,"Kashubian: Std",54.34611,17.89167,8430,dead_fem,mertva,mertva,,ˈma̠ɾtfɵ̜,"martwi / ùmarłi",,0
13221145407,"Kashubian: Std",54.34611,17.89167,8480,you_believe,verish_,verish_,,ˈvjɛ̝ʐɘ̟ʃ,wierzisz,,0
13221145407,"Kashubian: Std",54.34611,17.89167,8850,he_rubbed,tyor,tyor,,ˈtsa̠ɾw,carł,,0
13221145407,"Kashubian: Std",54.34611,17.89167,8890,we_are_digging,kopaem,kopaem,,ˈkʰɔ̆ɞ̜pɪ̆ɘ̟̆mɛ,kòpiemë,,0
13221145407,"Kashubian: Std",54.34611,17.89167,8980,it_froze,zamyorzlo,zamyorzlo,,ˈz-mjaʐwɔ,"zamiarzło / zamarzło",,0
13221145407,"Kashubian: Std",54.34611,17.89167,9100,write_ipv_sg,pishi,pishi,,piʃ,"pisz / piszë",,0
13221145407,"Kashubian: Std",54.34611,17.89167,710,my,moj,moj,,mu̞j,mój,,0
13221145407,"Kashubian: Std",54.34611,17.89167,1230,where,gde,gde,,dzɛ,(g)dze,,0
13221145407,"Kashubian: Std",54.34611,17.89167,1330,there,tam,tam,,tɑ̟m,tam,,0
13221145407,"Kashubian: Std",54.34611,17.89167,1410,at_sea,v_more,v_more,,ˈvmwœ̜ʐ-u̞,"w mòrzu",,0
13221145407,"Kashubian: Std",54.34611,17.89167,5060,summer,leto,leto,,ˈlɑ̟tɔ,lato,,0
13221112109,"Kashubian: NW",54.78778,18.0039,30,three,tri,tri,,t.ʂæ̠,trzë,,0
13221112109,"Kashubian: NW",54.78778,18.0039,40,four,chetyre,chetyre,,ˈʂtæ̠ɾɜ,sztërë,,0
13221112109,"Kashubian: NW",54.78778,18.0039,7210,long,dolgij,dolgij,,ˈdwʉɡʲi,dłudżi,,0
13221112109,"Kashubian: NW",54.78778,18.0039,7380,wide,shirokij,shirokij,,ʂɜ̟ˈɾɔkʰʲi,szeroczi,,0
13221112109,"Kashubian: NW",54.78778,18.0039,7410,sharp_fem,ostraya,ostraya,,ˈwɛstɾ-ɛ,òstrô,,0
13221112109,"Kashubian: NW",54.78778,18.0039,7520,old,staryj,staryj,,ˈstɵɾ-i̽,"stôri, stari",,0
13221112109,"Kashubian: NW",54.78778,18.0039,7650,alive,zhivoj,zhivoj,,ʐɘ̟ˈvi,żëwi,,0
13221112109,"Kashubian: NW",54.78778,18.0039,7710,good_neut,dobro_,dobro_,,ˈdɔ̝bɾ-ɛ̠,dobré,,0
13221112109,"Kashubian: NW",54.78778,18.0039,7740,true_neut,vernoe,vernoe,,ˈvʲjɛɾn-ɛ,wiérné,,0
13221112109,"Kashubian: NW",54.78778,18.0039,7910,hot_fem,tyoplaya,tyoplaya,,ˈtsepwɛ̠,cepłô,,0
13221112109,"Kashubian: NW",54.78778,18.0039,7940,wet_neut,mokroe,mokroe,,ˈmwɛkʰɾ-ɛ̠,mòkré,,0
13221112109,"Kashubian: NW",54.78778,18.0039,820,on_the_left,na_levo_,na_levo_,,,"na lewò",,0
13221112109,"Kashubian: NW",54.78778,18.0039,2140,tears,slyozy,slyozy,,wzæ̠,łzë,,0
13221112109,"Kashubian: NW",54.78778,18.0039,2250,beard,boroda,boroda,,ˈbro̞ˑdɑ̟,broda,,0
13221112109,"Kashubian: NW",54.78778,18.0039,2310,hands,ruki,ruki,,ˈɾɘ̟ntsɜ,rãce,,0
13221112109,"Kashubian: NW",54.78778,18.0039,2610,blood,krov_,krov_,,kɾe̠f,krew,,0
13221112109,"Kashubian: NW",54.78778,18.0039,2810,heart,serdce,serdce,,ˈsɛɾtsɜ,serce,,0
13221112109,"Kashubian: NW",54.78778,18.0039,4330,brother,brat,brat,,bɾɒtʰ,"brat / bracyna",,0
13221112109,"Kashubian: NW",54.78778,18.0039,4332,brothers,brat_ya,brat_ya,,ˈbɾɒtsɑ̟,"braca / bracô / bracynowie",,0
13221112109,"Kashubian: NW",54.78778,18.0039,4100,name,imya,imya,,ˈmjɔnɔ̝,"miono, jimiã",,0
13221112109,"Kashubian: NW",54.78778,18.0039,4110,words,slova,slova,,ˈswo̞vɑ̟,słowa,,0
13221112109,"Kashubian: NW",54.78778,18.0039,3240,fish_pl,ryby,ryby,,ˈɾæ̠b-ɜ,rëbë,,0
13221112109,"Kashubian: NW",54.78778,18.0039,3310,cow,korova,korova,,ˈkɾo̞ˑvɑ̟,krowa,,0
13221112109,"Kashubian: NW",54.78778,18.0039,3820,horn,rog,rog,,ɾokʰ,róg,,0
13221112109,"Kashubian: NW",54.78778,18.0039,3840,wing,krylo,krylo,,ˈs-kʂidwɔ,"skrzidło / skrzëdło[?]",,0
13221112109,"Kashubian: NW",54.78778,18.0039,3850,feather,pero,pero,,ˈpʰʲu̞ˑɾɔ,pióro,,0
13221112109,"Kashubian: NW",54.78778,18.0039,5220,rivers,reki,reki,,ˈʐe̠kʰʲɛ,rzéczi,,0
13221112109,"Kashubian: NW",54.78778,18.0039,5230,lake,ozero,ozero,,ˈjɛzɔ̟ɾɔ,jezoro,,0
13221112109,"Kashubian: NW",54.78778,18.0039,5232,lakes,ozera,ozera,,ˈjɛzɔ̟ɾɑ̟,jezora,,0
13221112109,"Kashubian: NW",54.78778,18.0039,5240,sea,more,more,,ˈmwɛʐɛ,mòrze,,0
13221112109,"Kashubian: NW",54.78778,18.0039,6230,bark,kora,kora,,ˈkʰwɛɾɑ̟,kóra,,0
13221112109,"Kashubian: NW",54.78778,18.0039,6240,root,koren_,koren_,,ˈkʰwɛʐɛɲ,kòrzéń,,0
13221112109,"Kashubian: NW",54.78778,18.0039,6270,thorn,tyorn,tyorn,,tsɛɾɲ,"cérniô, cérzniô",,0
13221112109,"Kashubian: NW",54.78778,18.0039,6310,grass,trava,trava,,ˈtɾɵvɑ̟,trôwa,,0
13221112109,"Kashubian: NW",54.78778,18.0039,5850,wind,veter,veter,,ˈvʲjɒtɾ,wiater,,0
13221112109,"Kashubian: NW",54.78778,18.0039,5920,thunder,grom,grom,,ɡʐmwɛtʰ,"grom / grzmòt",,1
13221112109,"Kashubian: NW",54.78778,18.0039,6070,grain,zerno,zerno,,ˈzɵɾnɔ,zôrno,,0
13221112109,"Kashubian: NW",54.78778,18.0039,6840,wheel,koleso,koleso,,ˈkʰwɛwɔ,kòło,,0
13221112109,"Kashubian: NW",54.78778,18.0039,6860,game,igra,igra,,ɡɾɒ,gra,,0
13221112109,"Kashubian: NW",54.78778,18.0039,6940,citadel,gorod,gorod,,,gród,,0
13221112109,"Kashubian: NW",54.78778,18.0039,8000,there_is,est_,est_,,jɛ,je,,0
13221112109,"Kashubian: NW",54.78778,18.0039,8130,you_are_falling,padaesh_,padaesh_,,,"padôsz / pôdôsz",,0
13221112109,"Kashubian: NW",54.78778,18.0039,8320,we_drink,p_yom,p_yom,,ˈpʰʲi.ɛ̠m-æ̠,pijemë,,0
13221112109,"Kashubian: NW",54.78778,18.0039,8430,dead_fem,mertva,mertva,,,"martwi / ùmarłi",,0
13221112109,"Kashubian: NW",54.78778,18.0039,8480,you_believe,verish_,verish_,,ˈvjɛʐi̽ʂ,wierzisz,,0
13221112109,"Kashubian: NW",54.78778,18.0039,8850,he_rubbed,tyor,tyor,,,carł,,0
13221112109,"Kashubian: NW",54.78778,18.0039,8890,we_are_digging,kopaem,kopaem,,ˈkʰwœpʰʲɛ̝mɛ̠,kòpiemë,,0
13221112109,"Kashubian: NW",54.78778,18.0039,8980,it_froze,zamyorzlo,zamyorzlo,,ˈzɒ-mjɐʐwɔ,"zamiarzło / zamarzło",,0
13221112109,"Kashubian: NW",54.78778,18.0039,9100,write_ipv_sg,pishi,pishi,,ˈpʰʲiʂɛ̠,"pisz / piszë",,0
13221112109,"Kashubian: NW",54.78778,18.0039,710,my,moj,moj,,mu̞j,mój,,0
13221112109,"Kashubian: NW",54.78778,18.0039,1230,where,gde,gde,,ɡdze̠,(g)dze,,0
13221112109,"Kashubian: NW",54.78778,18.0039,1330,there,tam,tam,,tɑ̟m,tam,,0
13221112109,"Kashubian: NW",54.78778,18.0039,1410,at_sea,v_more,v_more,,ˈvmwɛʐ-u̟,"w mòrzu",,0
13221112109,"Kashubian: NW",54.78778,18.0039,5060,summer,leto,leto,,ˈlɒˑtʰɔ,lato,,0
13221122909,"Kashubian: NE",54.69574,18.67884,30,three,tri,tri,,tʂɜ̟,trzë,,0
13221122909,"Kashubian: NE",54.69574,18.67884,40,four,chetyre,chetyre,,ˈɕtæɾɛ,sztërë,,0
13221122909,"Kashubian: NE",54.69574,18.67884,7210,long,dolgij,dolgij,,ˈdlu̟dʒi,dłudżi,,0
13221122909,"Kashubian: NE",54.69574,18.67884,7380,wide,shirokij,shirokij,,ʂɜ̟ˈɾɔtʃi̞,szeroczi,,0
13221122909,"Kashubian: NE",54.69574,18.67884,7410,sharp_fem,ostraya,ostraya,,,òstrô,,0
13221122909,"Kashubian: NE",54.69574,18.67884,7520,old,staryj,staryj,,ˈstu̞ɾ-ɘ̟,"stôri, stari",,0
13221122909,"Kashubian: NE",54.69574,18.67884,7650,alive,zhivoj,zhivoj,,ʒɛˈvɛi,żëwi,,0
13221122909,"Kashubian: NE",54.69574,18.67884,7710,good_neut,dobro_,dobro_,,ˈdɔbɾ-ɘ̟,dobré,,0
13221122909,"Kashubian: NE",54.69574,18.67884,7740,true_neut,vernoe,vernoe,,ˈvʲjœ̝ɾn-ə̟,wiérné,,0
13221122909,"Kashubian: NE",54.69574,18.67884,7910,hot_fem,tyoplaya,tyoplaya,,ˈtsɘ̟plɔ,cepłô,,0
13221122909,"Kashubian: NE",54.69574,18.67884,7940,wet_neut,mokroe,mokroe,,ˈmwɵkʰɾ-ɘ̟,mòkré,,0
13221122909,"Kashubian: NE",54.69574,18.67884,820,on_the_left,na_levo_,na_levo_,,,"na lewò",,0
13221122909,"Kashubian: NE",54.69574,18.67884,2140,tears,slyozy,slyozy,,wzæ̠,łzë,,0
13221122909,"Kashubian: NE",54.69574,18.67884,2250,beard,boroda,boroda,,ˈbrɔdɑ̟,broda,,0
13221122909,"Kashubian: NE",54.69574,18.67884,2310,hands,ruki,ruki,,ɾʌ̟̆ɰ̃n̆tsɛ̠,rãce,,0
13221122909,"Kashubian: NE",54.69574,18.67884,2610,blood,krov_,krov_,,kʰɾɘ̟f,krew,,0
13221122909,"Kashubian: NE",54.69574,18.67884,2810,heart,serdce,serdce,,ˈsɐ̟ɾtsɛ̠,serce,,0
13221122909,"Kashubian: NE",54.69574,18.67884,4330,brother,brat,brat,,bɾa̠tʰ,"brat / bracyna",,0
13221122909,"Kashubian: NE",54.69574,18.67884,4332,brothers,brat_ya,brat_ya,,bɾa̠ˈtʰi̠nɔ̟vjɛ,"braca / bracô / bracynowie",,0
13221122909,"Kashubian: NE",54.69574,18.67884,4100,name,imya,imya,,mʲjɔ̟nɔ,"miono, jimiã",,0
13221122909,"Kashubian: NE",54.69574,18.67884,4110,words,slova,slova,,ˈslɔvɑ̟,słowa,,0
13221122909,"Kashubian: NE",54.69574,18.67884,3240,fish_pl,ryby,ryby,,ˈɾɐ̟b-ɜ,rëbë,,0
13221122909,"Kashubian: NE",54.69574,18.67884,3310,cow,korova,korova,,kʰɾɔvɐ̠,krowa,,0
13221122909,"Kashubian: NE",54.69574,18.67884,3820,horn,rog,rog,,ɾɛwkʰ,róg,,0
13221122909,"Kashubian: NE",54.69574,18.67884,3840,wing,krylo,krylo,,ˈs-kʂidlɔ̟,"skrzidło / skrzëdło[?]",,0
13221122909,"Kashubian: NE",54.69574,18.67884,3850,feather,pero,pero,,ˈpɕɛwɾɔ̟,pióro,,0
13221122909,"Kashubian: NE",54.69574,18.67884,5220,rivers,reki,reki,,ˈʐɛjtɕi,rzéczi,,0
13221122909,"Kashubian: NE",54.69574,18.67884,5230,lake,ozero,ozero,,ˈjø̠zɔ̟ɾɔ,jezoro,,0
13221122909,"Kashubian: NE",54.69574,18.67884,5232,lakes,ozera,ozera,,jɪˈzɔɾɑ,jezora,,0
13221122909,"Kashubian: NE",54.69574,18.67884,5240,sea,more,more,,ˈmwɘ̟ʐɜ̟,mòrze,,0
13221122909,"Kashubian: NE",54.69574,18.67884,6230,bark,kora,kora,,ˈkʰɔ̞ɾɑ̟,kóra,,0
13221122909,"Kashubian: NE",54.69574,18.67884,6240,root,koren_,koren_,,ˈkʰwɘ̞ʐɘ̟n,kòrzéń,,0
13221122909,"Kashubian: NE",54.69574,18.67884,6270,thorn,tyorn,tyorn,,,"cérniô, cérzniô",,0
13221122909,"Kashubian: NE",54.69574,18.67884,6310,grass,trava,trava,,ˈtɾɑ̟vɑ,trôwa,,0
13221122909,"Kashubian: NE",54.69574,18.67884,5850,wind,veter,veter,,,wiater,,0
13221122909,"Kashubian: NE",54.69574,18.67884,5920,thunder,grom,grom,,ɡɘ̟̆ˈʐmwɛtʰ,"grom / grzmòt",,1
13221122909,"Kashubian: NE",54.69574,18.67884,6070,grain,zerno,zerno,,ˈzʊɾnɔ,zôrno,,0
13221122909,"Kashubian: NE",54.69574,18.67884,6840,wheel,koleso,koleso,,ˈkʰwɘ̟lɔ̟,kòło,,0
13221122909,"Kashubian: NE",54.69574,18.67884,6860,game,igra,igra,,ɡɾɑ̟,gra,,0
13221122909,"Kashubian: NE",54.69574,18.67884,6940,citadel,gorod,gorod,,,gród,,0
13221122909,"Kashubian: NE",54.69574,18.67884,8000,there_is,est_,est_,,jø̞,je,,0
13221122909,"Kashubian: NE",54.69574,18.67884,8130,you_are_falling,padaesh_,padaesh_,,ˈpadɔʃ,"padôsz / pôdôsz",,0
13221122909,"Kashubian: NE",54.69574,18.67884,8320,we_drink,p_yom,p_yom,,ˈpɕi̞.ɛ̝m-ɛ̠,pijemë,,0
13221122909,"Kashubian: NE",54.69574,18.67884,8430,dead_fem,mertva,mertva,,,"martwi / ùmarłi",,0
13221122909,"Kashubian: NE",54.69574,18.67884,8480,you_believe,verish_,verish_,,vʲjø̞ʐɘ̟ʂ,wierzisz,,0
13221122909,"Kashubian: NE",54.69574,18.67884,8850,he_rubbed,tyor,tyor,,,carł,,0
13221122909,"Kashubian: NE",54.69574,18.67884,8890,we_are_digging,kopaem,kopaem,,ˈkʊpɕɛmɜ̟,kòpiemë,,0
13221122909,"Kashubian: NE",54.69574,18.67884,8980,it_froze,zamyorzlo,zamyorzlo,,ˈz-mʲja̠ʐlɔ̞,"zamiarzło / zamarzło",,0
13221122909,"Kashubian: NE",54.69574,18.67884,9100,write_ipv_sg,pishi,pishi,,pɕiʃ,"pisz / piszë",,0
13221122909,"Kashubian: NE",54.69574,18.67884,710,my,moj,moj,,ˈmɛwi̠,mój,,0
13221122909,"Kashubian: NE",54.69574,18.67884,1230,where,gde,gde,,ɡdzɛ̝,(g)dze,,0
13221122909,"Kashubian: NE",54.69574,18.67884,1330,there,tam,tam,,tɑ̟m,tam,,0
13221122909,"Kashubian: NE",54.69574,18.67884,1410,at_sea,v_more,v_more,,ˈvmwɘʐ-ʊ̠,"w mòrzu",,0
13221122909,"Kashubian: NE",54.69574,18.67884,5060,summer,leto,leto,,ˈlɑtɔ,lato,,0
13221133409,"Kashubian: NCI",54.50199,18.14724,30,three,tri,tri,,tʂ.ʂæ̠,trzë,,0
13221133409,"Kashubian: NCI",54.50199,18.14724,40,four,chetyre,chetyre,,ˈtʃtæ̠ɾɛ̠,sztërë,,0
13221133409,"Kashubian: NCI",54.50199,18.14724,7210,long,dolgij,dolgij,,ˈdwuɡʲi,dłudżi,,0
13221133409,"Kashubian: NCI",54.50199,18.14724,7380,wide,shirokij,shirokij,,ʃɛ̠ˈɾɔ̟tɕi,szeroczi,,0
13221133409,"Kashubian: NCI",54.50199,18.14724,7410,sharp_fem,ostraya,ostraya,,ˈwɘstɾ-ɘ̟,òstrô,,0
13221133409,"Kashubian: NCI",54.50199,18.14724,7520,old,staryj,staryj,,ˈstɔɾ-i̽,"stôri, stari",,0
13221133409,"Kashubian: NCI",54.50199,18.14724,7650,alive,zhivoj,zhivoj,,ˈʒɛvi,żëwi,,0
13221133409,"Kashubian: NCI",54.50199,18.14724,7710,good_neut,dobro_,dobro_,,ˈdɔbɾ-ɘ̟,dobré,,0
13221133409,"Kashubian: NCI",54.50199,18.14724,7740,true_neut,vernoe,vernoe,,,wiérné,,0
13221133409,"Kashubian: NCI",54.50199,18.14724,7910,hot_fem,tyoplaya,tyoplaya,,ˈtsɛpw̥o̞,cepłô,,0
13221133409,"Kashubian: NCI",54.50199,18.14724,7940,wet_neut,mokroe,mokroe,,ˈmwɘkɾ-i̽,mòkré,,0
13221133409,"Kashubian: NCI",54.50199,18.14724,820,on_the_left,na_levo_,na_levo_,,,"na lewò",,0
13221133409,"Kashubian: NCI",54.50199,18.14724,2140,tears,slyozy,slyozy,,wzæ̠,łzë,,0
13221133409,"Kashubian: NCI",54.50199,18.14724,2250,beard,boroda,boroda,,ˈbɾɔdɑ̟,broda,,0
13221133409,"Kashubian: NCI",54.50199,18.14724,2310,hands,ruki,ruki,,ˈɾɑ̟̆ɑ̟̃̆ntsɛ̠,rãce,,0
13221133409,"Kashubian: NCI",54.50199,18.14724,2610,blood,krov_,krov_,,kɾɘ̟f,krew,,0
13221133409,"Kashubian: NCI",54.50199,18.14724,2810,heart,serdce,serdce,,ˈsɛɾtsɛ,serce,,0
13221133409,"Kashubian: NCI",54.50199,18.14724,4330,brother,brat,brat,,bɾɒt,"brat / bracyna",,0
13221133409,"Kashubian: NCI",54.50199,18.14724,4332,brothers,brat_ya,brat_ya,,ˈbɾa̠tsɑ̟,"braca / bracô / bracynowie",,0
13221133409,"Kashubian: NCI",54.50199,18.14724,4100,name,imya,imya,,ˈmjɔnɛ̠,"miono, jimiã",,0
13221133409,"Kashubian: NCI",54.50199,18.14724,4110,words,slova,slova,,ˈswɔvɑ̟,słowa,,0
13221133409,"Kashubian: NCI",54.50199,18.14724,3240,fish_pl,ryby,ryby,,ˈɾɛ̠b-ɜ̟,rëbë,,0
13221133409,"Kashubian: NCI",54.50199,18.14724,3310,cow,korova,korova,,ˈkɾɔvɑ̟,krowa,,0
13221133409,"Kashubian: NCI",54.50199,18.14724,3820,horn,rog,rog,,ɾu̞kʰ,róg,,0
13221133409,"Kashubian: NCI",54.50199,18.14724,3840,wing,krylo,krylo,,ˈs-kʂɘ̟dwɛ̠,"skrzidło / skrzëdło[?]",,0
13221133409,"Kashubian: NCI",54.50199,18.14724,3850,feather,pero,pero,,ˈpʰʲʏ̆ʊ̠ɾɔ,pióro,,0
13221133409,"Kashubian: NCI",54.50199,18.14724,5220,rivers,reki,reki,,ˈʐɘ̟tɕi,rzéczi,,0
13221133409,"Kashubian: NCI",54.50199,18.14724,5230,lake,ozero,ozero,,ˈjɛ̝zɔ̟ɾ̞ɔ,jezoro,,0
13221133409,"Kashubian: NCI",54.50199,18.14724,5232,lakes,ozera,ozera,,ˈjɛ̝zɔ̟ɾ̞ɑ̟,jezora,,0
13221133409,"Kashubian: NCI",54.50199,18.14724,5240,sea,more,more,,ˈmwɜʐɛ̠,mòrze,,0
13221133409,"Kashubian: NCI",54.50199,18.14724,6230,bark,kora,kora,,ˈku̞ɾ̞ɑ̟,kóra,,0
13221133409,"Kashubian: NCI",54.50199,18.14724,6240,root,koren_,koren_,,ˈkwɘ̟ʐɘ̟ɲ,kòrzéń,,0
13221133409,"Kashubian: NCI",54.50199,18.14724,6270,thorn,tyorn,tyorn,,,"cérniô, cérzniô",,0
13221133409,"Kashubian: NCI",54.50199,18.14724,6310,grass,trava,trava,,ˈtɾɔvɑ̟,trôwa,,0
13221133409,"Kashubian: NCI",54.50199,18.14724,5850,wind,veter,veter,,ˈvja̠tɛ̠ɾ,wiater,,0
13221133409,"Kashubian: NCI",54.50199,18.14724,5920,thunder,grom,grom,,ɡʐmwɛ̽tʰ,"grom / grzmòt",,1
13221133409,"Kashubian: NCI",54.50199,18.14724,6070,grain,zerno,zerno,,ˈzɔ̟ɾnɛ̠,zôrno,,0
13221133409,"Kashubian: NCI",54.50199,18.14724,6840,wheel,koleso,koleso,,ˈkwʊwɜ,kòło,,0
13221133409,"Kashubian: NCI",54.50199,18.14724,6860,game,igra,igra,,ɡɾa̠,gra,,0
13221133409,"Kashubian: NCI",54.50199,18.14724,6940,citadel,gorod,gorod,,,gród,,0
13221133409,"Kashubian: NCI",54.50199,18.14724,8000,there_is,est_,est_,,jɛ̝,je,,0
13221133409,"Kashubian: NCI",54.50199,18.14724,8130,you_are_falling,padaesh_,padaesh_,,,"padôsz / pôdôsz",,0
13221133409,"Kashubian: NCI",54.50199,18.14724,8320,we_drink,p_yom,p_yom,,pi.ɛm-ɛ̠,pijemë,,0
13221133409,"Kashubian: NCI",54.50199,18.14724,8430,dead_fem,mertva,mertva,,ˈmɑ̟ɾtfɔ,"martwi / ùmarłi",,0
13221133409,"Kashubian: NCI",54.50199,18.14724,8480,you_believe,verish_,verish_,,ˈvɪ̆ɛ̽ʐɘ̟ʂ,wierzisz,,0
13221133409,"Kashubian: NCI",54.50199,18.14724,8850,he_rubbed,tyor,tyor,,,carł,,0
13221133409,"Kashubian: NCI",54.50199,18.14724,8890,we_are_digging,kopaem,kopaem,,ˈkwɵpɪ̆ə̟mɛ̠,kòpiemë,,0
13221133409,"Kashubian: NCI",54.50199,18.14724,8980,it_froze,zamyorzlo,zamyorzlo,,za̠-ˈmɪ̆a̠ʐwɜ,"zamiarzło / zamarzło",,0
13221133409,"Kashubian: NCI",54.50199,18.14724,9100,write_ipv_sg,pishi,pishi,,pi̠ɕ,"pisz / piszë",,0
13221133409,"Kashubian: NCI",54.50199,18.14724,710,my,moj,moj,,mu̞j,mój,,0
13221133409,"Kashubian: NCI",54.50199,18.14724,1230,where,gde,gde,,ɡdzɛ̽,(g)dze,,0
13221133409,"Kashubian: NCI",54.50199,18.14724,1330,there,tam,tam,,tɑ̟m,tam,,0
13221133409,"Kashubian: NCI",54.50199,18.14724,1410,at_sea,v_more,v_more,,ˈvmwɛ̽ʐ-u̟,"w mòrzu",,0
13221133409,"Kashubian: NCI",54.50199,18.14724,5060,summer,leto,leto,,ˈlɑ̟tɛ̠,lato,,0
13221145409,"Kashubian: CW",54.34611,17.89167,30,three,tri,tri,,t.ʂɛ̠,trzë,,0
13221145409,"Kashubian: CW",54.34611,17.89167,40,four,chetyre,chetyre,,ˈɕtɛɾɛ̠,sztërë,,0
13221145409,"Kashubian: CW",54.34611,17.89167,7210,long,dolgij,dolgij,,ˈdwʉdʒi̞,dłudżi,,0
13221145409,"Kashubian: CW",54.34611,17.89167,7380,wide,shirokij,shirokij,,ˈʃɘ̟ɾ̞ɔ̟tɕi̞,szeroczi,,0
13221145409,"Kashubian: CW",54.34611,17.89167,7410,sharp_fem,ostraya,ostraya,,ˈwœ̜stɾ-ɘ̟,òstrô,,0
13221145409,"Kashubian: CW",54.34611,17.89167,7520,old,staryj,staryj,,ˈstɛ̽ɾ-ɘ̟,"stôri, stari",,0
13221145409,"Kashubian: CW",54.34611,17.89167,7650,alive,zhivoj,zhivoj,,ˈʒɛ̝vɘ̟,żëwi,,0
13221145409,"Kashubian: CW",54.34611,17.89167,7710,good_neut,dobro_,dobro_,,ˈdɔbɾ-ɘ̟,dobré,,0
13221145409,"Kashubian: CW",54.34611,17.89167,7740,true_neut,vernoe,vernoe,,ˈvʲjɛɾn-ɘ̟,wiérné,,0
13221145409,"Kashubian: CW",54.34611,17.89167,7910,hot_fem,tyoplaya,tyoplaya,,ˈtsɛpʊ̆ɘ,cepłô,,0
13221145409,"Kashubian: CW",54.34611,17.89167,7940,wet_neut,mokroe,mokroe,,ˈmɔ̟̆œ̠̜̆kʰɾ-ɘ̟,mòkré,,0
13221145409,"Kashubian: CW",54.34611,17.89167,820,on_the_left,na_levo_,na_levo_,,,"na lewò",,0
13221145409,"Kashubian: CW",54.34611,17.89167,2140,tears,slyozy,slyozy,,wzɛ,łzë,,0
13221145409,"Kashubian: CW",54.34611,17.89167,2250,beard,boroda,boroda,,ˈbɾɔdɑ̟,broda,,0
13221145409,"Kashubian: CW",54.34611,17.89167,2310,hands,ruki,ruki,,ˈrɔ̞tsɛ̠,rãce,,0
13221145409,"Kashubian: CW",54.34611,17.89167,2610,blood,krov_,krov_,,kɾ̥ɛf,krew,,0
13221145409,"Kashubian: CW",54.34611,17.89167,2810,heart,serdce,serdce,,ˈsɛ̞rtsɜ̟,serce,,0
13221145409,"Kashubian: CW",54.34611,17.89167,4330,brother,brat,brat,,bɾa̠tʰ,"brat / bracyna",,0
13221145409,"Kashubian: CW",54.34611,17.89167,4332,brothers,brat_ya,brat_ya,,ˈbɾatsa̠,"braca / bracô / bracynowie",,0
13221145409,"Kashubian: CW",54.34611,17.89167,4100,name,imya,imya,,mʲjɔnɔ,"miono, jimiã",,1
13221145409,"Kashubian: CW",54.34611,17.89167,4110,words,slova,slova,,ˈswɔvɑ̟,słowa,,0
13221145409,"Kashubian: CW",54.34611,17.89167,3240,fish_pl,ryby,ryby,,ˈɾɛ̠̞b-ɛ̞,rëbë,,0
13221145409,"Kashubian: CW",54.34611,17.89167,3310,cow,korova,korova,,ˈkʰɾɔ̞vɑ̟,krowa,,0
13221145409,"Kashubian: CW",54.34611,17.89167,3820,horn,rog,rog,,ɾu̞kʰ,róg,,0
13221145409,"Kashubian: CW",54.34611,17.89167,3840,wing,krylo,krylo,,ˈs-kʂɪdwɔ,"skrzidło / skrzëdło[?]",,0
13221145409,"Kashubian: CW",54.34611,17.89167,3850,feather,pero,pero,,ˈpʰʲʏ̆ɵ̜ɾɔ̞̟,pióro,,0
13221145409,"Kashubian: CW",54.34611,17.89167,5220,rivers,reki,reki,,ˈʐɘ̟tɕi̞,rzéczi,,0
13221145409,"Kashubian: CW",54.34611,17.89167,5230,lake,ozero,ozero,,ˈjɛ̝zɞ̜ɾɔ̟,jezoro,,0
13221145409,"Kashubian: CW",54.34611,17.89167,5232,lakes,ozera,ozera,,ˈjɛ̝zɞ̜ɾa̠,jezora,,0
13221145409,"Kashubian: CW",54.34611,17.89167,5240,sea,more,more,,ˈmwɛʐɛ̠,mòrze,,0
13221145409,"Kashubian: CW",54.34611,17.89167,6230,bark,kora,kora,,ˈkʰɞ̜̆ɛ̞ˈɾa,kóra,,0
13221145409,"Kashubian: CW",54.34611,17.89167,6240,root,koren_,koren_,,ˈkʰwɛʐɘ̟ɲ,kòrzéń,,0
13221145409,"Kashubian: CW",54.34611,17.89167,6270,thorn,tyorn,tyorn,,tsɘ̟ɾɲ,"cérniô, cérzniô",,0
13221145409,"Kashubian: CW",54.34611,17.89167,6310,grass,trava,trava,,ˈtɾɘ̟va̠,trôwa,,0
13221145409,"Kashubian: CW",54.34611,17.89167,5850,wind,veter,veter,,ˈvʲjatɛ̆ɾ,wiater,,0
13221145409,"Kashubian: CW",54.34611,17.89167,5920,thunder,grom,grom,,ɡɾɔm,"grom / grzmòt",,0
13221145409,"Kashubian: CW",54.34611,17.89167,6070,grain,zerno,zerno,,ˈzɛɾnɔ,zôrno,,0
13221145409,"Kashubian: CW",54.34611,17.89167,6840,wheel,koleso,koleso,,ˈkʰwœ̠̜wɔ,kòło,,0
13221145409,"Kashubian: CW",54.34611,17.89167,6860,game,igra,igra,,ɡɾɑ̟,gra,,0
13221145409,"Kashubian: CW",54.34611,17.89167,6940,citadel,gorod,gorod,,,gród,,0
13221145409,"Kashubian: CW",54.34611,17.89167,8000,there_is,est_,est_,,jɛ,je,,0
13221145409,"Kashubian: CW",54.34611,17.89167,8130,you_are_falling,padaesh_,padaesh_,,ˈpɑ̟dɘ̟ʃ,"padôsz / pôdôsz",,0
13221145409,"Kashubian: CW",54.34611,17.89167,8320,we_drink,p_yom,p_yom,,ˈpijɛm-ɛ,pijemë,,0
13221145409,"Kashubian: CW",54.34611,17.89167,8430,dead_fem,mertva,mertva,,ˈma̠ɾtfɘ̟,"martwi / ùmarłi",,0
13221145409,"Kashubian: CW",54.34611,17.89167,8480,you_believe,verish_,verish_,,ˈvʲjɛ̝ʐɘ̟ɕ,wierzisz,,0
13221145409,"Kashubian: CW",54.34611,17.89167,8850,he_rubbed,tyor,tyor,,ˈtsa̠ɾw,carł,,0
13221145409,"Kashubian: CW",54.34611,17.89167,8890,we_are_digging,kopaem,kopaem,,kʰʷœ̠pʲĭ̞ɛ̝̆mɛ̠,kòpiemë,,0
13221145409,"Kashubian: CW",54.34611,17.89167,8980,it_froze,zamyorzlo,zamyorzlo,,z̥-mʲjaʐwɔ̝,"zamiarzło / zamarzło",,0
13221145409,"Kashubian: CW",54.34611,17.89167,9100,write_ipv_sg,pishi,pishi,,pʲiɕ,"pisz / piszë",,0
13221145409,"Kashubian: CW",54.34611,17.89167,710,my,moj,moj,,mu̞j,mój,,0
13221145409,"Kashubian: CW",54.34611,17.89167,1230,where,gde,gde,,dzɛ,(g)dze,,0
13221145409,"Kashubian: CW",54.34611,17.89167,1330,there,tam,tam,,tɑ̟m,tam,,0
13221145409,"Kashubian: CW",54.34611,17.89167,1410,at_sea,v_more,v_more,,ˈvmwɛ̠ʐ-u̽,"w mòrzu",,0
13221145409,"Kashubian: CW",54.34611,17.89167,5060,summer,leto,leto,,ˈla̠tɔ,lato,,0
13221156309,"Kashubian: CE",54.27011,18.08258,30,three,tri,tri,,tʂɜ̞,trzë,,0
13221156309,"Kashubian: CE",54.27011,18.08258,40,four,chetyre,chetyre,,ˈʃtɛɾɛ,sztërë,,0
13221156309,"Kashubian: CE",54.27011,18.08258,7210,long,dolgij,dolgij,,ˈdu̟dʑi,dłudżi,,0
13221156309,"Kashubian: CE",54.27011,18.08258,7380,wide,shirokij,shirokij,,ˈʃɛɾɔ̟tɕi,szeroczi,,0
13221156309,"Kashubian: CE",54.27011,18.08258,7410,sharp_fem,ostraya,ostraya,,ˈwɛstɾ-u̟,òstrô,,0
13221156309,"Kashubian: CE",54.27011,18.08258,7520,old,staryj,staryj,,ˈstɑ̟ɾ-i,"stôri, stari",,0
13221156309,"Kashubian: CE",54.27011,18.08258,7650,alive,zhivoj,zhivoj,,ˈʑæ̠vi,żëwi,,0
13221156309,"Kashubian: CE",54.27011,18.08258,7710,good_neut,dobro_,dobro_,,ˈdɔbɾ-ɘ̟,dobré,,0
13221156309,"Kashubian: CE",54.27011,18.08258,7740,true_neut,vernoe,vernoe,,,wiérné,,0
13221156309,"Kashubian: CE",54.27011,18.08258,7910,hot_fem,tyoplaya,tyoplaya,,ˈtsɛpwʊ,cepłô,,0
13221156309,"Kashubian: CE",54.27011,18.08258,7940,wet_neut,mokroe,mokroe,,ˈmʊ̆ɞ̜kʰɾ-ɪ,mòkré,,0
13221156309,"Kashubian: CE",54.27011,18.08258,820,on_the_left,na_levo_,na_levo_,,,"na lewò",,0
13221156309,"Kashubian: CE",54.27011,18.08258,2140,tears,slyozy,slyozy,,wzɐ̟,łzë,,0
13221156309,"Kashubian: CE",54.27011,18.08258,2250,beard,boroda,boroda,,ˈbɾɔda̠,broda,,0
13221156309,"Kashubian: CE",54.27011,18.08258,2310,hands,ruki,ruki,,ˈɾɔtsɛ,rãce,,0
13221156309,"Kashubian: CE",54.27011,18.08258,2610,blood,krov_,krov_,,kɾɛf,krew,,0
13221156309,"Kashubian: CE",54.27011,18.08258,2810,heart,serdce,serdce,,ˈsɛ̠rtsɛ̠,serce,,0
13221156309,"Kashubian: CE",54.27011,18.08258,4330,brother,brat,brat,,bɾɑ̟tʰ,"brat / bracyna",,0
13221156309,"Kashubian: CE",54.27011,18.08258,4332,brothers,brat_ya,brat_ya,,ˈbɾa̠tsa̠,"braca / bracô / bracynowie",,0
13221156309,"Kashubian: CE",54.27011,18.08258,4100,name,imya,imya,,,"miono, jimiã",,0
13221156309,"Kashubian: CE",54.27011,18.08258,4110,words,slova,slova,,ˈsŏɔvɑ̟,słowa,,0
13221156309,"Kashubian: CE",54.27011,18.08258,3240,fish_pl,ryby,ryby,,ˈɾæ̠b-æ̠,rëbë,,0
13221156309,"Kashubian: CE",54.27011,18.08258,3310,cow,korova,korova,,ˈkɾɔvɑ̟,krowa,,0
13221156309,"Kashubian: CE",54.27011,18.08258,3820,horn,rog,rog,,ɾukʰ,róg,,0
13221156309,"Kashubian: CE",54.27011,18.08258,3840,wing,krylo,krylo,,ˈs-kʂi̽dwɔ,"skrzidło / skrzëdło[?]",,0
13221156309,"Kashubian: CE",54.27011,18.08258,3850,feather,pero,pero,,ˈpʰʲu̽ɾɔ,pióro,,0
13221156309,"Kashubian: CE",54.27011,18.08258,5220,rivers,reki,reki,,ˈʐɘ̟tɕi,rzéczi,,0
13221156309,"Kashubian: CE",54.27011,18.08258,5230,lake,ozero,ozero,,ˈjɛ̝zɔ̟ɾɔ,jezoro,,0
13221156309,"Kashubian: CE",54.27011,18.08258,5232,lakes,ozera,ozera,,ˈjɛ̝zɔ̟ɾa̠,jezora,,0
13221156309,"Kashubian: CE",54.27011,18.08258,5240,sea,more,more,,ˈmwɛʐɛ,mòrze,,0
13221156309,"Kashubian: CE",54.27011,18.08258,6230,bark,kora,kora,,ˈkʰɔɾɑ̟,kóra,,0
13221156309,"Kashubian: CE",54.27011,18.08258,6240,root,koren_,koren_,,ˈkwɛʐɪɲ,kòrzéń,,0
13221156309,"Kashubian: CE",54.27011,18.08258,6270,thorn,tyorn,tyorn,,ˈtsɘ̟ʐɲĭ,"cérniô, cérzniô",,0
13221156309,"Kashubian: CE",54.27011,18.08258,6310,grass,trava,trava,,ˈtɾɵ̜vɑ̟,trôwa,,0
13221156309,"Kashubian: CE",54.27011,18.08258,5850,wind,veter,veter,,ˈv̞ʲja̠tɛɾ,wiater,,0
13221156309,"Kashubian: CE",54.27011,18.08258,5920,thunder,grom,grom,,ɡɾɔ̝m,"grom / grzmòt",,0
13221156309,"Kashubian: CE",54.27011,18.08258,6070,grain,zerno,zerno,,ˈzɘ̟ɾnɔ,zôrno,,0
13221156309,"Kashubian: CE",54.27011,18.08258,6840,wheel,koleso,koleso,,ˈkwɛwɔ̝,kòło,,0
13221156309,"Kashubian: CE",54.27011,18.08258,6860,game,igra,igra,,,gra,,0
13221156309,"Kashubian: CE",54.27011,18.08258,6940,citadel,gorod,gorod,,,gród,,0
13221156309,"Kashubian: CE",54.27011,18.08258,8000,there_is,est_,est_,,jɛ,je,,0
13221156309,"Kashubian: CE",54.27011,18.08258,8130,you_are_falling,padaesh_,padaesh_,,ˈpɵdɘ̟ʃ,"padôsz / pôdôsz",,0
13221156309,"Kashubian: CE",54.27011,18.08258,8320,we_drink,p_yom,p_yom,,ˈpi.ɛm-ɛ̠,pijemë,,0
13221156309,"Kashubian: CE",54.27011,18.08258,8430,dead_fem,mertva,mertva,,,"martwi / ùmarłi",,0
13221156309,"Kashubian: CE",54.27011,18.08258,8480,you_believe,verish_,verish_,,ˈvĭ̞ɛʐɘ̟ʃ,wierzisz,,0
13221156309,"Kashubian: CE",54.27011,18.08258,8850,he_rubbed,tyor,tyor,,,carł,,0
13221156309,"Kashubian: CE",54.27011,18.08258,8890,we_are_digging,kopaem,kopaem,,ˈkʊ̆ɞ̜pʰʲjɛmɛ̠,kòpiemë,,0
13221156309,"Kashubian: CE",54.27011,18.08258,8980,it_froze,zamyorzlo,zamyorzlo,,ˈza̠-mɐ̠ɾzwɔ,"zamiarzło / zamarzło",,0
13221156309,"Kashubian: CE",54.27011,18.08258,9100,write_ipv_sg,pishi,pishi,,piʃ,"pisz / piszë",,0
13221156309,"Kashubian: CE",54.27011,18.08258,710,my,moj,moj,,mu̞j,mój,,0
13221156309,"Kashubian: CE",54.27011,18.08258,1230,where,gde,gde,,ɡdzɛ,(g)dze,,0
13221156309,"Kashubian: CE",54.27011,18.08258,1330,there,tam,tam,,ta̠m,tam,,0
13221156309,"Kashubian: CE",54.27011,18.08258,1410,at_sea,v_more,v_more,,ˈvmwɘ̟ʐ-ʉ,"w mòrzu",,0
13221156309,"Kashubian: CE",54.27011,18.08258,5060,summer,leto,leto,,ˈla̠tɔ,lato,,0
13221166309,"Kashubian: SW",54.0302,17.29119,30,three,tri,tri,,tʂɜ,trzë,,0
13221166309,"Kashubian: SW",54.0302,17.29119,40,four,chetyre,chetyre,,ˈtʃtɛɾɘ̟,sztërë,,0
13221166309,"Kashubian: SW",54.0302,17.29119,7210,long,dolgij,dolgij,,ˈdwudʒi,dłudżi,,0
13221166309,"Kashubian: SW",54.0302,17.29119,7380,wide,shirokij,shirokij,,ˈʃɛɾɔ̟tʃi̠,szeroczi,,0
13221166309,"Kashubian: SW",54.0302,17.29119,7410,sharp_fem,ostraya,ostraya,,ˈwɛ̠stɾ-ɪ,òstrô,,0
13221166309,"Kashubian: SW",54.0302,17.29119,7520,old,staryj,staryj,,ˈsta̠ɾ-ɪ,"stôri, stari",,0
13221166309,"Kashubian: SW",54.0302,17.29119,7650,alive,zhivoj,zhivoj,,ˈʐɛ̠vi̽,żëwi,,0
13221166309,"Kashubian: SW",54.0302,17.29119,7710,good_neut,dobro_,dobro_,,ˈdɔbɾ-ɪ,dobré,,0
13221166309,"Kashubian: SW",54.0302,17.29119,7740,true_neut,vernoe,vernoe,,ˈvĭ̠ɛ̠ɾn-i̽,wiérné,,0
13221166309,"Kashubian: SW",54.0302,17.29119,7910,hot_fem,tyoplaya,tyoplaya,,ˈtsepʰu,cepłô,,0
13221166309,"Kashubian: SW",54.0302,17.29119,7940,wet_neut,mokroe,mokroe,,ˈmwɛkɾ-ɪ,mòkré,,0
13221166309,"Kashubian: SW",54.0302,17.29119,820,on_the_left,na_levo_,na_levo_,,,"na lewò",,0
13221166309,"Kashubian: SW",54.0302,17.29119,2140,tears,slyozy,slyozy,,wzɛ̠,łzë,,0
13221166309,"Kashubian: SW",54.0302,17.29119,2250,beard,boroda,boroda,,ˈbɾ̞ɔdɑ̟,broda,,0
13221166309,"Kashubian: SW",54.0302,17.29119,2310,hands,ruki,ruki,,ˈɾɔntsɜ̟,rãce,,0
13221166309,"Kashubian: SW",54.0302,17.29119,2610,blood,krov_,krov_,,kɾe̠f,krew,,0
13221166309,"Kashubian: SW",54.0302,17.29119,2810,heart,serdce,serdce,,ˈsɛ̠ɾtsɜ̟,serce,,0
13221166309,"Kashubian: SW",54.0302,17.29119,4330,brother,brat,brat,,bɾɑ̟tʰ,"brat / bracyna",,0
13221166309,"Kashubian: SW",54.0302,17.29119,4332,brothers,brat_ya,brat_ya,,ˈbɾa̠tsa̠,"braca / bracô / bracynowie",,0
13221166309,"Kashubian: SW",54.0302,17.29119,4100,name,imya,imya,,ˈimjɔ,"miono, jimiã",,0
13221166309,"Kashubian: SW",54.0302,17.29119,4110,words,slova,slova,,ˈswɔ̝vɑ̟,słowa,,0
13221166309,"Kashubian: SW",54.0302,17.29119,3240,fish_pl,ryby,ryby,,ˈɾɛ̠b-ɛ̠,rëbë,,0
13221166309,"Kashubian: SW",54.0302,17.29119,3310,cow,korova,korova,,ˈkʰɾɔvɑ̟,krowa,,0
13221166309,"Kashubian: SW",54.0302,17.29119,3820,horn,rog,rog,,ɾukʰ,róg,,0
13221166309,"Kashubian: SW",54.0302,17.29119,3840,wing,krylo,krylo,,ˈs-kʂɘ̟dwɔ,"skrzidło / skrzëdło[?]",,0
13221166309,"Kashubian: SW",54.0302,17.29119,3850,feather,pero,pero,,ˈpʰʲjuɾ̞ɔ,pióro,,0
13221166309,"Kashubian: SW",54.0302,17.29119,5220,rivers,reki,reki,,ˈʐɘ̟̆ɪ̆tɕɛ,rzéczi,,0
13221166309,"Kashubian: SW",54.0302,17.29119,5230,lake,ozero,ozero,,ˈjɛ̽zəɾɔ,jezoro,,0
13221166309,"Kashubian: SW",54.0302,17.29119,5232,lakes,ozera,ozera,,jɛ̽ˈzɔ̟ɾ̞ɑ̟,jezora,,0
13221166309,"Kashubian: SW",54.0302,17.29119,5240,sea,more,more,,ˈmwɛ̠ʐɛ̠,mòrze,,0
13221166309,"Kashubian: SW",54.0302,17.29119,6230,bark,kora,kora,,ˈkʰɔɾɑ̟,kóra,,0
13221166309,"Kashubian: SW",54.0302,17.29119,6240,root,koren_,koren_,,ˈkʷwɜʐɘ̟n,kòrzéń,,0
13221166309,"Kashubian: SW",54.0302,17.29119,6270,thorn,tyorn,tyorn,,,"cérniô, cérzniô",,0
13221166309,"Kashubian: SW",54.0302,17.29119,6310,grass,trava,trava,,ˈtɾɘ̟vɑ̟,trôwa,,0
13221166309,"Kashubian: SW",54.0302,17.29119,5850,wind,veter,veter,,ˈvʲɪ̆ɑ̟tʰəɾ,wiater,,0
13221166309,"Kashubian: SW",54.0302,17.29119,5920,thunder,grom,grom,,ɡʐmwɛ̠tʰ,"grom / grzmòt",,1
13221166309,"Kashubian: SW",54.0302,17.29119,6070,grain,zerno,zerno,,ˈzɘ̟ɾnɔ,zôrno,,0
13221166309,"Kashubian: SW",54.0302,17.29119,6840,wheel,koleso,koleso,,ˈkʰwɜwɔ,kòło,,0
13221166309,"Kashubian: SW",54.0302,17.29119,6860,game,igra,igra,,ɡɾɑ̟,gra,,0
13221166309,"Kashubian: SW",54.0302,17.29119,6940,citadel,gorod,gorod,,,gród,,0
13221166309,"Kashubian: SW",54.0302,17.29119,8000,there_is,est_,est_,,jɛ,je,,0
13221166309,"Kashubian: SW",54.0302,17.29119,8130,you_are_falling,padaesh_,padaesh_,,pɘ̟dɘ̟ʃ,"padôsz / pôdôsz",,0
13221166309,"Kashubian: SW",54.0302,17.29119,8320,we_drink,p_yom,p_yom,,ˈpʰʲijɛ̝m-ə̟,pijemë,,0
13221166309,"Kashubian: SW",54.0302,17.29119,8430,dead_fem,mertva,mertva,,ˈmɑ̟ɾtfu̽,"martwi / ùmarłi",,0
13221166309,"Kashubian: SW",54.0302,17.29119,8480,you_believe,verish_,verish_,,ˈvɪ̆ɛ̠ʐɘ̟ʃ,wierzisz,,0
13221166309,"Kashubian: SW",54.0302,17.29119,8850,he_rubbed,tyor,tyor,,,carł,,0
13221166309,"Kashubian: SW",54.0302,17.29119,8890,we_are_digging,kopaem,kopaem,,ˈkʰwɜ̟pĭ̠ɘ̟mɜ̟,kòpiemë,,0
13221166309,"Kashubian: SW",54.0302,17.29119,8980,it_froze,zamyorzlo,zamyorzlo,,ˈzɔ-mɑ̟ɾzwɔ,"zamiarzło / zamarzło",,0
13221166309,"Kashubian: SW",54.0302,17.29119,9100,write_ipv_sg,pishi,pishi,,ˈnɑ̟-pi̠ʃ,"pisz / piszë",,0
13221166309,"Kashubian: SW",54.0302,17.29119,710,my,moj,moj,,mwɘ̟j,mój,,0
13221166309,"Kashubian: SW",54.0302,17.29119,1230,where,gde,gde,,ɡdzɛɪ̆,(g)dze,,0
13221166309,"Kashubian: SW",54.0302,17.29119,1330,there,tam,tam,,tɔm,tam,,0
13221166309,"Kashubian: SW",54.0302,17.29119,1410,at_sea,v_more,v_more,,ˈvmwɜʐ-u,"w mòrzu",,0
13221166309,"Kashubian: SW",54.0302,17.29119,5060,summer,leto,leto,,ˈlɑ̟tɔ,lato,,0
13221177609,"Kashubian: SE",53.87119,17.67553,30,three,tri,tri,,t.ʂʊ̠,trzë,,0
13221177609,"Kashubian: SE",53.87119,17.67553,40,four,chetyre,chetyre,,ˈtʂtʊ̠ɾʊ̠,sztërë,,0
13221177609,"Kashubian: SE",53.87119,17.67553,7210,long,dolgij,dolgij,,ˈduˑdʑi,dłudżi,,0
13221177609,"Kashubian: SE",53.87119,17.67553,7210,long,dolgij,dolgij,,ˈdwudʑi,dłudżi,,0
13221177609,"Kashubian: SE",53.87119,17.67553,7380,wide,shirokij,shirokij,,ˈʂɘ̟ɾɔ̟tɕi,szeroczi,,0
13221177609,"Kashubian: SE",53.87119,17.67553,7410,sharp_fem,ostraya,ostraya,,,òstrô,,0
13221177609,"Kashubian: SE",53.87119,17.67553,7520,old,staryj,staryj,,ˈsta̠ɾ-ɪ,"stôri, stari",,0
13221177609,"Kashubian: SE",53.87119,17.67553,7520,old,staryj,staryj,,ˈsta̠ɾ-i,"stôri, stari",,0
13221177609,"Kashubian: SE",53.87119,17.67553,7650,alive,zhivoj,zhivoj,,ˈʐu̽vi,żëwi,,0
13221177609,"Kashubian: SE",53.87119,17.67553,7710,good_neut,dobro_,dobro_,,ˈdɔbɾ-ɘ̟,dobré,,0
13221177609,"Kashubian: SE",53.87119,17.67553,7740,true_neut,vernoe,vernoe,,ˈvʲjɛɾn-ɘ̟,wiérné,,0
13221177609,"Kashubian: SE",53.87119,17.67553,7910,hot_fem,tyoplaya,tyoplaya,,ˈtsɛ̠pwo,cepłô,,0
13221177609,"Kashubian: SE",53.87119,17.67553,7940,wet_neut,mokroe,mokroe,,,mòkré,,0
13221177609,"Kashubian: SE",53.87119,17.67553,820,on_the_left,na_levo_,na_levo_,,,"na lewò",,0
13221177609,"Kashubian: SE",53.87119,17.67553,2140,tears,slyozy,slyozy,,wzʊ̠,łzë,,0
13221177609,"Kashubian: SE",53.87119,17.67553,2250,beard,boroda,boroda,,ˈbɾɔdɑ̟,broda,,0
13221177609,"Kashubian: SE",53.87119,17.67553,2310,hands,ruki,ruki,,ˈɾa̠ntsɛ̠,rãce,,0
13221177609,"Kashubian: SE",53.87119,17.67553,2610,blood,krov_,krov_,,kɾɛ̠f,krew,,0
13221177609,"Kashubian: SE",53.87119,17.67553,2810,heart,serdce,serdce,,ˈsɘ̟ɾtsɛ̠,serce,,0
13221177609,"Kashubian: SE",53.87119,17.67553,4330,brother,brat,brat,,bɾɑ̟t,"brat / bracyna",,0
13221177609,"Kashubian: SE",53.87119,17.67553,4332,brothers,brat_ya,brat_ya,,ˈbɾɑ̟tsɔ̝,"braca / bracô / bracynowie",,0
13221177609,"Kashubian: SE",53.87119,17.67553,4100,name,imya,imya,,ˈimɲɛ,"miono, jimiã",,0
13221177609,"Kashubian: SE",53.87119,17.67553,4110,words,slova,slova,,ˈswɔvɑ̟,słowa,,0
13221177609,"Kashubian: SE",53.87119,17.67553,3240,fish_pl,ryby,ryby,,ˈrʊ̠b-u̞,rëbë,,0
13221177609,"Kashubian: SE",53.87119,17.67553,3310,cow,korova,korova,,ˈkʰɾɔ̟vɑ̟,krowa,,0
13221177609,"Kashubian: SE",53.87119,17.67553,3820,horn,rog,rog,,ɾu̟kʰ,róg,,0
13221177609,"Kashubian: SE",53.87119,17.67553,3840,wing,krylo,krylo,,ˈs-kʂʊ̠dwɔ,"skrzidło / skrzëdło[?]",,0
13221177609,"Kashubian: SE",53.87119,17.67553,3840,wing,krylo,krylo,,ˈskʂi̠dwɔ,"skrzidło / skrzëdło[?]",,0
13221177609,"Kashubian: SE",53.87119,17.67553,3850,feather,pero,pero,,ˈpɕɵɾɔ̟,pióro,,0
13221177609,"Kashubian: SE",53.87119,17.67553,5220,rivers,reki,reki,,ˈʐɘ̟tɕɛ,rzéczi,,0
13221177609,"Kashubian: SE",53.87119,17.67553,5230,lake,ozero,ozero,,ˈjɛ̝zɔ̟ɾɔ,jezoro,,0
13221177609,"Kashubian: SE",53.87119,17.67553,5232,lakes,ozera,ozera,,ˈjɛ̝zɔ̟ɾɑ̟,jezora,,0
13221177609,"Kashubian: SE",53.87119,17.67553,5240,sea,more,more,,ˈmɔʐɛ,mòrze,,0
13221177609,"Kashubian: SE",53.87119,17.67553,6230,bark,kora,kora,,ˈkʰɔɾɑ̟,kóra,,0
13221177609,"Kashubian: SE",53.87119,17.67553,6240,root,koren_,koren_,,ˈkʰɔʐi̽ɲ,kòrzéń,,0
13221177609,"Kashubian: SE",53.87119,17.67553,6270,thorn,tyorn,tyorn,,,"cérniô, cérzniô",,0
13221177609,"Kashubian: SE",53.87119,17.67553,6310,grass,trava,trava,,ˈtɾo̞vɑ̟,trôwa,,0
13221177609,"Kashubian: SE",53.87119,17.67553,5850,wind,veter,veter,,ˈvjɑ̟tɛ̠ɾ,wiater,,0
13221177609,"Kashubian: SE",53.87119,17.67553,5920,thunder,grom,grom,,ɡɾɔ̝m,"grom / grzmòt",,0
13221177609,"Kashubian: SE",53.87119,17.67553,6070,grain,zerno,zerno,,ˈzɑ̟ɾnɔ,zôrno,,0
13221177609,"Kashubian: SE",53.87119,17.67553,6840,wheel,koleso,koleso,,ˈkʰɔwɔ,kòło,,0
13221177609,"Kashubian: SE",53.87119,17.67553,6860,game,igra,igra,,ɡɾɑ̟,gra,,0
13221177609,"Kashubian: SE",53.87119,17.67553,6940,citadel,gorod,gorod,,ɡɾu̟tʰ,gród,,0
13221177609,"Kashubian: SE",53.87119,17.67553,8000,there_is,est_,est_,,jɛ,je,,0
13221177609,"Kashubian: SE",53.87119,17.67553,8130,you_are_falling,padaesh_,padaesh_,,ˈpɔdɔ̟ʂ,"padôsz / pôdôsz",,0
13221177609,"Kashubian: SE",53.87119,17.67553,8320,we_drink,p_yom,p_yom,,ˈpɕijɘ̟m-ɑ̟,pijemë,,0
13221177609,"Kashubian: SE",53.87119,17.67553,8430,dead_fem,mertva,mertva,,ˈmɑ̟ɾtfo̞,"martwi / ùmarłi",,0
13221177609,"Kashubian: SE",53.87119,17.67553,8480,you_believe,verish_,verish_,,ˈvje̠ʐɘ̟ʃ,wierzisz,,0
13221177609,"Kashubian: SE",53.87119,17.67553,8850,he_rubbed,tyor,tyor,,tɑ̟ɾw,carł,,0
13221177609,"Kashubian: SE",53.87119,17.67553,8890,we_are_digging,kopaem,kopaem,,ˈkʰɔpɕə̟mɑ̟,kòpiemë,,0
13221177609,"Kashubian: SE",53.87119,17.67553,8980,it_froze,zamyorzlo,zamyorzlo,,ˈza̠-mɑ̟ɾzwɔ̝,"zamiarzło / zamarzło",,0
13221177609,"Kashubian: SE",53.87119,17.67553,9100,write_ipv_sg,pishi,pishi,,pɕi̠ʂ,"pisz / piszë",,0
13221177609,"Kashubian: SE",53.87119,17.67553,710,my,moj,moj,,muj,mój,,0
13221177609,"Kashubian: SE",53.87119,17.67553,1230,where,gde,gde,,ɡdzɛ̠,(g)dze,,0
13221177609,"Kashubian: SE",53.87119,17.67553,1330,there,tam,tam,,tɑ̟m,tam,,0
13221177609,"Kashubian: SE",53.87119,17.67553,1410,at_sea,v_more,v_more,,ˈvmɔʐ-u̟,"w mòrzu",,0
13221177609,"Kashubian: SE",53.87119,17.67553,5060,summer,leto,leto,,lɑ̟tɔ,lato,,0
13231100008,"Sorbian Upper: Std",51.18139,14.42417,30,three,tri,tri,,tsʲi,tři,,0
13231100008,"Sorbian Upper: Std",51.18139,14.42417,40,four,chetyre,chetyre,,ˈʃtɘʁ̞i̞,štyri,,0
13231100008,"Sorbian Upper: Std",51.18139,14.42417,7210,long,dolgij,dolgij,,ˈdʊ.i,dołhi,,0
13231100008,"Sorbian Upper: Std",51.18139,14.42417,7380,wide,shirokij,shirokij,,ˈʃɪ̝ʁ̞ɔk̟ʰi,šěroki,,0
13231100008,"Sorbian Upper: Std",51.18139,14.42417,7410,sharp_fem,ostraya,ostraya,,ˈw̞ʊtχ-ɑ̟,wótra,,0
13231100008,"Sorbian Upper: Std",51.18139,14.42417,7520,old,staryj,staryj,,ˈstɑ̟ˑʀ-ɘ̟,stary,,0
13231100008,"Sorbian Upper: Std",51.18139,14.42417,7650,alive,zhivoj,zhivoj,,ˈʒi̠w̞ə̟,žiwy,,0
13231100008,"Sorbian Upper: Std",51.18139,14.42417,7710,good_neut,dobro_,dobro_,,ˈdɔbʁ̞-ɛ̠,dobre,,0
13231100008,"Sorbian Upper: Std",51.18139,14.42417,7740,true_neut,vernoe,vernoe,,ˈɥɪɐ̠n-ɛ,wěrne,,0
13231100008,"Sorbian Upper: Std",51.18139,14.42417,7910,hot_fem,tyoplaya,tyoplaya,,ˈtʃɔpʍ̞̆ɔ̆ɑ̟,ćopła,,0
13231100008,"Sorbian Upper: Std",51.18139,14.42417,7940,wet_neut,mokroe,mokroe,,ˈmɔk̠χ-ɛ,mokre,,0
13231100008,"Sorbian Upper: Std",51.18139,14.42417,820,on_the_left,na_levo_,na_levo_,,,"nalěwo / zlěwa",,0
13231100008,"Sorbian Upper: Std",51.18139,14.42417,2140,tears,slyozy,slyozy,,ˈsɘ̟lzə̟,sylzy,,0
13231100008,"Sorbian Upper: Std",51.18139,14.42417,2250,beard,boroda,boroda,,ˈbʀɔdɑ̟,broda,,0
13231100008,"Sorbian Upper: Std",51.18139,14.42417,2310,hands,ruki,ruki,,ˈʀutsɛ̠,"ruce, ruki",,0
13231100008,"Sorbian Upper: Std",51.18139,14.42417,2610,blood,krov_,krov_,,kχ̟eː,krej,,0
13231100008,"Sorbian Upper: Std",51.18139,14.42417,2810,heart,serdce,serdce,,ˈw̞utχɔbɑ̟,wutroba,,1
13231100008,"Sorbian Upper: Std",51.18139,14.42417,4330,brother,brat,brat,,b̥ʁ̥ɑ̟tʰ,bratr,,0
13231100008,"Sorbian Upper: Std",51.18139,14.42417,4332,brothers,brat_ya,brat_ya,,ˈbʁ̞ɑ̟tsʲɛ̆ɑ̟,bratřa,,0
13231100008,"Sorbian Upper: Std",51.18139,14.42417,4100,name,imya,imya,,ˈmɛ̝̆ɛnɔ,mjeno,,0
13231100008,"Sorbian Upper: Std",51.18139,14.42417,4110,words,slova,slova,,ˈsw̞ow̞ɑ̟,słowa,,0
13231100008,"Sorbian Upper: Std",51.18139,14.42417,3240,fish_pl,ryby,ryby,,ˈʁɘ̟b-ɘ̟,ryby,,0
13231100008,"Sorbian Upper: Std",51.18139,14.42417,3310,cow,korova,korova,,ˈk̠χu.ɑ̟,kruwa,,0
13231100008,"Sorbian Upper: Std",51.18139,14.42417,3820,horn,rog,rog,,ʀʊ,róh,,0
13231100008,"Sorbian Upper: Std",51.18139,14.42417,3840,wing,krylo,krylo,,ˈk̟ʃi̠dw̞ɔ,křidło,,0
13231100008,"Sorbian Upper: Std",51.18139,14.42417,3850,feather,pero,pero,,ˈpe̽̆ɛʁ̞ɔ,pjero,,0
13231100008,"Sorbian Upper: Std",51.18139,14.42417,5220,rivers,reki,reki,,ʀˈɪ̟kʲi,rěki,,0
13231100008,"Sorbian Upper: Std",51.18139,14.42417,5230,lake,ozero,ozero,,ˈjɪzɔɔˠ,jězor,,0
13231100008,"Sorbian Upper: Std",51.18139,14.42417,5232,lakes,ozera,ozera,,ˈjɪzɔʀɘ̟,jězory,,0
13231100008,"Sorbian Upper: Std",51.18139,14.42417,5240,sea,more,more,,ˈmɔ̝ʁ̞ɜ̆ɔ,morjo,,0
13231100008,"Sorbian Upper: Std",51.18139,14.42417,6230,bark,kora,kora,,ˈs-kʰɔʀɑ̟,skora,,0
13231100008,"Sorbian Upper: Std",51.18139,14.42417,6240,root,koren_,koren_,,kʰɔʁ̞ɛ̝n,korjeń,,0
13231100008,"Sorbian Upper: Std",51.18139,14.42417,6270,thorn,tyorn,tyorn,,tʃɛɐ̠ˠn,ćerń,,0
13231100008,"Sorbian Upper: Std",51.18139,14.42417,6310,grass,trava,trava,,ˈtʰʁɑ̟w̞ɑ̟,trawa,,0
13231100008,"Sorbian Upper: Std",51.18139,14.42417,5850,wind,veter,veter,,ɥ̝ʲĭ̠ɛ̝̆tʰ,"wětr / wětřik",,0
13231100008,"Sorbian Upper: Std",51.18139,14.42417,5850,wind,veter,veter,,ˈɥɪtʰɐ̠̆ɐ̠̆ˠ,"wětr / wětřik",,0
13231100008,"Sorbian Upper: Std",51.18139,14.42417,5920,thunder,grom,grom,,ˈʀimɑ̟nʲɪ̆ɛ̠,hrimanje,,0
13231100008,"Sorbian Upper: Std",51.18139,14.42417,6070,grain,zerno,zerno,,ˈzɔɔˠnɔ,zorno,,0
13231100008,"Sorbian Upper: Std",51.18139,14.42417,6840,wheel,koleso,koleso,,kʰo.ɔ,"koło / koleso",,0
13231100008,"Sorbian Upper: Std",51.18139,14.42417,6860,game,igra,igra,,ʀɑ̟,hra,,0
13231100008,"Sorbian Upper: Std",51.18139,14.42417,6940,citadel,gorod,gorod,,ʀʊtʰ,hród,,0
13231100008,"Sorbian Upper: Std",51.18139,14.42417,8000,there_is,est_,est_,,jɛ,je,,0
13231100008,"Sorbian Upper: Std",51.18139,14.42417,8130,you_are_falling,padaesh_,padaesh_,,ˈpɑ̟dɑ̟ʃ,padaš,,0
13231100008,"Sorbian Upper: Std",51.18139,14.42417,8320,we_drink,p_yom,p_yom,,ˈpʲi.ɛm-ə̟,pijemy,,0
13231100008,"Sorbian Upper: Std",51.18139,14.42417,8430,dead_fem,mertva,mertva,,ˈmɔ̆ɔ̆ˠtʰw̞ɑ̟,"mortwa / morwa",,0
13231100008,"Sorbian Upper: Std",51.18139,14.42417,8430,dead_fem,mertva,mertva,,ˈmɔɔˠw̞ɑ̟,"mortwa / morwa",,0
13231100008,"Sorbian Upper: Std",51.18139,14.42417,8480,you_believe,verish_,verish_,,ˈɥɪʁ̞i̞ʃ,wěriš,,0
13231100008,"Sorbian Upper: Std",51.18139,14.42417,8850,he_rubbed,tyor,tyor,,tʰʁ̞ɘ̟w̞,trěł,,0
13231100008,"Sorbian Upper: Std",51.18139,14.42417,8890,we_are_digging,kopaem,kopaem,,ˈkʰɔpɑ̟mə̟,kopamy,,0
13231100008,"Sorbian Upper: Std",51.18139,14.42417,8980,it_froze,zamyorzlo,zamyorzlo,,ˈzɑ̟-mɘ̟̆ɐ̠zw̞ɔ,zamjerzło,,0
13231100008,"Sorbian Upper: Std",51.18139,14.42417,9100,write_ipv_sg,pishi,pishi,,ˈpʲisaĕ,"pisaj / piš",,0
13231100008,"Sorbian Upper: Std",51.18139,14.42417,710,my,moj,moj,,mʊ̠e,mój,,0
13231100008,"Sorbian Upper: Std",51.18139,14.42417,1230,where,gde,gde,,dʒɛ,hdźe,,0
13231100008,"Sorbian Upper: Std",51.18139,14.42417,1330,there,tam,tam,,tɑ̟m,tam,,0
13231100008,"Sorbian Upper: Std",51.18139,14.42417,1410,at_sea,v_more,v_more,,ˈmɔ̝ʁ̞ɪ̆-u,"w morju",,0
13231100008,"Sorbian Upper: Std",51.18139,14.42417,5060,summer,leto,leto,,ˈlɪtʰɔ,"lěćo, lěto",,0
13231195509,"Sorbian Upper: Cath.",51.23333,14.23333,30,three,tri,tri,,tsi,tři,,0
13231195509,"Sorbian Upper: Cath.",51.23333,14.23333,40,four,chetyre,chetyre,,ˈʃtʰɘʀi,štyri,,0
13231195509,"Sorbian Upper: Cath.",51.23333,14.23333,7210,long,dolgij,dolgij,,dʊj,dołhi,,0
13231195509,"Sorbian Upper: Cath.",51.23333,14.23333,7380,wide,shirokij,shirokij,,ˈʃɘ̟ʁ̞ɔk̟i,šěroki,,0
13231195509,"Sorbian Upper: Cath.",51.23333,14.23333,7410,sharp_fem,ostraya,ostraya,,ˈwʊ̟tʁ̥-a̠,wótra,,0
13231195509,"Sorbian Upper: Cath.",51.23333,14.23333,7410,sharp_fem,ostraya,ostraya,,ˈβʊtʁ̥-ɑ̟,wótra,,0
13231195509,"Sorbian Upper: Cath.",51.23333,14.23333,7520,old,staryj,staryj,,ˈsta̠ʁ̞-ɘ,stary,,0
13231195509,"Sorbian Upper: Cath.",51.23333,14.23333,7650,alive,zhivoj,zhivoj,,ʒiw,žiwy,,0
13231195509,"Sorbian Upper: Cath.",51.23333,14.23333,7710,good_neut,dobro_,dobro_,,ˈd̺̥ɔbʁ̞-ɛ̠,dobre,,0
13231195509,"Sorbian Upper: Cath.",51.23333,14.23333,7740,true_neut,vernoe,vernoe,,ˈwɪɐ̆ˠn-ɛ,wěrne,,0
13231195509,"Sorbian Upper: Cath.",51.23333,14.23333,7910,hot_fem,tyoplaya,tyoplaya,,ˈtʃɔ̟pw̥̬a̠,ćopła,,0
13231195509,"Sorbian Upper: Cath.",51.23333,14.23333,7940,wet_neut,mokroe,mokroe,,ˈmo̞kʁ̥-ɛ̠,mokre,,0
13231195509,"Sorbian Upper: Cath.",51.23333,14.23333,820,on_the_left,na_levo_,na_levo_,,,"nalěwo / zlěwa",,0
13231195509,"Sorbian Upper: Cath.",51.23333,14.23333,2140,tears,slyozy,slyozy,,ˈsɘ̟lzɛ̠,sylzy,,0
13231195509,"Sorbian Upper: Cath.",51.23333,14.23333,2250,beard,boroda,boroda,,bʁ̞ɔ̟da̠,broda,,0
13231195509,"Sorbian Upper: Cath.",51.23333,14.23333,2310,hands,ruki,ruki,,ˈʁ̞utsɛ,"ruce, ruki",,0
13231195509,"Sorbian Upper: Cath.",51.23333,14.23333,2610,blood,krov_,krov_,,ˈkʁ̟̥e.a̠,krej,,0
13231195509,"Sorbian Upper: Cath.",51.23333,14.23333,2810,heart,serdce,serdce,,wu̽tʁ̥ɔbɑ̟,wutroba,,1
13231195509,"Sorbian Upper: Cath.",51.23333,14.23333,4330,brother,brat,brat,,b̥ʁ̞a̠t,bratr,,0
13231195509,"Sorbian Upper: Cath.",51.23333,14.23333,4332,brothers,brat_ya,brat_ya,,ˈb̥ʁ̞̥a̠tʁ̞̥ɛ,bratřa,,0
13231195509,"Sorbian Upper: Cath.",51.23333,14.23333,4100,name,imya,imya,,ˈmɛnɔ,mjeno,,1
13231195509,"Sorbian Upper: Cath.",51.23333,14.23333,4110,words,slova,slova,,ˈswo.ɑ̟,słowa,,0
13231195509,"Sorbian Upper: Cath.",51.23333,14.23333,3240,fish_pl,ryby,ryby,,ˈʁɘ̠b-u,ryby,,0
13231195509,"Sorbian Upper: Cath.",51.23333,14.23333,3310,cow,korova,korova,,ˈkʰu.a̠,kruwa,,0
13231195509,"Sorbian Upper: Cath.",51.23333,14.23333,3310,cow,korova,korova,,ˈkʁ̞̥u.ɑ̟,kruwa,,0
13231195509,"Sorbian Upper: Cath.",51.23333,14.23333,3820,horn,rog,rog,,ʁʊ,róh,,0
13231195509,"Sorbian Upper: Cath.",51.23333,14.23333,3840,wing,krylo,krylo,,ˈkʃidw̞ɔ,křidło,,0
13231195509,"Sorbian Upper: Cath.",51.23333,14.23333,3850,feather,pero,pero,,ˈpɛʁɔ,pjero,,0
13231195509,"Sorbian Upper: Cath.",51.23333,14.23333,3850,feather,pero,pero,,ˈpɘ̟ʁ̞ɔ,pjero,,0
13231195509,"Sorbian Upper: Cath.",51.23333,14.23333,5220,rivers,reki,reki,,ˈʁ̞̥ɘ̟k̟i,rěki,,0
13231195509,"Sorbian Upper: Cath.",51.23333,14.23333,5230,lake,ozero,ozero,,ˈjɘ̟zɔ,jězor,,0
13231195509,"Sorbian Upper: Cath.",51.23333,14.23333,5232,lakes,ozera,ozera,,ˈjɘ̟zɔʁ̞ɛ,jězory,,0
13231195509,"Sorbian Upper: Cath.",51.23333,14.23333,5240,sea,more,more,,ˈmɔʁ̞ɪ̆ɔ,morjo,,0
13231195509,"Sorbian Upper: Cath.",51.23333,14.23333,6230,bark,kora,kora,,ˈs-kɔʁ̞a̠,skora,,0
13231195509,"Sorbian Upper: Cath.",51.23333,14.23333,6240,root,koren_,koren_,,ˈkɔʁ̞ɛ̠n,korjeń,,0
13231195509,"Sorbian Upper: Cath.",51.23333,14.23333,6270,thorn,tyorn,tyorn,,tʃɐn,ćerń,,0
13231195509,"Sorbian Upper: Cath.",51.23333,14.23333,6310,grass,trava,trava,,ˈtʁ̞̥ɑ̟wa̠,trawa,,0
13231195509,"Sorbian Upper: Cath.",51.23333,14.23333,5850,wind,veter,veter,,ˈv̞ɘ̟tɔˠˑ,"wětr / wětřik",,0
13231195509,"Sorbian Upper: Cath.",51.23333,14.23333,5920,thunder,grom,grom,,ˈʁ̞i̽mɔtʰ,hrimanje,,0
13231195509,"Sorbian Upper: Cath.",51.23333,14.23333,6070,grain,zerno,zerno,,ˈz̥̬ɔˠˑnɔ,zorno,,0
13231195509,"Sorbian Upper: Cath.",51.23333,14.23333,6840,wheel,koleso,koleso,,ˈko.ɔ,"koło / koleso",,0
13231195509,"Sorbian Upper: Cath.",51.23333,14.23333,6860,game,igra,igra,,ʁ̞̥a̠,hra,,0
13231195509,"Sorbian Upper: Cath.",51.23333,14.23333,6940,citadel,gorod,gorod,,ʁ̞ʊ̟tʰ,hród,,0
13231195509,"Sorbian Upper: Cath.",51.23333,14.23333,8000,there_is,est_,est_,,jɛ,je,,0
13231195509,"Sorbian Upper: Cath.",51.23333,14.23333,8130,you_are_falling,padaesh_,padaesh_,,ˈpa̠nɘ̟ʃ,padaš,,0
13231195509,"Sorbian Upper: Cath.",51.23333,14.23333,8320,we_drink,p_yom,p_yom,,ˈpʲi.ɛm-ɔ,pijemy,,0
13231195509,"Sorbian Upper: Cath.",51.23333,14.23333,8430,dead_fem,mertva,mertva,,ˈmɔʁ̞u,"mortwa / morwa",,0
13231195509,"Sorbian Upper: Cath.",51.23333,14.23333,8480,you_believe,verish_,verish_,,ˈv̞ɪ̠ʁ̞i̽ʃ,wěriš,,0
13231195509,"Sorbian Upper: Cath.",51.23333,14.23333,8850,he_rubbed,tyor,tyor,,tʁ̥ɪw,trěł,,0
13231195509,"Sorbian Upper: Cath.",51.23333,14.23333,8890,we_are_digging,kopaem,kopaem,,ˈkɔ̝pa̠mɔ,kopamy,,0
13231195509,"Sorbian Upper: Cath.",51.23333,14.23333,8980,it_froze,zamyorzlo,zamyorzlo,,ˈzɑ̟-mɐ̟zwɔ,zamjerzło,,0
13231195509,"Sorbian Upper: Cath.",51.23333,14.23333,9100,write_ipv_sg,pishi,pishi,,pʲi̠ʃ,"pisaj / piš",,0
13231195509,"Sorbian Upper: Cath.",51.23333,14.23333,710,my,moj,moj,,mʊ̠j,mój,,0
13231195509,"Sorbian Upper: Cath.",51.23333,14.23333,1230,where,gde,gde,,d̥ʒ̥ɛ,hdźe,,0
13231195509,"Sorbian Upper: Cath.",51.23333,14.23333,1330,there,tam,tam,,ta̠m,tam,,0
13231195509,"Sorbian Upper: Cath.",51.23333,14.23333,1410,at_sea,v_more,v_more,,ˈmɔʁ̞ɪ̆-u̟,"w morju",,0
13231195509,"Sorbian Upper: Cath.",51.23333,14.23333,5060,summer,leto,leto,,lɘ̟tʰɔ̟,"lěćo, lěto",,0
13231300008,"Sorbian Lower: Std",51.76056,14.33417,30,three,tri,tri,,tɕi,tśi,,0
13231300008,"Sorbian Lower: Std",51.76056,14.33417,40,four,chetyre,chetyre,,ˈstɘ̟ɾ̞i,styri,,0
13231300008,"Sorbian Lower: Std",51.76056,14.33417,7210,long,dolgij,dolgij,,ˈdwɘ̟̆ĭkʲi,dłujki,,0
13231300008,"Sorbian Lower: Std",51.76056,14.33417,7380,wide,shirokij,shirokij,,ˈʂɘɾ̞ɔk̟i,šyroki,,0
13231300008,"Sorbian Lower: Std",51.76056,14.33417,7410,sharp_fem,ostraya,ostraya,,ˈv̞ɘtʂ-ɑ̟,wótša,,0
13231300008,"Sorbian Lower: Std",51.76056,14.33417,7520,old,staryj,staryj,,ˈstɑ̟ɾ-ɘ̟,stary,,0
13231300008,"Sorbian Lower: Std",51.76056,14.33417,7650,alive,zhivoj,zhivoj,,ˈʐɘ̟ŭ̟ɘ̟,žywy,,0
13231300008,"Sorbian Lower: Std",51.76056,14.33417,7710,good_neut,dobro_,dobro_,,ˈdɔbɹ-ə̟,dobre,,0
13231300008,"Sorbian Lower: Std",51.76056,14.33417,7740,true_neut,vernoe,vernoe,,ˈvʲĭ̠ə̆ɾ̃ⁿn-ɘ̟,wěrne,,0
13231300008,"Sorbian Lower: Std",51.76056,14.33417,7910,hot_fem,tyoplaya,tyoplaya,,ˈɕɔpw̞ɑ̟,śopła,,0
13231300008,"Sorbian Lower: Std",51.76056,14.33417,7940,wet_neut,mokroe,mokroe,,ˈmɔkʂ-ə̟,mókše,,0
13231300008,"Sorbian Lower: Std",51.76056,14.33417,820,on_the_left,na_levo_,na_levo_,,,nalěwo,,0
13231300008,"Sorbian Lower: Std",51.76056,14.33417,2140,tears,slyozy,slyozy,,dzɘ̟,łdzy,,0
13231300008,"Sorbian Lower: Std",51.76056,14.33417,2250,beard,boroda,boroda,,ˈbɹɔ̟dɑ̟,broda,,0
13231300008,"Sorbian Lower: Std",51.76056,14.33417,2310,hands,ruki,ruki,,ˈɹ̞utsə,"ruce, ruki",,0
13231300008,"Sorbian Lower: Std",51.76056,14.33417,2610,blood,krov_,krov_,,kʂe̠j,kšej,,0
13231300008,"Sorbian Lower: Std",51.76056,14.33417,2810,heart,serdce,serdce,,ˈutʂɔbɑ̟,wutšoba,,1
13231300008,"Sorbian Lower: Std",51.76056,14.33417,4330,brother,brat,brat,,bɹɑ̟tʂ,bratš,,0
13231300008,"Sorbian Lower: Std",51.76056,14.33417,4332,brothers,brat_ya,brat_ya,,ˈbɹɑ̟˞tʂɘ̟,bratšy,,0
13231300008,"Sorbian Lower: Std",51.76056,14.33417,4100,name,imya,imya,,mʲjɛ̽,mě,,0
13231300008,"Sorbian Lower: Std",51.76056,14.33417,4110,words,slova,slova,,ˈswo.ɑ̟,słowa,,0
13231300008,"Sorbian Lower: Std",51.76056,14.33417,3240,fish_pl,ryby,ryby,,ˈrɘb-ɘ̟,ryby,,0
13231300008,"Sorbian Lower: Std",51.76056,14.33417,3310,cow,korova,korova,,ˈkr̥u.ɑ̟,krowa,,0
13231300008,"Sorbian Lower: Std",51.76056,14.33417,3820,horn,rog,rog,,ɾɔkʰ,rog,,0
13231300008,"Sorbian Lower: Std",51.76056,14.33417,3840,wing,krylo,krylo,,ˈkɕidwɔ̝,kśidło,,0
13231300008,"Sorbian Lower: Std",51.76056,14.33417,3850,feather,pero,pero,,ˈpʲjɛ̠ɾɔ,pjero,,0
13231300008,"Sorbian Lower: Std",51.76056,14.33417,5220,rivers,reki,reki,,ˈɾ̞ɪkʲi,rěki,,0
13231300008,"Sorbian Lower: Std",51.76056,14.33417,5230,lake,ozero,ozero,,ˈjɑ̟zɔɹɔ,"jazor / jazoro",,0
13231300008,"Sorbian Lower: Std",51.76056,14.33417,5232,lakes,ozera,ozera,,ˈjɑ̟zɔɾ̞ɑ̟,"jazory / jazera",,0
13231300008,"Sorbian Lower: Std",51.76056,14.33417,5240,sea,more,more,,ˈmɜɹɘ̆ɔ,mórjo,,0
13231300008,"Sorbian Lower: Std",51.76056,14.33417,6230,bark,kora,kora,,ˈʂ-kɵ̜ɹɑ̟,škóra,,0
13231300008,"Sorbian Lower: Std",51.76056,14.33417,6240,root,koren_,koren_,,ˈkʰɘɾ̞en,kórjeń,,0
13231300008,"Sorbian Lower: Std",51.76056,14.33417,6270,thorn,tyorn,tyorn,,ɕɛɜ̟̆n,śerń,,0
13231300008,"Sorbian Lower: Std",51.76056,14.33417,6310,grass,trava,trava,,ˈtʂɑ̟ŏ̞ɑ̟,tšawa,,0
13231300008,"Sorbian Lower: Std",51.76056,14.33417,5850,wind,veter,veter,,ɥɪtʂ,wětš,,0
13231300008,"Sorbian Lower: Std",51.76056,14.33417,5920,thunder,grom,grom,,ˈɡɹʲi̠mɐɲɛ,grimanje,,0
13231300008,"Sorbian Lower: Std",51.76056,14.33417,6070,grain,zerno,zerno,,ˈzɛ̠ɹŋkɔ,zernko,,0
13231300008,"Sorbian Lower: Std",51.76056,14.33417,6840,wheel,koleso,koleso,,ˈkʰowɔ,"kòlaso / koło",,0
13231300008,"Sorbian Lower: Std",51.76056,14.33417,6860,game,igra,igra,,ˈɡɾ̞ɑ̟ɕɛ,"graśe / gra",,0
13231300008,"Sorbian Lower: Std",51.76056,14.33417,6940,citadel,gorod,gorod,,ɡɾ̞ɔtʰ,grod,,0
13231300008,"Sorbian Lower: Std",51.76056,14.33417,8000,there_is,est_,est_,,jɔ,jo,,0
13231300008,"Sorbian Lower: Std",51.76056,14.33417,8130,you_are_falling,padaesh_,padaesh_,,ˈpɑ̟dɑ̟ʂ,padaš,,0
13231300008,"Sorbian Lower: Std",51.76056,14.33417,8320,we_drink,p_yom,p_yom,,ˈpi.ɔm-ə̟,pijomy,,0
13231300008,"Sorbian Lower: Std",51.76056,14.33417,8430,dead_fem,mertva,mertva,,ˈmɑ̟ɹwɘ,marły,,0
13231300008,"Sorbian Lower: Std",51.76056,14.33417,8480,you_believe,verish_,verish_,,ˈɥ̝ɘ̟ɹ̞ʲiʂ,wěriš,,0
13231300008,"Sorbian Lower: Std",51.76056,14.33417,8850,he_rubbed,tyor,tyor,,tɾɪw,trěł,,0
13231300008,"Sorbian Lower: Std",51.76056,14.33417,8890,we_are_digging,kopaem,kopaem,,ˈkʰɔpʲʏ̆ɔmɘ̟,kopjomy,,0
13231300008,"Sorbian Lower: Std",51.76056,14.33417,8980,it_froze,zamyorzlo,zamyorzlo,,ˈzmɑ̟ɾznu.ɔ,zamarznuło,,0
13231300008,"Sorbian Lower: Std",51.76056,14.33417,9100,write_ipv_sg,pishi,pishi,,pʰʲiʂ,piš,,0
13231300008,"Sorbian Lower: Std",51.76056,14.33417,710,my,moj,moj,,mœ̜j,mój,,0
13231300008,"Sorbian Lower: Std",51.76056,14.33417,1230,where,gde,gde,,ʑɔ,źo,,0
13231300008,"Sorbian Lower: Std",51.76056,14.33417,1330,there,tam,tam,,tɑ̟m,tam,,0
13231300008,"Sorbian Lower: Std",51.76056,14.33417,1410,at_sea,v_more,v_more,,ˈmɜɾj-u,"w mórju",,0
13231300008,"Sorbian Lower: Std",51.76056,14.33417,5060,summer,leto,leto,,ˈlʲɪtɔ,"lěśe / lěto",,0
13251000008,"Czech: Std",50.08333,14.41667,30,three,tri,tri,,tɾ̝̥ɪ,tři,,0
13251000008,"Czech: Std",50.08333,14.41667,40,four,chetyre,chetyre,,ˈtʃtɘ̟ɾ̝ɪ,čtyři,,0
13251000008,"Czech: Std",50.08333,14.41667,7210,long,dolgij,dolgij,,ˈd̺lˠɔ̝uɦiː,dlouhý,,0
13251000008,"Czech: Std",50.08333,14.41667,7380,wide,shirokij,shirokij,,ˈʃɪɾɔkʰʲiː,široký,,0
13251000008,"Czech: Std",50.08333,14.41667,7410,sharp_fem,ostraya,ostraya,,ˈɔstɾ-ɑ̟ː,ostrá,,0
13251000008,"Czech: Std",50.08333,14.41667,7520,old,staryj,staryj,,ˈsta̠ɾ-iˑ,starý,,0
13251000008,"Czech: Std",50.08333,14.41667,7650,alive,zhivoj,zhivoj,,ˈʒ̬̥i̠viː,živý,,0
13251000008,"Czech: Std",50.08333,14.41667,7710,good_neut,dobro_,dobro_,,ˈd̺̬̥ɔb̬̥ɾ-ɛː,dobré,,0
13251000008,"Czech: Std",50.08333,14.41667,7740,true_neut,vernoe,vernoe,,ˈvʲjɛrn-ɛː,věrné,,0
13251000008,"Czech: Std",50.08333,14.41667,7910,hot_fem,tyoplaya,tyoplaya,,ˈtɛ̠plˠɑː,teplá,,0
13251000008,"Czech: Std",50.08333,14.41667,7940,wet_neut,mokroe,mokroe,,ˈmɔ̝kɾ-ɛː,mokré,,0
13251000008,"Czech: Std",50.08333,14.41667,820,on_the_left,na_levo_,na_levo_,,,"nalevo / zleva",,0
13251000008,"Czech: Std",50.08333,14.41667,2140,tears,slyozy,slyozy,,ˈsl̩zɪ,slzy,,0
13251000008,"Czech: Std",50.08333,14.41667,2250,beard,boroda,boroda,,ˈbɾɑ̟dɑ̟,brada,,0
13251000008,"Czech: Std",50.08333,14.41667,2310,hands,ruki,ruki,,ˈru̟tsɛ̠,ruce,,0
13251000008,"Czech: Std",50.08333,14.41667,2610,blood,krov_,krov_,,krɛf,krev,,0
13251000008,"Czech: Std",50.08333,14.41667,2810,heart,serdce,serdce,,ˈsɾ̩tsɛ,srdce,,0
13251000008,"Czech: Std",50.08333,14.41667,4330,brother,brat,brat,,ˈb̬̥ɾɑ̟tr̩,bratr,,0
13251000008,"Czech: Std",50.08333,14.41667,4332,brothers,brat_ya,brat_ya,,ˈb̬̥ɾɑ̟tɾ̝̥ɪ,bratři,,0
13251000008,"Czech: Std",50.08333,14.41667,4100,name,imya,imya,,ˈjmɛːnɔ,jméno,,0
13251000008,"Czech: Std",50.08333,14.41667,4110,words,slova,slova,,ˈslˠɔvɑ,slova,,0
13251000008,"Czech: Std",50.08333,14.41667,3240,fish_pl,ryby,ryby,,ˈrɪb-ɪ̠,ryby,,0
13251000008,"Czech: Std",50.08333,14.41667,3310,cow,korova,korova,,ˈkɾɑːv̞ɑ,kráva,,0
13251000008,"Czech: Std",50.08333,14.41667,3820,horn,rog,rog,,rɔx,roh,,0
13251000008,"Czech: Std",50.08333,14.41667,3840,wing,krylo,krylo,,ˈkʰɾ̝̥i̠ːd̺ˡlˠɔ,křídlo,,0
13251000008,"Czech: Std",50.08333,14.41667,3850,feather,pero,pero,,ˈpɛːɾɔ,péro,,0
13251000008,"Czech: Std",50.08333,14.41667,5220,rivers,reki,reki,,ˈɾ̝̬̥ɛk̟i̠,řeky,,0
13251000008,"Czech: Std",50.08333,14.41667,5230,lake,ozero,ozero,,ˈjɛ̝z̥ɛ̠ɾɔ,jezero,,0
13251000008,"Czech: Std",50.08333,14.41667,5232,lakes,ozera,ozera,,ˈjɛ̝z̥ɛɾɑ,jezera,,0
13251000008,"Czech: Std",50.08333,14.41667,5240,sea,more,more,,ˈmɔʐ̥ɛ,moře,,0
13251000008,"Czech: Std",50.08333,14.41667,6230,bark,kora,kora,,ˈkʰuːɾɑ̟,kůra,,0
13251000008,"Czech: Std",50.08333,14.41667,6240,root,koren_,koren_,,ˈkɔɾ̝̥ɛ̠n,kořen,,0
13251000008,"Czech: Std",50.08333,14.41667,6270,thorn,tyorn,tyorn,,ˈtr̩nə̆,trn,,0
13251000008,"Czech: Std",50.08333,14.41667,6310,grass,trava,trava,,ˈtɾɑ̟ːv̞ɑ,tráva,,0
13251000008,"Czech: Std",50.08333,14.41667,5850,wind,veter,veter,,ˈv̝i̠̝ːtɾə,vítr,,0
13251000008,"Czech: Std",50.08333,14.41667,5920,thunder,grom,grom,,ɦɾɔm,hrom,,0
13251000008,"Czech: Std",50.08333,14.41667,6070,grain,zerno,zerno,,ˈz̬̥r̩nɔ,zrno,,0
13251000008,"Czech: Std",50.08333,14.41667,6840,wheel,koleso,koleso,,ˈkɔlˠɔ,"kolo / koleso",,0
13251000008,"Czech: Std",50.08333,14.41667,6860,game,igra,igra,,ɦɾɑ̟,hra,,0
13251000008,"Czech: Std",50.08333,14.41667,6940,citadel,gorod,gorod,,ɦɾɑ̟tʰ,hrad,,0
13251000008,"Czech: Std",50.08333,14.41667,8000,there_is,est_,est_,,jɛ,je,,0
13251000008,"Czech: Std",50.08333,14.41667,8130,you_are_falling,padaesh_,padaesh_,,ˈpɑd̺ɑ̟ːʃ,padáš,,0
13251000008,"Czech: Std",50.08333,14.41667,8320,we_drink,p_yom,p_yom,,ˈpi̽.ɛ̝m-ɛ̠,pijeme,,0
13251000008,"Czech: Std",50.08333,14.41667,8430,dead_fem,mertva,mertva,,ˈmɾ̩tvɑː,mrtvá,,0
13251000008,"Czech: Std",50.08333,14.41667,8480,you_believe,verish_,verish_,,ˈvje̞ɾ̝̥i̠ːʃ,věříš,,0
13251000008,"Czech: Std",50.08333,14.41667,8850,he_rubbed,tyor,tyor,,tɾ̝̥ɛ̠lˠ,třel,,0
13251000008,"Czech: Std",50.08333,14.41667,8890,we_are_digging,kopaem,kopaem,,ˈkɔpɛ̠mɛ,kopeme,,0
13251000008,"Czech: Std",50.08333,14.41667,8980,it_froze,zamyorzlo,zamyorzlo,,ˈz-mɾ̩z̥lˠɔ,zamrzlo,,0
13251000008,"Czech: Std",50.08333,14.41667,9100,write_ipv_sg,pishi,pishi,,pi̠ʃ,piš,,0
13251000008,"Czech: Std",50.08333,14.41667,710,my,moj,moj,,muːj,můj,,0
13251000008,"Czech: Std",50.08333,14.41667,1230,where,gde,gde,,ɡ̬̥dɛ,kde,,0
13251000008,"Czech: Std",50.08333,14.41667,1330,there,tam,tam,,tɑ̟m,tam,,0
13251000008,"Czech: Std",50.08333,14.41667,1410,at_sea,v_more,v_more,,ˈvmɔɾ̝̥-ɪ,"v moři",,0
13251000008,"Czech: Std",50.08333,14.41667,5060,summer,leto,leto,,ˈlˠɛːtɔ,léto,,0
13251000507,"Czech: Std (Plzeň)",49.7475,13.3775,30,three,tri,tri,,tɾ̝̥i̽,tři,,0
13251000507,"Czech: Std (Plzeň)",49.7475,13.3775,40,four,chetyre,chetyre,,ˈtʃtɪɾ̝̥ɪ,čtyři,,0
13251000507,"Czech: Std (Plzeň)",49.7475,13.3775,7210,long,dolgij,dolgij,,ˈd̺̬̥lɔu̞ɦiˑ,dlouhý,,0
13251000507,"Czech: Std (Plzeň)",49.7475,13.3775,7380,wide,shirokij,shirokij,,ˈʃɘ̟ɾɔ̟kʰʲiˑ,široký,,0
13251000507,"Czech: Std (Plzeň)",49.7475,13.3775,7410,sharp_fem,ostraya,ostraya,,ˈɔstɾ-a̠ˑ,ostrá,,0
13251000507,"Czech: Std (Plzeň)",49.7475,13.3775,7520,old,staryj,staryj,,ˈsta̠ɾ-iː,starý,,0
13251000507,"Czech: Std (Plzeň)",49.7475,13.3775,7650,alive,zhivoj,zhivoj,,ˈʒi̽viˑ,živý,,0
13251000507,"Czech: Std (Plzeň)",49.7475,13.3775,7710,good_neut,dobro_,dobro_,,d̺̬̥ɔ̟bɾ-ɛː,dobré,,0
13251000507,"Czech: Std (Plzeň)",49.7475,13.3775,7740,true_neut,vernoe,vernoe,,ˈvjɛrn-ɛː,věrné,,0
13251000507,"Czech: Std (Plzeň)",49.7475,13.3775,7910,hot_fem,tyoplaya,tyoplaya,,ˈtɛplɑ̟ː,teplá,,0
13251000507,"Czech: Std (Plzeň)",49.7475,13.3775,7940,wet_neut,mokroe,mokroe,,ˈmɔkɾ-ɛː,mokré,,0
13251000507,"Czech: Std (Plzeň)",49.7475,13.3775,820,on_the_left,na_levo_,na_levo_,,,"nalevo / zleva",,0
13251000507,"Czech: Std (Plzeň)",49.7475,13.3775,2140,tears,slyozy,slyozy,,ˈsl̩zɪ̟,slzy,,0
13251000507,"Czech: Std (Plzeň)",49.7475,13.3775,2250,beard,boroda,boroda,,ˈbɾa̠d̺̬̥a̠,brada,,0
13251000507,"Czech: Std (Plzeň)",49.7475,13.3775,2250,beard,boroda,boroda,,ˈbɾa̠d̺̬̥ka̠,brada,,0
13251000507,"Czech: Std (Plzeň)",49.7475,13.3775,2310,hands,ruki,ruki,,ˈɾutsɛ̠,ruce,,0
13251000507,"Czech: Std (Plzeň)",49.7475,13.3775,2610,blood,krov_,krov_,,kɾɛf,krev,,0
13251000507,"Czech: Std (Plzeň)",49.7475,13.3775,2810,heart,serdce,serdce,,,srdce,,0
13251000507,"Czech: Std (Plzeň)",49.7475,13.3775,4330,brother,brat,brat,,ˈbɾa̠tɾə,bratr,,0
13251000507,"Czech: Std (Plzeň)",49.7475,13.3775,4332,brothers,brat_ya,brat_ya,,ˈbɾa̠tɾ̝̥i̽,bratři,,0
13251000507,"Czech: Std (Plzeň)",49.7475,13.3775,4100,name,imya,imya,,ˈjmɛːnɔ,jméno,,0
13251000507,"Czech: Std (Plzeň)",49.7475,13.3775,4110,words,slova,slova,,ˈslɔv̝ɑ̟,slova,,0
13251000507,"Czech: Std (Plzeň)",49.7475,13.3775,3240,fish_pl,ryby,ryby,,ˈɾɪb-ɪ̟,ryby,,0
13251000507,"Czech: Std (Plzeň)",49.7475,13.3775,3310,cow,korova,korova,,ˈkɾɑ̟ːvɐ̠,kráva,,0
13251000507,"Czech: Std (Plzeň)",49.7475,13.3775,3820,horn,rog,rog,,ɾɔx,roh,,0
13251000507,"Czech: Std (Plzeň)",49.7475,13.3775,3840,wing,krylo,krylo,,ˈkɾ̝̥iːd̺̬̥lɔ,křídlo,,0
13251000507,"Czech: Std (Plzeň)",49.7475,13.3775,3850,feather,pero,pero,,ˈpɛːɾɔ,péro,,0
13251000507,"Czech: Std (Plzeň)",49.7475,13.3775,5220,rivers,reki,reki,,ˈɾ̝̥ɛ̝k̟i̽ˑ,řeky,,0
13251000507,"Czech: Std (Plzeň)",49.7475,13.3775,5230,lake,ozero,ozero,,ˈjɛ̝z̥ɛɾɔ,jezero,,0
13251000507,"Czech: Std (Plzeň)",49.7475,13.3775,5232,lakes,ozera,ozera,,ˈjɛ̝z̥ɛɾa̠,jezera,,0
13251000507,"Czech: Std (Plzeň)",49.7475,13.3775,5240,sea,more,more,,ˈmɔɾ̝̥ɛ,moře,,0
13251000507,"Czech: Std (Plzeň)",49.7475,13.3775,6230,bark,kora,kora,,ˈkuːɾa̠,kůra,,0
13251000507,"Czech: Std (Plzeň)",49.7475,13.3775,6240,root,koren_,koren_,,ˈkɔɾ̝̥ɛn,kořen,,0
13251000507,"Czech: Std (Plzeň)",49.7475,13.3775,6270,thorn,tyorn,tyorn,,tɾ̩n,trn,,0
13251000507,"Czech: Std (Plzeň)",49.7475,13.3775,6310,grass,trava,trava,,ˈtɾɑ̟ːvɑ̟,tráva,,0
13251000507,"Czech: Std (Plzeň)",49.7475,13.3775,5850,wind,veter,veter,,ˈviːtɾə,vítr,,0
13251000507,"Czech: Std (Plzeň)",49.7475,13.3775,5920,thunder,grom,grom,,ɦɾɔm,hrom,,0
13251000507,"Czech: Std (Plzeň)",49.7475,13.3775,6070,grain,zerno,zerno,,ˈzɾ̩nɔ,zrno,,0
13251000507,"Czech: Std (Plzeň)",49.7475,13.3775,6840,wheel,koleso,koleso,,ˈkɔlɔ,"kolo / koleso",,0
13251000507,"Czech: Std (Plzeň)",49.7475,13.3775,6860,game,igra,igra,,ɦɾa̠,hra,,0
13251000507,"Czech: Std (Plzeň)",49.7475,13.3775,6940,citadel,gorod,gorod,,ɦɾa̠t,hrad,,0
13251000507,"Czech: Std (Plzeň)",49.7475,13.3775,8000,there_is,est_,est_,,jɛ,je,,0
13251000507,"Czech: Std (Plzeň)",49.7475,13.3775,8130,you_are_falling,padaesh_,padaesh_,,ˈpa̠da̠ːʃ,padáš,,0
13251000507,"Czech: Std (Plzeň)",49.7475,13.3775,8320,we_drink,p_yom,p_yom,,ˈpijɛm-ɛ,pijeme,,0
13251000507,"Czech: Std (Plzeň)",49.7475,13.3775,8430,dead_fem,mertva,mertva,,ˈmɾ̩tvɑ̟ː,mrtvá,,0
13251000507,"Czech: Std (Plzeň)",49.7475,13.3775,8480,you_believe,verish_,verish_,,ˈv̝je̞ɾ̝̥iːʃ,věříš,,0
13251000507,"Czech: Std (Plzeň)",49.7475,13.3775,8850,he_rubbed,tyor,tyor,,ˈtɾ̝̥ɛlˠ,třel,,0
13251000507,"Czech: Std (Plzeň)",49.7475,13.3775,8890,we_are_digging,kopaem,kopaem,,ˈkɔpɛ̠mɛ,kopeme,,0
13251000507,"Czech: Std (Plzeň)",49.7475,13.3775,8980,it_froze,zamyorzlo,zamyorzlo,,z̬̥mɾ̩zlɔ,zamrzlo,,0
13251000507,"Czech: Std (Plzeň)",49.7475,13.3775,8980,it_froze,zamyorzlo,zamyorzlo,,mɾ̩zlɔ,zamrzlo,,0
13251000507,"Czech: Std (Plzeň)",49.7475,13.3775,9100,write_ipv_sg,pishi,pishi,,pi̽ʃ,piš,,0
13251000507,"Czech: Std (Plzeň)",49.7475,13.3775,710,my,moj,moj,,muːj,můj,,0
13251000507,"Czech: Std (Plzeň)",49.7475,13.3775,1230,where,gde,gde,,ɡd̺̬̥ɛ,kde,,0
13251000507,"Czech: Std (Plzeň)",49.7475,13.3775,1330,there,tam,tam,,tɑ̟mə̆,tam,,0
13251000507,"Czech: Std (Plzeň)",49.7475,13.3775,1410,at_sea,v_more,v_more,,ˈvmɔʐ̥-ɪ̟,"v moři",,0
13251000507,"Czech: Std (Plzeň)",49.7475,13.3775,5060,summer,leto,leto,,ˈlˠɛːtɔ,léto,,0
13271000008,"Slovak: Std",48.14389,17.10972,30,three,tri,tri,,tʰɾi̞,tri,,0
13271000008,"Slovak: Std",48.14389,17.10972,40,four,chetyre,chetyre,,ˈʂʈɪɾɪ̆ĭ,štyri,,0
13271000008,"Slovak: Std",48.14389,17.10972,7210,long,dolgij,dolgij,,ˈdl̩ˠɦiː,dlhý,,0
13271000008,"Slovak: Std",48.14389,17.10972,7380,wide,shirokij,shirokij,,ˈʂi̠ɾ̞ɔ̟k̟ʰiː,široký,,0
13271000008,"Slovak: Std",48.14389,17.10972,7410,sharp_fem,ostraya,ostraya,,ˈʔɔstɾ-a̠ː,ostrá,,0
13271000008,"Slovak: Std",48.14389,17.10972,7520,old,staryj,staryj,,ˈstaɾ-iː,starý,,0
13271000008,"Slovak: Std",48.14389,17.10972,7650,alive,zhivoj,zhivoj,,ˈʐi̠vʲiː,živý,,0
13271000008,"Slovak: Std",48.14389,17.10972,7710,good_neut,dobro_,dobro_,,ˈdɔ̟bɾ-ɛː,dobré,,0
13271000008,"Slovak: Std",48.14389,17.10972,7740,true_neut,vernoe,vernoe,,ˈvɛ̞ɾn-ɛː,verné,,0
13271000008,"Slovak: Std",48.14389,17.10972,7910,hot_fem,tyoplaya,tyoplaya,,ˈtʲɕ̟̆e̞plˠɑ̟ː,teplá,,0
13271000008,"Slovak: Std",48.14389,17.10972,7940,wet_neut,mokroe,mokroe,,ˈmɔkɾ-ɛː,mokré,,0
13271000008,"Slovak: Std",48.14389,17.10972,820,on_the_left,na_levo_,na_levo_,,,"naľavo / zľava",,0
13271000008,"Slovak: Std",48.14389,17.10972,2140,tears,slyozy,slyozy,,ˈsl̩ˠzi̠,slzy,,0
13271000008,"Slovak: Std",48.14389,17.10972,2250,beard,boroda,boroda,,ˈbɾa̠da̠,brada,,0
13271000008,"Slovak: Std",48.14389,17.10972,2310,hands,ruki,ruki,,ˈrukʰʲi,ruky,,0
13271000008,"Slovak: Std",48.14389,17.10972,2610,blood,krov_,krov_,,kʰɾɜ̟u,krv,,0
13271000008,"Slovak: Std",48.14389,17.10972,2810,heart,serdce,serdce,,,srdce,,0
13271000008,"Slovak: Std",48.14389,17.10972,4330,brother,brat,brat,,ˈbɾa̠tʰ,brat,,0
13271000008,"Slovak: Std",48.14389,17.10972,4332,brothers,brat_ya,brat_ya,,ˈbɾatʲɕ̟ɪ̆a,bratia,,0
13271000008,"Slovak: Std",48.14389,17.10972,4100,name,imya,imya,,ˈmɛnɔ̟,meno,,0
13271000008,"Slovak: Std",48.14389,17.10972,4110,words,slova,slova,,ˈslˠɔvɑ̟ː,slová,,0
13271000008,"Slovak: Std",48.14389,17.10972,3240,fish_pl,ryby,ryby,,ˈɾi̠b-i,ryby,,0
13271000008,"Slovak: Std",48.14389,17.10972,3310,cow,korova,korova,,ˈkʰɾava̠,krava,,0
13271000008,"Slovak: Std",48.14389,17.10972,3820,horn,rog,rog,,ɾɔx,roh,,0
13271000008,"Slovak: Std",48.14389,17.10972,3840,wing,krylo,krylo,,ˈkʰɾiːdˡlˠɔ,krídlo,,0
13271000008,"Slovak: Std",48.14389,17.10972,3850,feather,pero,pero,,ˈpɛ̞ɾ̞ɔ̟,pero,,0
13271000008,"Slovak: Std",48.14389,17.10972,5220,rivers,reki,reki,,ˈɾiɛ̝kʰʲi,rieky,,0
13271000008,"Slovak: Std",48.14389,17.10972,5230,lake,ozero,ozero,,ˈjazɛ̠ɾɔ,jazero,,0
13271000008,"Slovak: Std",48.14389,17.10972,5232,lakes,ozera,ozera,,ˈjazɛɾa̠ː,jazerá,,0
13271000008,"Slovak: Std",48.14389,17.10972,5240,sea,more,more,,ˈmɔɾɛ,more,,0
13271000008,"Slovak: Std",48.14389,17.10972,6230,bark,kora,kora,,ˈkʰuɔ̟ɾa̠,kôra,,0
13271000008,"Slovak: Std",48.14389,17.10972,6240,root,koren_,koren_,,ˈkʰɔ̟ɾɛɲ,koreň,,0
13271000008,"Slovak: Std",48.14389,17.10972,6270,thorn,tyorn,tyorn,,tr̩ɲ,tŕň,,0
13271000008,"Slovak: Std",48.14389,17.10972,6310,grass,trava,trava,,ˈtra̠ʋɑ̟,tráva,,0
13271000008,"Slovak: Std",48.14389,17.10972,5850,wind,veter,veter,,ˈvʲiɛ̝tɔ̟ɾ,vietor,,0
13271000008,"Slovak: Std",48.14389,17.10972,5920,thunder,grom,grom,,ɦɾɔ̃m,hrom,,0
13271000008,"Slovak: Std",48.14389,17.10972,6070,grain,zerno,zerno,,ˈzɾ̩nɔ,zrno,,0
13271000008,"Slovak: Std",48.14389,17.10972,6840,wheel,koleso,koleso,,ˈkʰɔlˠəsɔ̟,koleso,,0
13271000008,"Slovak: Std",48.14389,17.10972,6860,game,igra,igra,,ɦɾa̠,hra,,0
13271000008,"Slovak: Std",48.14389,17.10972,6940,citadel,gorod,gorod,,ɦɾa̠tʰ,hrad,,0
13271000008,"Slovak: Std",48.14389,17.10972,8000,there_is,est_,est_,,jɛ,je,,0
13271000008,"Slovak: Std",48.14389,17.10972,8130,you_are_falling,padaesh_,padaesh_,,ˈpa̠da̠ːʂ,padáš,,0
13271000008,"Slovak: Std",48.14389,17.10972,8320,we_drink,p_yom,p_yom,,ˈpijɛm-ɛ̠,pijeme,,0
13271000008,"Slovak: Std",48.14389,17.10972,8430,dead_fem,mertva,mertva,,ˈmr̩tva̠,mŕtva,,0
13271000008,"Slovak: Std",48.14389,17.10972,8480,you_believe,verish_,verish_,,ˈvɛɾi̞ːʂ,veríš,,0
13271000008,"Slovak: Std",48.14389,17.10972,8850,he_rubbed,tyor,tyor,,tɾɐ̟lˠ,trel,,0
13271000008,"Slovak: Std",48.14389,17.10972,8890,we_are_digging,kopaem,kopaem,,ˈkʰɔ̝pɛ̠mɛ̠,kopeme,,0
13271000008,"Slovak: Std",48.14389,17.10972,8980,it_froze,zamyorzlo,zamyorzlo,,ˈmɾ̩zlˠɔ̝,zamrzlo,,0
13271000008,"Slovak: Std",48.14389,17.10972,9100,write_ipv_sg,pishi,pishi,,piːʂ,píš,,0
13271000008,"Slovak: Std",48.14389,17.10972,710,my,moj,moj,,mũɔ̟j,môj,,0
13271000008,"Slovak: Std",48.14389,17.10972,1230,where,gde,gde,,ɡdʲɛ̝,kde,,0
13271000008,"Slovak: Std",48.14389,17.10972,1330,there,tam,tam,,ta̠m,tam,,0
13271000008,"Slovak: Std",48.14389,17.10972,1410,at_sea,v_more,v_more,,vɞ̠̜̆ˈmɔ̞ɾ-i,"v mori",,0
13271000008,"Slovak: Std",48.14389,17.10972,5060,summer,leto,leto,,ˈlˠɛtɔ,leto,,0
13271210357,"Slovak: Std (Banská)",48.7325,19.14917,30,three,tri,tri,,tɾi̞,tri,,0
13271210357,"Slovak: Std (Banská)",48.7325,19.14917,40,four,chetyre,chetyre,,ˈʃtɘ̟ɾɪ,štyri,,0
13271210357,"Slovak: Std (Banská)",48.7325,19.14917,7210,long,dolgij,dolgij,,ˈd̬̥l̩ˠɦiː,dlhý,,0
13271210357,"Slovak: Std (Banská)",48.7325,19.14917,7380,wide,shirokij,shirokij,,ˈʃɘ̟ɾɔ̟kʰʲiː,široký,,0
13271210357,"Slovak: Std (Banská)",48.7325,19.14917,7410,sharp_fem,ostraya,ostraya,,ˈʔɔstɾ-a̠ː,ostrá,,0
13271210357,"Slovak: Std (Banská)",48.7325,19.14917,7520,old,staryj,staryj,,ˈstaɾ-iː,starý,,0
13271210357,"Slovak: Std (Banská)",48.7325,19.14917,7650,alive,zhivoj,zhivoj,,ˈʒ̬̥i̠viː,živý,,0
13271210357,"Slovak: Std (Banská)",48.7325,19.14917,7710,good_neut,dobro_,dobro_,,ˈdɔbɾ-ɛː,dobré,,0
13271210357,"Slovak: Std (Banská)",48.7325,19.14917,7740,true_neut,vernoe,vernoe,,ˈvɛɾɛ̆n-ɛː,verné,,0
13271210357,"Slovak: Std (Banská)",48.7325,19.14917,7910,hot_fem,tyoplaya,tyoplaya,,ˈc̟ɛ̝plˠɑː,teplá,,0
13271210357,"Slovak: Std (Banská)",48.7325,19.14917,7940,wet_neut,mokroe,mokroe,,ˈmɔkɾ-ɛː,mokré,,0
13271210357,"Slovak: Std (Banská)",48.7325,19.14917,7940,wet_neut,mokroe,mokroe,,ˈvʊɣk-ɛː,mokré,,0
13271210357,"Slovak: Std (Banská)",48.7325,19.14917,820,on_the_left,na_levo_,na_levo_,,,"naľavo / zľava",,0
13271210357,"Slovak: Std (Banská)",48.7325,19.14917,2140,tears,slyozy,slyozy,,sl̩ˠzi̽,slzy,,0
13271210357,"Slovak: Std (Banská)",48.7325,19.14917,2250,beard,boroda,boroda,,ˈbɾa̠d̬̥a̠,brada,,0
13271210357,"Slovak: Std (Banská)",48.7325,19.14917,2310,hands,ruki,ruki,,ˈɾukʰʲi,ruky,,0
13271210357,"Slovak: Std (Banská)",48.7325,19.14917,2610,blood,krov_,krov_,,ˈkɾɛ̠və̆,krv,,0
13271210357,"Slovak: Std (Banská)",48.7325,19.14917,2810,heart,serdce,serdce,,ˈsɾ̩tsɛ,srdce,,0
13271210357,"Slovak: Std (Banská)",48.7325,19.14917,4330,brother,brat,brat,,bɾa̠t,brat,,0
13271210357,"Slovak: Std (Banská)",48.7325,19.14917,4332,brothers,brat_ya,brat_ya,,ˈbɾac̟ja̠,bratia,,0
13271210357,"Slovak: Std (Banská)",48.7325,19.14917,4100,name,imya,imya,,ˈmɛnɔ,meno,,0
13271210357,"Slovak: Std (Banská)",48.7325,19.14917,4110,words,slova,slova,,ˈslɔvɑ̟ː,slová,,0
13271210357,"Slovak: Std (Banská)",48.7325,19.14917,3240,fish_pl,ryby,ryby,,ˈɾi̽b̬̥-i,ryby,,0
13271210357,"Slovak: Std (Banská)",48.7325,19.14917,3310,cow,korova,korova,,ˈkɾa̠v̥ɑ,krava,,0
13271210357,"Slovak: Std (Banská)",48.7325,19.14917,3820,horn,rog,rog,,ɾɔx,roh,,0
13271210357,"Slovak: Std (Banská)",48.7325,19.14917,3840,wing,krylo,krylo,,ˈkɾiːd̬̥lˠɔ,krídlo,,0
13271210357,"Slovak: Std (Banská)",48.7325,19.14917,3850,feather,pero,pero,,ˈpɛɾɔ,pero,,0
13271210357,"Slovak: Std (Banská)",48.7325,19.14917,5220,rivers,reki,reki,,ˈɾjekʰʲi,rieky,,0
13271210357,"Slovak: Std (Banská)",48.7325,19.14917,5230,lake,ozero,ozero,,ˈjaz̥ɛɾɔ,jazero,,0
13271210357,"Slovak: Std (Banská)",48.7325,19.14917,5232,lakes,ozera,ozera,,ˈjaz̥ɛɾa̠ː,jazerá,,0
13271210357,"Slovak: Std (Banská)",48.7325,19.14917,5240,sea,more,more,,ˈmɔɾɛ,more,,0
13271210357,"Slovak: Std (Banská)",48.7325,19.14917,6230,bark,kora,kora,,ˈkʰu̞ɔɾa̠,kôra,,0
13271210357,"Slovak: Std (Banská)",48.7325,19.14917,6240,root,koren_,koren_,,ˈkɔɾɛ̝ɲɪ̆,koreň,,0
13271210357,"Slovak: Std (Banská)",48.7325,19.14917,6270,thorn,tyorn,tyorn,,ˈtɾɜ̟ɲɪ̆,tŕň,,0
13271210357,"Slovak: Std (Banská)",48.7325,19.14917,6310,grass,trava,trava,,ˈtɾa̠ːva̠,tráva,,0
13271210357,"Slovak: Std (Banská)",48.7325,19.14917,5850,wind,veter,veter,,ˈvje̞tɔɾə̆,vietor,,0
13271210357,"Slovak: Std (Banská)",48.7325,19.14917,5920,thunder,grom,grom,,ɦɾɔmə̆,hrom,,0
13271210357,"Slovak: Std (Banská)",48.7325,19.14917,6070,grain,zerno,zerno,,ˈz̬̥ɾ̩nɔ,zrno,,0
13271210357,"Slovak: Std (Banská)",48.7325,19.14917,6840,wheel,koleso,koleso,,ˈkʰɔlɜ̆sɔ,koleso,,0
13271210357,"Slovak: Std (Banská)",48.7325,19.14917,6860,game,igra,igra,,ɦɾa,hra,,0
13271210357,"Slovak: Std (Banská)",48.7325,19.14917,6940,citadel,gorod,gorod,,ɦɾat,hrad,,0
13271210357,"Slovak: Std (Banská)",48.7325,19.14917,8000,there_is,est_,est_,,jɛ,je,,0
13271210357,"Slovak: Std (Banská)",48.7325,19.14917,8130,you_are_falling,padaesh_,padaesh_,,ˈpa̠dɛ̆ɑ̟ːʃ,padáš,,0
13271210357,"Slovak: Std (Banská)",48.7325,19.14917,8320,we_drink,p_yom,p_yom,,ˈpijɛm-ɛ,pijeme,,0
13271210357,"Slovak: Std (Banská)",48.7325,19.14917,8430,dead_fem,mertva,mertva,,ˈmɾ̩tvɑ̟ː,mŕtva,,0
13271210357,"Slovak: Std (Banská)",48.7325,19.14917,8480,you_believe,verish_,verish_,,ˈvɛɾiːʃ,veríš,,0
13271210357,"Slovak: Std (Banská)",48.7325,19.14917,8850,he_rubbed,tyor,tyor,,ˈtɾɛˑlˠ,trel,,0
13271210357,"Slovak: Std (Banská)",48.7325,19.14917,8890,we_are_digging,kopaem,kopaem,,ˈkʰɔpɛ̠mɛ,kopeme,,0
13271210357,"Slovak: Std (Banská)",48.7325,19.14917,8980,it_froze,zamyorzlo,zamyorzlo,,ˈmɾ̩z̥lˠɔ,zamrzlo,,0
13271210357,"Slovak: Std (Banská)",48.7325,19.14917,9100,write_ipv_sg,pishi,pishi,,piːʃ,píš,,0
13271210357,"Slovak: Std (Banská)",48.7325,19.14917,710,my,moj,moj,,muɔj,môj,,0
13271210357,"Slovak: Std (Banská)",48.7325,19.14917,1230,where,gde,gde,,ɡɟ̟ɛ,kde,,0
13271210357,"Slovak: Std (Banská)",48.7325,19.14917,1330,there,tam,tam,,tɑ̟mə̆,tam,,0
13271210357,"Slovak: Std (Banská)",48.7325,19.14917,1410,at_sea,v_more,v_more,,ˈvmɔɾ-i̽,"v mori",,0
13271210357,"Slovak: Std (Banská)",48.7325,19.14917,5060,summer,leto,leto,,ˈlɛtɔ,leto,,0
13311000008,"Slovene: Std",46.05556,14.50833,30,three,tri,tri,,tʰɾi,tri,,0
13311000008,"Slovene: Std",46.05556,14.50833,40,four,chetyre,chetyre,,ˈʂtɪɾɪ,štiri,,0
13311000008,"Slovene: Std",46.05556,14.50833,7210,long,dolgij,dolgij,,dʌukʰ,dolg,,0
13311000008,"Slovene: Std",46.05556,14.50833,7380,wide,shirokij,shirokij,,ʂɘ̟ˈɾɔ̞k,širok,,0
13311000008,"Slovene: Std",46.05556,14.50833,7410,sharp_fem,ostraya,ostraya,,ˈɔ̝stɾ-ɐ,ostra,,0
13311000008,"Slovene: Std",46.05556,14.50833,7520,old,staryj,staryj,,staɾ,star,,0
13311000008,"Slovene: Std",46.05556,14.50833,7650,alive,zhivoj,zhivoj,,ʐi̠u,živ,,0
13311000008,"Slovene: Std",46.05556,14.50833,7710,good_neut,dobro_,dobro_,,ˈdɔbɾ-ɔ,dobro,,0
13311000008,"Slovene: Std",46.05556,14.50833,7740,true_neut,vernoe,vernoe,,,verno,,0
13311000008,"Slovene: Std",46.05556,14.50833,7910,hot_fem,tyoplaya,tyoplaya,,ˈtɔ̞pla̠,topla,,0
13311000008,"Slovene: Std",46.05556,14.50833,7940,wet_neut,mokroe,mokroe,,ˈmɔ̟kɾ-ɔ,mokro,,0
13311000008,"Slovene: Std",46.05556,14.50833,820,on_the_left,na_levo_,na_levo_,,,"levo / na levo",,0
13311000008,"Slovene: Std",46.05556,14.50833,2140,tears,slyozy,slyozy,,ˈsʌʊzɛ̠,solze,,0
13311000008,"Slovene: Std",46.05556,14.50833,2250,beard,boroda,boroda,,ˈbɾa̠da̠,brada,,0
13311000008,"Slovene: Std",46.05556,14.50833,2310,hands,ruki,ruki,,ˈɾɔkɛ,roke,,0
13311000008,"Slovene: Std",46.05556,14.50833,2610,blood,krov_,krov_,,k̟ɾi,kri,,0
13311000008,"Slovene: Std",46.05556,14.50833,2810,heart,serdce,serdce,,sɾ̩ˈtse̠,srce,,0
13311000008,"Slovene: Std",46.05556,14.50833,4330,brother,brat,brat,,bɾa̠tʰ,brat,,0
13311000008,"Slovene: Std",46.05556,14.50833,4332,brothers,brat_ya,brat_ya,,ˈbɾa̠tʰi,"bratje, brati",,0
13311000008,"Slovene: Std",46.05556,14.50833,4100,name,imya,imya,,iˈmɪ̟,ime,,0
13311000008,"Slovene: Std",46.05556,14.50833,4110,words,slova,slova,,slɔ̽ˈvo̞,slova,,0
13311000008,"Slovene: Std",46.05556,14.50833,3240,fish_pl,ryby,ryby,,ˈɾi̠b-ɛ̠,ribe,,0
13311000008,"Slovene: Std",46.05556,14.50833,3310,cow,korova,korova,,ˈkɾa̠v̞ɑ̟,krava,,0
13311000008,"Slovene: Std",46.05556,14.50833,3820,horn,rog,rog,,ɾɔ̝k,rog,,0
13311000008,"Slovene: Std",46.05556,14.50833,3840,wing,krylo,krylo,,ˈkɾi̠lɔ,krilo,,0
13311000008,"Slovene: Std",46.05556,14.50833,3850,feather,pero,pero,,pɛ̠ˈɾɔ̝,pero,,0
13311000008,"Slovene: Std",46.05556,14.50833,5220,rivers,reki,reki,,ɾe̠k̟ɛ,reke,,0
13311000008,"Slovene: Std",46.05556,14.50833,5230,lake,ozero,ozero,,ˈje̠zəɾɔ,jezero,,0
13311000008,"Slovene: Std",46.05556,14.50833,5232,lakes,ozera,ozera,,ˈje̠zɜ̟ɾa̠,jezera,,0
13311000008,"Slovene: Std",46.05556,14.50833,5240,sea,more,more,,ˈmoɾʲɪ̆ɛ,morje,,0
13311000008,"Slovene: Std",46.05556,14.50833,6230,bark,kora,kora,,ˈskɔ̽ɾɘ̟̆a̠,skorja,,0
13311000008,"Slovene: Std",46.05556,14.50833,6240,root,koren_,koren_,,kʰɔ̽ˈɾe̠n,koren,,0
13311000008,"Slovene: Std",46.05556,14.50833,6270,thorn,tyorn,tyorn,,tʰəɾⁿn,trn,,0
13311000008,"Slovene: Std",46.05556,14.50833,6310,grass,trava,trava,,ˈtɾɑ̟ˑvɑ̟,trava,,0
13311000008,"Slovene: Std",46.05556,14.50833,5850,wind,veter,veter,,ˈve̠tʰɐ̝ɾ,veter,,0
13311000008,"Slovene: Std",46.05556,14.50833,5920,thunder,grom,grom,,ɡɾɔ̃m,grom,,0
13311000008,"Slovene: Std",46.05556,14.50833,6070,grain,zerno,zerno,,ˈzəɾⁿnɔ,zrno,,0
13311000008,"Slovene: Std",46.05556,14.50833,6840,wheel,koleso,koleso,,kʰoˈlɔ̝,kolo,,0
13311000008,"Slovene: Std",46.05556,14.50833,6860,game,igra,igra,,ˈiɡɾa̠,igra,,0
13311000008,"Slovene: Std",46.05556,14.50833,6940,citadel,gorod,gorod,,ɡɾa̠t,grad,,0
13311000008,"Slovene: Std",46.05556,14.50833,8000,there_is,est_,est_,,jɛ,je,,0
13311000008,"Slovene: Std",46.05556,14.50833,8130,you_are_falling,padaesh_,padaesh_,,ˈpa̠dɐʂ,padaš,,0
13311000008,"Slovene: Std",46.05556,14.50833,8320,we_drink,p_yom,p_yom,,ˈpijɛ̝̃mɔ̝̃,pijemo,,0
13311000008,"Slovene: Std",46.05556,14.50833,8430,dead_fem,mertva,mertva,,ˈmɾ̩tfa̠,mrtva,,0
13311000008,"Slovene: Std",46.05556,14.50833,8480,you_believe,verish_,verish_,,vɜ̟ɾɪ̆a̠mɛ̠ʂ,"veruješ / verjameš",,0
13311000008,"Slovene: Std",46.05556,14.50833,8850,he_rubbed,tyor,tyor,,ˈtɘɾu,trl,,0
13311000008,"Slovene: Std",46.05556,14.50833,8890,we_are_digging,kopaem,kopaem,,ˈkʰo̞plə̟̃mɔ̝̃,kopljemo,,0
13311000008,"Slovene: Std",46.05556,14.50833,8980,it_froze,zamyorzlo,zamyorzlo,,zə̆-ˈmɾ̩znilɔ,zamrznilo,,0
13311000008,"Slovene: Std",46.05556,14.50833,9100,write_ipv_sg,pishi,pishi,,ˈpi̠ʂi,piši,,0
13311000008,"Slovene: Std",46.05556,14.50833,710,my,moj,moj,,mo̞ɪ,moj,,0
13311000008,"Slovene: Std",46.05556,14.50833,1230,where,gde,gde,,kʰʲjɛ̝,kje,,0
13311000008,"Slovene: Std",46.05556,14.50833,1330,there,tam,tam,,tɑ̟m,tam,,0
13311000008,"Slovene: Std",46.05556,14.50833,1410,at_sea,v_more,v_more,,ŭˈmɔ̝ɾʲj-u̟,"v morju",,0
13311000008,"Slovene: Std",46.05556,14.50833,5060,summer,leto,leto,,ˈlɪ̟tʰɔ,leto,,0
13311000507,"Slovene: Std (Velenje)",46.3625,15.11444,8480,you_believe,verish_,verish_,,▶,,,0
13311000507,"Slovene: Std (Velenje)",46.3625,15.11444,8480,you_believe,verish_,verish_,,▶,,,0
13311503709,"Slovene: Rovte",46.06398,14.31276,30,three,tri,tri,,tɾi,tri,,0
13311503709,"Slovene: Rovte",46.06398,14.31276,40,four,chetyre,chetyre,,ʃtɘ̟ɾ,štiri,,0
13311503709,"Slovene: Rovte",46.06398,14.31276,7210,long,dolgij,dolgij,,dɔ̟ʊ̆x,dolg,,0
13311503709,"Slovene: Rovte",46.06398,14.31276,7380,wide,shirokij,shirokij,,ʃɾɔ̞kʰ,širok,,0
13311503709,"Slovene: Rovte",46.06398,14.31276,7410,sharp_fem,ostraya,ostraya,,ˈβ̞ɔstɾ-a̠,ostra,,0
13311503709,"Slovene: Rovte",46.06398,14.31276,7520,old,staryj,staryj,,stɘ̟ɾ,star,,0
13311503709,"Slovene: Rovte",46.06398,14.31276,7650,alive,zhivoj,zhivoj,,ʒiŭ̞,živ,,0
13311503709,"Slovene: Rovte",46.06398,14.31276,7710,good_neut,dobro_,dobro_,,ˈdɔ̞ˑbəɾ,dobro,,0
13311503709,"Slovene: Rovte",46.06398,14.31276,7740,true_neut,vernoe,vernoe,,ˈveɾɛ̠n,verno,,0
13311503709,"Slovene: Rovte",46.06398,14.31276,7910,hot_fem,tyoplaya,tyoplaya,,ˈtɔ̞plɐ̞,topla,,0
13311503709,"Slovene: Rovte",46.06398,14.31276,7940,wet_neut,mokroe,mokroe,,ˈmɔ̝kʰɜɾ̞,mokro,,0
13311503709,"Slovene: Rovte",46.06398,14.31276,820,on_the_left,na_levo_,na_levo_,,,"levo / na levo",,0
13311503709,"Slovene: Rovte",46.06398,14.31276,2140,tears,slyozy,slyozy,,ˈsʌ̟u̞zɛ,solze,,0
13311503709,"Slovene: Rovte",46.06398,14.31276,2250,beard,boroda,boroda,,ˈbɾɑ̟ːdɐ̞,brada,,0
13311503709,"Slovene: Rovte",46.06398,14.31276,2310,hands,ruki,ruki,,ˈrɒ̝k̟ɛ,roke,,0
13311503709,"Slovene: Rovte",46.06398,14.31276,2610,blood,krov_,krov_,,kɾʲi,kri,,0
13311503709,"Slovene: Rovte",46.06398,14.31276,2810,heart,serdce,serdce,,sɾ̩ˈtse̠,srce,,0
13311503709,"Slovene: Rovte",46.06398,14.31276,4330,brother,brat,brat,,bɾɘtʰ,brat,,0
13311503709,"Slovene: Rovte",46.06398,14.31276,4332,brothers,brat_ya,brat_ya,,ˈbɾa̠tʰi,"bratje, brati",,0
13311503709,"Slovene: Rovte",46.06398,14.31276,4100,name,imya,imya,,iˈme̝,ime,,0
13311503709,"Slovene: Rovte",46.06398,14.31276,4110,words,slova,slova,,slɔ̽ˈβ̞o̞,slova,,0
13311503709,"Slovene: Rovte",46.06398,14.31276,3240,fish_pl,ryby,ryby,,ˈɾib-ɛ,ribe,,0
13311503709,"Slovene: Rovte",46.06398,14.31276,3310,cow,korova,korova,,ˈkʰɾɑ̟β̞ɐ̠,krava,,0
13311503709,"Slovene: Rovte",46.06398,14.31276,3820,horn,rog,rog,,ɾo̝χ,rog,,0
13311503709,"Slovene: Rovte",46.06398,14.31276,3840,wing,krylo,krylo,,ˈkʰʲiklɐ̞,krilo,,1
13311503709,"Slovene: Rovte",46.06398,14.31276,3850,feather,pero,pero,,pəˈɾo̝,pero,,0
13311503709,"Slovene: Rovte",46.06398,14.31276,5220,rivers,reki,reki,,ˈɾe̝k̟ɛ,reke,,0
13311503709,"Slovene: Rovte",46.06398,14.31276,5230,lake,ozero,ozero,,ˈje̠zəɾ̞ɔ̟,jezero,,0
13311503709,"Slovene: Rovte",46.06398,14.31276,5232,lakes,ozera,ozera,,ˈje̠zɛ̠ɾ̞ɐ̞,jezera,,0
13311503709,"Slovene: Rovte",46.06398,14.31276,5240,sea,more,more,,ˈmɔ̝ɾʲɪ̆ɛ,morje,,0
13311503709,"Slovene: Rovte",46.06398,14.31276,6230,bark,kora,kora,,ˈskʰoɾʲɪ̆ɐ̞,skorja,,0
13311503709,"Slovene: Rovte",46.06398,14.31276,6240,root,koren_,koren_,,kʰo̟ˈɾen,koren,,0
13311503709,"Slovene: Rovte",46.06398,14.31276,6270,thorn,tyorn,tyorn,,təɾn,trn,,0
13311503709,"Slovene: Rovte",46.06398,14.31276,6310,grass,trava,trava,,ˈtʰɾɑ̟β̞ɑ̟,trava,,0
13311503709,"Slovene: Rovte",46.06398,14.31276,5850,wind,veter,veter,,ˈvetəɾ,veter,,0
13311503709,"Slovene: Rovte",46.06398,14.31276,5920,thunder,grom,grom,,ɡɾɔ̞m,grom,,0
13311503709,"Slovene: Rovte",46.06398,14.31276,6070,grain,zerno,zerno,,zɜ̝ɾnʌ,zrno,,0
13311503709,"Slovene: Rovte",46.06398,14.31276,6840,wheel,koleso,koleso,,kʰɵ̠ˈlu̞,kolo,,0
13311503709,"Slovene: Rovte",46.06398,14.31276,6860,game,igra,igra,,ˈiɦɾɐ̞,igra,,0
13311503709,"Slovene: Rovte",46.06398,14.31276,6940,citadel,gorod,gorod,,ɦɾa̠t,grad,,0
13311503709,"Slovene: Rovte",46.06398,14.31276,8000,there_is,est_,est_,,jɛ,je,,0
13311503709,"Slovene: Rovte",46.06398,14.31276,8130,you_are_falling,padaesh_,padaesh_,,ˈpɑ̟də̟ʃ,padaš,,0
13311503709,"Slovene: Rovte",46.06398,14.31276,8320,we_drink,p_yom,p_yom,,ˈpʲi.ɛmɔ̃,pijemo,,0
13311503709,"Slovene: Rovte",46.06398,14.31276,8430,dead_fem,mertva,mertva,,ˈmɾ̩tʋɐ,mrtva,,0
13311503709,"Slovene: Rovte",46.06398,14.31276,8480,you_believe,verish_,verish_,,vəˈɾɪ̆a̠ːməʃ,"veruješ / verjameš",,0
13311503709,"Slovene: Rovte",46.06398,14.31276,8850,he_rubbed,tyor,tyor,,ˈtʰəɾʊ,trl,,0
13311503709,"Slovene: Rovte",46.06398,14.31276,8890,we_are_digging,kopaem,kopaem,,ˈkʰo̞pləmɔ̞̃,kopljemo,,0
13311503709,"Slovene: Rovte",46.06398,14.31276,8980,it_froze,zamyorzlo,zamyorzlo,,zəˈmɾ̩zl̩̃lɔ,zamrznilo,,0
13311503709,"Slovene: Rovte",46.06398,14.31276,9100,write_ipv_sg,pishi,pishi,,pʲiʃ,piši,,0
13311503709,"Slovene: Rovte",46.06398,14.31276,710,my,moj,moj,,mŭɔɪ̆,moj,,0
13311503709,"Slovene: Rovte",46.06398,14.31276,1230,where,gde,gde,,kʰʲi,kje,,0
13311503709,"Slovene: Rovte",46.06398,14.31276,1330,there,tam,tam,,tʰəm,tam,,0
13311503709,"Slovene: Rovte",46.06398,14.31276,1410,at_sea,v_more,v_more,,ũ̆ˈmɔɾʲj-u̞,"v morju",,0
13311503709,"Slovene: Rovte",46.06398,14.31276,5060,summer,leto,leto,,ˈle̠tʰɔ̞,leto,,0
13331000008,"Croatian: Std",45.81667,15.98333,30,three,tri,tri,,tʰɾǐː,tri,,0
13331000008,"Croatian: Std",45.81667,15.98333,40,four,chetyre,chetyre,,ˈtʂɛ̌tʰɪ̆ɾi̽,četiri,,0
13331000008,"Croatian: Std",45.81667,15.98333,7210,long,dolgij,dolgij,,dûk̬̥ʰ,dug,,0
13331000008,"Croatian: Std",45.81667,15.98333,7380,wide,shirokij,shirokij,,ˈʃɪɾ̞ɔ̟̆kʰ,širok,,0
13331000008,"Croatian: Std",45.81667,15.98333,7410,sharp_fem,ostraya,ostraya,,ˈɔ̂ʂtɐ̟ɾ,oštra,,0
13331000008,"Croatian: Std",45.81667,15.98333,7520,old,staryj,staryj,,stâ̠ɾ,star,,0
13331000008,"Croatian: Std",45.81667,15.98333,7650,alive,zhivoj,zhivoj,,ʐîf̬̥,živ,,0
13331000008,"Croatian: Std",45.81667,15.98333,7710,good_neut,dobro_,dobro_,,ˈdɔ̝̌bɾ-ɔ,dobro,,0
13331000008,"Croatian: Std",45.81667,15.98333,7740,true_neut,vernoe,vernoe,,ˈvʲjɛ̂ːrn-ɔ̟,vjerno,,0
13331000008,"Croatian: Std",45.81667,15.98333,7910,hot_fem,tyoplaya,tyoplaya,,ˈtɔ̂plˠɑ,topla,,0
13331000008,"Croatian: Std",45.81667,15.98333,7940,wet_neut,mokroe,mokroe,,ˈmɔ̂kʰɾ-ɔ,mokro,,0
13331000008,"Croatian: Std",45.81667,15.98333,820,on_the_left,na_levo_,na_levo_,,,"lijevo / nalijevo",,0
13331000008,"Croatian: Std",45.81667,15.98333,2140,tears,slyozy,slyozy,,ˈsu̽̂zɛ̠,suze,,0
13331000008,"Croatian: Std",45.81667,15.98333,2250,beard,boroda,boroda,,ˈbɾɑ̟̌ːdɐ,brada,,0
13331000008,"Croatian: Std",45.81667,15.98333,2310,hands,ruki,ruki,,ˈɾûːk̟ɛ̝,ruke,,0
13331000008,"Croatian: Std",45.81667,15.98333,2610,blood,krov_,krov_,,kʰɾ̩̂ːv̞̬̥,krv,,0
13331000008,"Croatian: Std",45.81667,15.98333,2810,heart,serdce,serdce,,ˈsɾ̩̂tsɛ̠,srce,,0
13331000008,"Croatian: Std",45.81667,15.98333,4330,brother,brat,brat,,bɾǎ̠tʰ,brat,,0
13331000008,"Croatian: Std",45.81667,15.98333,4332,brothers,brat_ya,brat_ya,,ˈbrâ̠tɕɐ,braća,,0
13331000008,"Croatian: Std",45.81667,15.98333,4100,name,imya,imya,,ˈîmɛ,ime,,0
13331000008,"Croatian: Std",45.81667,15.98333,4110,words,slova,slova,,ˈslˠɔ̂vɑ̟,slova,,0
13331000008,"Croatian: Std",45.81667,15.98333,3240,fish_pl,ryby,ryby,,ɾîb-ɛ̠,ribe,,0
13331000008,"Croatian: Std",45.81667,15.98333,3310,cow,korova,korova,,ˈkʰɾâ̠v̞ɑ̟,krava,,0
13331000008,"Croatian: Std",45.81667,15.98333,3820,horn,rog,rog,,ɾɔ̝̂ːk̬̥ʰ,rog,,0
13331000008,"Croatian: Std",45.81667,15.98333,3840,wing,krylo,krylo,,ˈkʰɾǐːlˠɔ,krilo,,0
13331000008,"Croatian: Std",45.81667,15.98333,3850,feather,pero,pero,,ˈpɛ̌ɾɔ̟,pero,,0
13331000008,"Croatian: Std",45.81667,15.98333,5220,rivers,reki,reki,,ˈɾjɛ̝̌ːk̟ɛ̝,rijeke,,0
13331000008,"Croatian: Std",45.81667,15.98333,5230,lake,ozero,ozero,,ˈjɛ̂zɛ̠ɾɔ,jezero,,0
13331000008,"Croatian: Std",45.81667,15.98333,5232,lakes,ozera,ozera,,jɛ̝ˈzɛ̌ɾa̠,jezera,,0
13331000008,"Croatian: Std",45.81667,15.98333,5240,sea,more,more,,ˈmɔ̂ːɾɛ,more,,0
13331000008,"Croatian: Std",45.81667,15.98333,6230,bark,kora,kora,,ˈkʰɔ̂ɾɐ,kora,,0
13331000008,"Croatian: Std",45.81667,15.98333,6240,root,koren_,koren_,,ˈkʰɔ̂ɾjɛ̠n,korijen,,0
13331000008,"Croatian: Std",45.81667,15.98333,6270,thorn,tyorn,tyorn,,,trn,,0
13331000008,"Croatian: Std",45.81667,15.98333,6310,grass,trava,trava,,ˈtɾɑ̟̌ːv̞ɑ̟,trava,,0
13331000008,"Croatian: Std",45.81667,15.98333,5850,wind,veter,veter,,ˈvʲjɛ̂tʰɐ̟ɾ,vjetar,,0
13331000008,"Croatian: Std",45.81667,15.98333,5920,thunder,grom,grom,,ɡɾɔ̂ːm,grom,,0
13331000008,"Croatian: Std",45.81667,15.98333,6070,grain,zerno,zerno,,ˈzɾ̩̂nɔ,zrno,,0
13331000008,"Croatian: Std",45.81667,15.98333,6840,wheel,koleso,koleso,,,kolo,,0
13331000008,"Croatian: Std",45.81667,15.98333,6860,game,igra,igra,,ǐɡɾɐ,igra,,0
13331000008,"Croatian: Std",45.81667,15.98333,6940,citadel,gorod,gorod,,ɡɾɑ̟̂ːt̬̥ʰ,grad,,0
13331000008,"Croatian: Std",45.81667,15.98333,8000,there_is,est_,est_,,ʝ̞ɛ̝,"je / jest / jeste",,0
13331000008,"Croatian: Std",45.81667,15.98333,8000,there_is,est_,est_,,jɛ̌stʰ,"je / jest / jeste",,0
13331000008,"Croatian: Std",45.81667,15.98333,8130,you_are_falling,padaesh_,padaesh_,,ˈpɑ̟̂dɐʂ,padaš,,0
13331000008,"Croatian: Std",45.81667,15.98333,8320,we_drink,p_yom,p_yom,,ˈpîjɛmɔ,pijemo,,0
13331000008,"Croatian: Std",45.81667,15.98333,8430,dead_fem,mertva,mertva,,ˈmɾ̩̌tvɑ̟,mrtva,,0
13331000008,"Croatian: Std",45.81667,15.98333,8480,you_believe,verish_,verish_,,ˈvjɛ̝̂ɾʉ.ɘ̟̆ɛ̠̆ʂ,vjeruješ,,0
13331000008,"Croatian: Std",45.81667,15.98333,8850,he_rubbed,tyor,tyor,,tɾ̌ːʎɪ̆ă.ɔ̞,"tro / trljao",,0
13331000008,"Croatian: Std",45.81667,15.98333,8890,we_are_digging,kopaem,kopaem,,ˈkʰɔ̝̌pɐmɔ,kopamo,,0
13331000008,"Croatian: Std",45.81667,15.98333,8980,it_froze,zamyorzlo,zamyorzlo,,ˈsmɾ̩̌znulˠɔ,"zamrzlo (se)",,0
13331000008,"Croatian: Std",45.81667,15.98333,9100,write_ipv_sg,pishi,pishi,,ˈpǐːʃi̽,piši,,0
13331000008,"Croatian: Std",45.81667,15.98333,710,my,moj,moj,,mô̞ːj,moj,,0
13331000008,"Croatian: Std",45.81667,15.98333,1230,where,gde,gde,,ɡdjɛ̂,gdje,,0
13331000008,"Croatian: Std",45.81667,15.98333,1330,there,tam,tam,,ˈtɑ̟̂mɔ̝,tamo,,0
13331000008,"Croatian: Std",45.81667,15.98333,1410,at_sea,v_more,v_more,,ˈûmɔɾ-u,"u moru",,0
13331000008,"Croatian: Std",45.81667,15.98333,5060,summer,leto,leto,,ˈʎɛ̝̂tɔ,ljeto,,0
13351000008,"Serbian: Std",44.75583,19.69389,30,three,tri,tri,,tɾîː,три,,0
13351000008,"Serbian: Std",44.75583,19.69389,40,four,chetyre,chetyre,,ˈtʂɛ̌tʰɪɾɪ,четири,,0
13351000008,"Serbian: Std",44.75583,19.69389,7210,long,dolgij,dolgij,,dûɡ̬̥,дуг,,0
13351000008,"Serbian: Std",44.75583,19.69389,7380,wide,shirokij,shirokij,,ˈʂǐɾɔ̟kʰ,широк,,0
13351000008,"Serbian: Std",44.75583,19.69389,7410,sharp_fem,ostraya,ostraya,,ˈɔ̂ʂtɾ-ɐ,оштрa,,0
13351000008,"Serbian: Std",44.75583,19.69389,7520,old,staryj,staryj,,stɑ̟̂ɾ,стар,,0
13351000008,"Serbian: Std",44.75583,19.69389,7650,alive,zhivoj,zhivoj,,ʐîːv̞,жив,,0
13351000008,"Serbian: Std",44.75583,19.69389,7710,good_neut,dobro_,dobro_,,ˈdɔ̌bɾ-ɔ̟,добрo,,0
13351000008,"Serbian: Std",44.75583,19.69389,7740,true_neut,vernoe,vernoe,,ˈvɛ̂ːɾn-ɔ̽,верно,,0
13351000008,"Serbian: Std",44.75583,19.69389,7910,hot_fem,tyoplaya,tyoplaya,,ˈtɔ̂plˠɑ̟,топла,,0
13351000008,"Serbian: Std",44.75583,19.69389,7940,wet_neut,mokroe,mokroe,,ˈmɔ̂kʰɾ-ɔ̟,мокрo,,0
13351000008,"Serbian: Std",44.75583,19.69389,820,on_the_left,na_levo_,na_levo_,,,"левo / налево",,0
13351000008,"Serbian: Std",44.75583,19.69389,2140,tears,slyozy,slyozy,,ˈsû̟zɛ̠,сузе,,0
13351000008,"Serbian: Std",44.75583,19.69389,2250,beard,boroda,boroda,,ˈbɾɑ̟̌dɐ̞,брада,,0
13351000008,"Serbian: Std",44.75583,19.69389,2310,hands,ruki,ruki,,ˈɾû̞ːk̟ɛ,рукe,,0
13351000008,"Serbian: Std",44.75583,19.69389,2610,blood,krov_,krov_,,kʰɜ̝ɾv̞,крв,,0
13351000008,"Serbian: Std",44.75583,19.69389,2810,heart,serdce,serdce,,ˈsɾ̩̂tsɛ,срце,,0
13351000008,"Serbian: Std",44.75583,19.69389,4330,brother,brat,brat,,bɾâ̠tʰ,брат,,0
13351000008,"Serbian: Std",44.75583,19.69389,4332,brothers,brat_ya,brat_ya,,ˈbɾâ̠tɕɐ,браћa,,0
13351000008,"Serbian: Std",44.75583,19.69389,4100,name,imya,imya,,ˈîmɛ,име,,0
13351000008,"Serbian: Std",44.75583,19.69389,4110,words,slova,slova,,ˈslˠɔ̂v̞ɑ̟,слова,,0
13351000008,"Serbian: Std",44.75583,19.69389,3240,fish_pl,ryby,ryby,,ˈɾîb-ɛ̠,рибe,,0
13351000008,"Serbian: Std",44.75583,19.69389,3310,cow,korova,korova,,ˈkɾɑ̟̂ʋɐ̠,крава,,0
13351000008,"Serbian: Std",44.75583,19.69389,3820,horn,rog,rog,,ˈɾɔ̂ːɡ,рог,,0
13351000008,"Serbian: Std",44.75583,19.69389,3840,wing,krylo,krylo,,ˈkɾǐːlɔ,крило,,0
13351000008,"Serbian: Std",44.75583,19.69389,3850,feather,pero,pero,,ˈpɛ̌ɾɔ̽,перо,,0
13351000008,"Serbian: Std",44.75583,19.69389,5220,rivers,reki,reki,,ˈɾɛ̝̌ːk̟ʰɛ̝,рекe,,0
13351000008,"Serbian: Std",44.75583,19.69389,5230,lake,ozero,ozero,,ˈjɛ̂zɛ̠ɾɔ̟,језеро,,0
13351000008,"Serbian: Std",44.75583,19.69389,5232,lakes,ozera,ozera,,ˈjɛ̂zɛ̠ɾa̠,језерa,,0
13351000008,"Serbian: Std",44.75583,19.69389,5240,sea,more,more,,ˈmɔ̂ːɾɛ̠,море,,0
13351000008,"Serbian: Std",44.75583,19.69389,6230,bark,kora,kora,,ˈkʰɔ̂ɾ̞ɐ̞,кора,,0
13351000008,"Serbian: Std",44.75583,19.69389,6240,root,koren_,koren_,,ˈkʰɔ̂ɾɛ̠n,корен,,0
13351000008,"Serbian: Std",44.75583,19.69389,6270,thorn,tyorn,tyorn,,tə̂ɾn,трн,,0
13351000008,"Serbian: Std",44.75583,19.69389,6310,grass,trava,trava,,ˈtɾɑ̟̂ːʋɑ̟,трава,,0
13351000008,"Serbian: Std",44.75583,19.69389,5850,wind,veter,veter,,ˈvɛ̂tɐ̞ɾ̥,ветар,,0
13351000008,"Serbian: Std",44.75583,19.69389,5920,thunder,grom,grom,,ɡɾɔ̂m,гром,,0
13351000008,"Serbian: Std",44.75583,19.69389,6070,grain,zerno,zerno,,zɾ̩̂nɔ,зрно,,0
13351000008,"Serbian: Std",44.75583,19.69389,6840,wheel,koleso,koleso,,ˈkʰɔ̝̂lˠɔ,коло,,0
13351000008,"Serbian: Std",44.75583,19.69389,6860,game,igra,igra,,ˈǐɡɾɑ̟,игра,,0
13351000008,"Serbian: Std",44.75583,19.69389,6940,citadel,gorod,gorod,,ɡɾɑ̟̂ːd,град,,0
13351000008,"Serbian: Std",44.75583,19.69389,8000,there_is,est_,est_,,,"је / јест / јесте",,0
13351000008,"Serbian: Std",44.75583,19.69389,8130,you_are_falling,padaesh_,padaesh_,,ˈpɑ̟̂dɐ̞ʂ,падаш,,0
13351000008,"Serbian: Std",44.75583,19.69389,8320,we_drink,p_yom,p_yom,,ˈpî.ɛmɔ̝,пиjeмo,,0
13351000008,"Serbian: Std",44.75583,19.69389,8430,dead_fem,mertva,mertva,,ˈmɾ̩̌tvɐ̠,мртва,,0
13351000008,"Serbian: Std",44.75583,19.69389,8480,you_believe,verish_,verish_,,ˈvɛ̂ɾu̟jəʂ,верyjeш,,0
13351000008,"Serbian: Std",44.75583,19.69389,8850,he_rubbed,tyor,tyor,,ˈtʰɘ̟̌ɾʎa̠.ɔ̝,"тро / трљао",,0
13351000008,"Serbian: Std",44.75583,19.69389,8890,we_are_digging,kopaem,kopaem,,ˈkʰɔ̝̂pɐ̠mɔ̝̃,копамo,,0
13351000008,"Serbian: Std",44.75583,19.69389,8980,it_froze,zamyorzlo,zamyorzlo,,ˈsmɾ̩̂znu̽lˠɔ,"замрзло (се)",,0
13351000008,"Serbian: Std",44.75583,19.69389,9100,write_ipv_sg,pishi,pishi,,ˈpǐːʂi̽,пиши,,0
13351000008,"Serbian: Std",44.75583,19.69389,710,my,moj,moj,,mɔ̂ːj,мој,,0
13351000008,"Serbian: Std",44.75583,19.69389,1230,where,gde,gde,,ɡdɛ̝̂ː,где,,0
13351000008,"Serbian: Std",44.75583,19.69389,1330,there,tam,tam,,ˈtɑ̟̂mɔ̝̃,тамо,,0
13351000008,"Serbian: Std",44.75583,19.69389,1410,at_sea,v_more,v_more,,uˈmɔ̂ːɾ-u̟,"у морy",,0
13351000008,"Serbian: Std",44.75583,19.69389,5060,summer,leto,leto,,ˈlɛ̂tɔ̝,лето,,0
13371000008,"Macedonian: Std",42,21.43333,30,three,tri,tri,,tɾi,три,,0
13371000008,"Macedonian: Std",42,21.43333,40,four,chetyre,chetyre,,ˈtʃɛ̝tɪɾ̞ɪ,четири,,0
13371000008,"Macedonian: Std",42,21.43333,7210,long,dolgij,dolgij,,dɔ̝lˠkʰ,долг,,0
13371000008,"Macedonian: Std",42,21.43333,7380,wide,shirokij,shirokij,,ˈʂi̠ɾɔ̽kʰ,широк,,0
13371000008,"Macedonian: Std",42,21.43333,7410,sharp_fem,ostraya,ostraya,,ˈɔ̝stɾ-ɐ̞,остра,,0
13371000008,"Macedonian: Std",42,21.43333,7520,old,staryj,staryj,,stɑ̟r̥,стар,,0
13371000008,"Macedonian: Std",42,21.43333,7650,alive,zhivoj,zhivoj,,ʐiɸ,жив,,0
13371000008,"Macedonian: Std",42,21.43333,7710,good_neut,dobro_,dobro_,,ˈdo̞bɾ-ɔ,добрo,,0
13371000008,"Macedonian: Std",42,21.43333,7740,true_neut,vernoe,vernoe,,ˈve̞ɾn-ɔ,верно,,0
13371000008,"Macedonian: Std",42,21.43333,7910,hot_fem,tyoplaya,tyoplaya,,ˈtɔ̞plˠɐ̞,топла,,0
13371000008,"Macedonian: Std",42,21.43333,7940,wet_neut,mokroe,mokroe,,ˈmɔ̝̃kɾ-ɔ,мокро,,0
13371000008,"Macedonian: Std",42,21.43333,820,on_the_left,na_levo_,na_levo_,,,"лево / налево",,0
13371000008,"Macedonian: Std",42,21.43333,2140,tears,slyozy,slyozy,,ˈsɔ̝lˠzi̞,солзи,,0
13371000008,"Macedonian: Std",42,21.43333,2250,beard,boroda,boroda,,ˈbɾɑ̟dɐ̞̟,брада,,0
13371000008,"Macedonian: Std",42,21.43333,2310,hands,ruki,ruki,,ˈɾɑ̟tsɛ̠,раце,,0
13371000008,"Macedonian: Std",42,21.43333,2610,blood,krov_,krov_,,kʰɜ̝ɾf,крв,,0
13371000008,"Macedonian: Std",42,21.43333,2810,heart,serdce,serdce,,ˈsɾ̩tsɛ̠,срце,,0
13371000008,"Macedonian: Std",42,21.43333,4330,brother,brat,brat,,bɾɑ̟tʰ,брат,,0
13371000008,"Macedonian: Std",42,21.43333,4332,brothers,brat_ya,brat_ya,,ˈbɾɑ̟cʰɐ̠,браќа,,0
13371000008,"Macedonian: Std",42,21.43333,4100,name,imya,imya,,ˈimɛ̠,име,,0
13371000008,"Macedonian: Std",42,21.43333,4110,words,slova,slova,,ˈslˠo̞vɑ̟,слова,,0
13371000008,"Macedonian: Std",42,21.43333,3240,fish_pl,ryby,ryby,,ˈɾib-i̠,риби,,0
13371000008,"Macedonian: Std",42,21.43333,3310,cow,korova,korova,,ˈkʰɾɑ̟vɑ̟,крава,,0
13371000008,"Macedonian: Std",42,21.43333,3820,horn,rog,rog,,ɾɔ̝kʰ,рог,,0
13371000008,"Macedonian: Std",42,21.43333,3840,wing,krylo,krylo,,ˈkʰɾi̠lˠɔ,крило,,0
13371000008,"Macedonian: Std",42,21.43333,3850,feather,pero,pero,,ˈpɛ̝ɾɔ,перо,,0
13371000008,"Macedonian: Std",42,21.43333,5220,rivers,reki,reki,,ˈɾɛ̝kʰɑ̟,река,,0
13371000008,"Macedonian: Std",42,21.43333,5230,lake,ozero,ozero,,ˈe̞zɜ̟ɾɔ,езеро,,0
13371000008,"Macedonian: Std",42,21.43333,5232,lakes,ozera,ozera,,ˈe̞zɜ̟ɾɐ̞,езерa,,0
13371000008,"Macedonian: Std",42,21.43333,5240,sea,more,more,,ˈmo̞ɾɛ̠,море,,0
13371000008,"Macedonian: Std",42,21.43333,6230,bark,kora,kora,,ˈkʰoɾɐ̞,кора,,0
13371000008,"Macedonian: Std",42,21.43333,6240,root,koren_,koren_,,ˈkʰɔ̝ɾɛ̠n,корен,,0
13371000008,"Macedonian: Std",42,21.43333,6270,thorn,tyorn,tyorn,,tɾ̩n,трн,,0
13371000008,"Macedonian: Std",42,21.43333,6310,grass,trava,trava,,tɾɛ̝vɑ̟,"трева / трава",,0
13371000008,"Macedonian: Std",42,21.43333,6310,grass,trava,trava,,ˈtɾɑ̟vɐ̠̞,"трева / трава",,0
13371000008,"Macedonian: Std",42,21.43333,5850,wind,veter,veter,,ˈve̞təɾ̥,ветер,,0
13371000008,"Macedonian: Std",42,21.43333,5920,thunder,grom,grom,,ɡɾɔ̝m,гром,,0
13371000008,"Macedonian: Std",42,21.43333,6070,grain,zerno,zerno,,ˈzr̩nɔ̞,зрно,,0
13371000008,"Macedonian: Std",42,21.43333,6840,wheel,koleso,koleso,,ˈkʰo̞lˠɔ,коло,,0
13371000008,"Macedonian: Std",42,21.43333,6860,game,igra,igra,,ˈiɡɾɐ̞,игра,,0
13371000008,"Macedonian: Std",42,21.43333,6940,citadel,gorod,gorod,,ɡɾɑ̟tʰ,град,,0
13371000008,"Macedonian: Std",42,21.43333,8000,there_is,est_,est_,,e,е,,0
13371000008,"Macedonian: Std",42,21.43333,8130,you_are_falling,padaesh_,padaesh_,,ˈpɑ̟ɟəʂ,"паѓаш / падаш",,0
13371000008,"Macedonian: Std",42,21.43333,8320,we_drink,p_yom,p_yom,,ˈpʰi.e̽mɛ̠,пиеме,,0
13371000008,"Macedonian: Std",42,21.43333,8430,dead_fem,mertva,mertva,,ˈmɾ̩tvɐ̠,мртва,,0
13371000008,"Macedonian: Std",42,21.43333,8480,you_believe,verish_,verish_,,sə̟-ˈveɾɪʂ,"веруваш / вериш се",,0
13371000008,"Macedonian: Std",42,21.43333,8850,he_rubbed,tyor,tyor,,ˈtɾi.ɛ̠lˠ,триел,,0
13371000008,"Macedonian: Std",42,21.43333,8890,we_are_digging,kopaem,kopaem,,ˈkʰo̞pɐ̞mɛ̠,копаме,,0
13371000008,"Macedonian: Std",42,21.43333,8980,it_froze,zamyorzlo,zamyorzlo,,zɐˈmɾ̩znɑ̟lˠɔ,замрзнало,,0
13371000008,"Macedonian: Std",42,21.43333,9100,write_ipv_sg,pishi,pishi,,ˈpi̞ʂi,пиши,,0
13371000008,"Macedonian: Std",42,21.43333,710,my,moj,moj,,mɔ̝ɪ̆,мој,,0
13371000008,"Macedonian: Std",42,21.43333,1230,where,gde,gde,,ˈkʰɑ̟dɛ̠,каде,,0
13371000008,"Macedonian: Std",42,21.43333,1330,there,tam,tam,,ˈtɑ̟mũ̞,таму,,0
13371000008,"Macedonian: Std",42,21.43333,1410,at_sea,v_more,v_more,,v̥ɔ̝̆ˈmɔ̝r-ɛ̠,"во море",,0
13371000008,"Macedonian: Std",42,21.43333,5060,summer,leto,leto,,ˈlˠe̞tɔ,лето,,0
13381000008,"Bulgarian: Std",42.7,23.33333,30,three,tri,tri,,tɾi,три,,0
13381000008,"Bulgarian: Std",42.7,23.33333,40,four,chetyre,chetyre,,ˈtʃɛ̝tʰĭ̠ɾi,четири,,0
13381000008,"Bulgarian: Std",42.7,23.33333,7210,long,dolgij,dolgij,,ˈdɤ̽ɫɤ̆kʰ,дълъг,,0
13381000008,"Bulgarian: Std",42.7,23.33333,7380,wide,shirokij,shirokij,,ʃi̽ˈɾɔ̞kʰˑ,широк,,0
13381000008,"Bulgarian: Std",42.7,23.33333,7410,sharp_fem,ostraya,ostraya,,ˈɔ̞stɾ-ɐ̝,острa,,0
13381000008,"Bulgarian: Std",42.7,23.33333,7520,old,staryj,staryj,,sta̠r,стар,,0
13381000008,"Bulgarian: Std",42.7,23.33333,7650,alive,zhivoj,zhivoj,,ʒi̞f,жив,,0
13381000008,"Bulgarian: Std",42.7,23.33333,7710,good_neut,dobro_,dobro_,,du̞ˈbɾ-ɔ̞,добрo,,0
13381000008,"Bulgarian: Std",42.7,23.33333,7740,true_neut,vernoe,vernoe,,ˈvʲja̠ɾn-ũ̞,вярно,,0
13381000008,"Bulgarian: Std",42.7,23.33333,7910,hot_fem,tyoplaya,tyoplaya,,ˈtɔpʰɫɐ̠,топлa,,0
13381000008,"Bulgarian: Std",42.7,23.33333,7940,wet_neut,mokroe,mokroe,,ˈmɔ̞kɾ-o̞,мокрo,,0
13381000008,"Bulgarian: Std",42.7,23.33333,820,on_the_left,na_levo_,na_levo_,,nɛ̽ˈlʲɛvɔ,"лявo, налявo",,0
13381000008,"Bulgarian: Std",42.7,23.33333,820,on_the_left,na_levo_,na_levo_,,ˈlʲɛvɔ,"лявo, налявo",,0
13381000008,"Bulgarian: Std",42.7,23.33333,2140,tears,slyozy,slyozy,,sɤ̽ɫˈzi,сълзи,,0
13381000008,"Bulgarian: Std",42.7,23.33333,2250,beard,boroda,boroda,,bɾɜ̟ˈda,брада,,0
13381000008,"Bulgarian: Std",42.7,23.33333,2310,hands,ruki,ruki,,ɾəˈtsɛ̝,ръцe,,0
13381000008,"Bulgarian: Std",42.7,23.33333,2610,blood,krov_,krov_,,kɾɜf,кръв,,0
13381000008,"Bulgarian: Std",42.7,23.33333,2810,heart,serdce,serdce,,sɾ̩ˈtsɛ̝,сърце,,0
13381000008,"Bulgarian: Std",42.7,23.33333,4330,brother,brat,brat,,bɾa̠tʰˑ,брат,,0
13381000008,"Bulgarian: Std",42.7,23.33333,4332,brothers,brat_ya,brat_ya,,ˈbɾa̠tʰʲɪ̆ɐ̝,братя,,0
13381000008,"Bulgarian: Std",42.7,23.33333,4100,name,imya,imya,,ˈimɛ̽,име,,0
13381000008,"Bulgarian: Std",42.7,23.33333,4110,words,slova,slova,,sɫoˈvɑ̟,слова,,0
13381000008,"Bulgarian: Std",42.7,23.33333,4110,words,slova,slova,,doɪm,слова,,1
13381000008,"Bulgarian: Std",42.7,23.33333,3240,fish_pl,ryby,ryby,,ˈɾib-i,риби,,0
13381000008,"Bulgarian: Std",42.7,23.33333,3310,cow,korova,korova,,ˈkɾa̠ˑvɐ,крава,,0
13381000008,"Bulgarian: Std",42.7,23.33333,3820,horn,rog,rog,,ɾɔ̞kʰ,рог,,0
13381000008,"Bulgarian: Std",42.7,23.33333,3840,wing,krylo,krylo,,kʰɾʲi̽ˈɫɔ,крило,,0
13381000008,"Bulgarian: Std",42.7,23.33333,3850,feather,pero,pero,,pɛˈɾɔ̞,перо,,0
13381000008,"Bulgarian: Std",42.7,23.33333,5220,rivers,reki,reki,,ɾe̠ˈkʰʲi,реки,,0
13381000008,"Bulgarian: Std",42.7,23.33333,5230,lake,ozero,ozero,,ˈɛ̞zɘ̟ɾo,езеро,,0
13381000008,"Bulgarian: Std",42.7,23.33333,5232,lakes,ozera,ozera,,ɘ̟zɛ̽ˈɾa̠,езерa,,0
13381000008,"Bulgarian: Std",42.7,23.33333,5240,sea,more,more,,mu̞ˈɾɛ,море,,0
13381000008,"Bulgarian: Std",42.7,23.33333,6230,bark,kora,kora,,kʰo̽ˈɾa̠,кора,,0
13381000008,"Bulgarian: Std",42.7,23.33333,6240,root,koren_,koren_,,ˈkʰɔ̞ɾɛ̠n,корен,,0
13381000008,"Bulgarian: Std",42.7,23.33333,6270,thorn,tyorn,tyorn,,tɾʌ̟n,трън,,0
13381000008,"Bulgarian: Std",42.7,23.33333,6310,grass,trava,trava,,tɾɘ̟ˈvɑ̟,трева,,0
13381000008,"Bulgarian: Std",42.7,23.33333,5850,wind,veter,veter,,ˈvʲjatɜ̟ɾ̥,вятър,,0
13381000008,"Bulgarian: Std",42.7,23.33333,5920,thunder,grom,grom,,ɡɾʌ̟̆m,гръм,,0
13381000008,"Bulgarian: Std",42.7,23.33333,6070,grain,zerno,zerno,,ˈzɘ̟rnũ̞,зърно,,0
13381000008,"Bulgarian: Std",42.7,23.33333,6840,wheel,koleso,koleso,,kʰoləˈɫɔ,"колело / колa",,0
13381000008,"Bulgarian: Std",42.7,23.33333,6840,wheel,koleso,koleso,,ˈkʰoɫɔ,"колело / колa",,0
13381000008,"Bulgarian: Std",42.7,23.33333,6860,game,igra,igra,,iˈɡɾa̠,игра,,0
13381000008,"Bulgarian: Std",42.7,23.33333,6940,citadel,gorod,gorod,,ɡɾa̠tʰˑ,град,,0
13381000008,"Bulgarian: Std",42.7,23.33333,8000,there_is,est_,est_,,,е,,0
13381000008,"Bulgarian: Std",42.7,23.33333,8130,you_are_falling,padaesh_,padaesh_,,ˈpa̠dɘ̟ʂ,падаш,,0
13381000008,"Bulgarian: Std",42.7,23.33333,8320,we_drink,p_yom,p_yom,,ˈpi.ɛ̝m,пиeм,,0
13381000008,"Bulgarian: Std",42.7,23.33333,8430,dead_fem,mertva,mertva,,ˈmɜrtfɐ,мъртвa,,0
13381000008,"Bulgarian: Std",42.7,23.33333,8480,you_believe,verish_,verish_,,ˈvʲjaɾvɘ̆ʂ,вярвaш,,0
13381000008,"Bulgarian: Std",42.7,23.33333,8850,he_rubbed,tyor,tyor,,tɾiɫ,"триел / трил",,0
13381000008,"Bulgarian: Std",42.7,23.33333,8890,we_are_digging,kopaem,kopaem,,kŏ̝ˈpa̠.ɛ̠m,копаeм,,0
13381000008,"Bulgarian: Std",42.7,23.33333,8980,it_froze,zamyorzlo,zamyorzlo,,zəˈmɾəznɐ̝ɫo,замръзналo,,0
13381000008,"Bulgarian: Std",42.7,23.33333,9100,write_ipv_sg,pishi,pishi,,pʲiˈʃi̞,пиши,,0
13381000008,"Bulgarian: Std",42.7,23.33333,710,my,moj,moj,,mɔ̞j,мой,,0
13381000008,"Bulgarian: Std",42.7,23.33333,1230,where,gde,gde,,kʰəˈdɛ,къде,,0
13381000008,"Bulgarian: Std",42.7,23.33333,1330,there,tam,tam,,ta̠m,там,,0
13381000008,"Bulgarian: Std",42.7,23.33333,1410,at_sea,v_more,v_more,,vmõˈɾ-ɛ,"в море",,0
13381000008,"Bulgarian: Std",42.7,23.33333,5060,summer,leto,leto,,ˈlʲatu,лято,,0
