LanguageId,LanguageName,Latitude,Longitude,WordId,WordModernName1,WordModernName2,WordProtoName1,WordProtoName2,Phonetic,SpellingAltv1,SpellingAltv2,NotCognateWithMainWordInThisFamily
28001000000,"Ref. Spelling",-40,-75.5,70,siete,seven,,,ʐëɣlë,regle,,0
28001000000,"Ref. Spelling",-40,-75.5,80,ocho,eight,,,pʊʐɐ̝,pura,,0
28001000000,"Ref. Spelling",-40,-75.5,100,diez,ten,,,mɐ̝ʐɪ,mari,,0
28001000000,"Ref. Spelling",-40,-75.5,210,mil,thousand,,,wɐ̝ʐɐ̝ŋkɐ̝,warangka,,0
28001000000,"Ref. Spelling",-40,-75.5,7010,negro,black,,,kʊʐɘ,kurü,,0
28001000000,"Ref. Spelling",-40,-75.5,7910,caliente,warm,,,ɐ̝ʐë,are,,0
28001000000,"Ref. Spelling",-40,-75.5,7910,caliente,warm,,,köfɪ,kofi,,0
28001000000,"Ref. Spelling",-40,-75.5,2240,diente,tooth,,,föʐö,foro,,0
28001000000,"Ref. Spelling",-40,-75.5,2620,hueso,bone,,,föʐö,foro,,0
28001000000,"Ref. Spelling",-40,-75.5,10620,esposa,wife,,,kʊʐë,kure,,0
28001000000,"Ref. Spelling",-40,-75.5,21400,duenyo_casa,house_owner,,,"ŋën ʐʊkɐ̝","ngen ruka",,0
28001000000,"Ref. Spelling",-40,-75.5,20070,zorro,fox,,,ŋɘʐɘ,ngürü,,0
28001000000,"Ref. Spelling",-40,-75.5,20030,gato,cat,,,nɐ̝ʐkɪ,narki,,0
28001000000,"Ref. Spelling",-40,-75.5,10200,liebre,hare,,,mɐ̝ʐɐ̝,mara,,0
28001000000,"Ref. Spelling",-40,-75.5,3420,gusano,worm,,,pɪʐʊ,piru,,0
28001000000,"Ref. Spelling",-40,-75.5,3810,huevo,egg,,,kʊʐɐ̝m,kuram,,0
28001000000,"Ref. Spelling",-40,-75.5,5510,piedra,stone,,,kʊʐɐ̝,kura,,0
28001000000,"Ref. Spelling",-40,-75.5,5850,viento,wind,,,kɘʐɘf,kürüf,,0
28001000000,"Ref. Spelling",-40,-75.5,5850,viento,wind,,,wɘʈʂë,wütre,,0
28001000000,"Ref. Spelling",-40,-75.5,6510,casa,house,,,ʐʊkɐ̝,ruka,,0
28001000000,"Ref. Spelling",-40,-75.5,30500,pueblo,town,,,wɐ̝ʐɪɐ̝,waria,,0
28001000000,"Ref. Spelling",-40,-75.5,6810,camino,road,,,ʐɘpɘ,rüpü,,0
28131006609,"Santa Bárbara",-37.67405,-71.80186,70,siete,seven,,,ˈɻël.jë,,,0
28131006609,"Santa Bárbara",-37.67405,-71.80186,80,ocho,eight,,,pʊ.ˈɻɐ̝,,,0
28131006609,"Santa Bárbara",-37.67405,-71.80186,100,diez,ten,,,ˈmɐ̝.ɻɪ,,,0
28131006609,"Santa Bárbara",-37.67405,-71.80186,210,mil,thousand,,,wɐ̝.ɻɐ̝ŋ.ˈɡɐ̝,,,0
28131006609,"Santa Bárbara",-37.67405,-71.80186,7010,negro,black,,,ˈkʊ.ɻɘ,,,0
28131006609,"Santa Bárbara",-37.67405,-71.80186,7910,caliente,warm,,,hɐ̝.ˈɻë.lɪ,,,0
28131006609,"Santa Bárbara",-37.67405,-71.80186,2240,diente,tooth,,,ˈvö.ɻö,,,0
28131006609,"Santa Bárbara",-37.67405,-71.80186,2620,hueso,bone,,,ˈvö.ɻö,,,0
28131006609,"Santa Bárbara",-37.67405,-71.80186,10620,esposa,wife,,,ʊ.ˈɻë,,,0
28131006609,"Santa Bárbara",-37.67405,-71.80186,21400,duenyo_casa,house_owner,,,ˈnën.ˌɖ͡ʐʊ.kɐ̝,,,0
28131006609,"Santa Bárbara",-37.67405,-71.80186,20070,zorro,fox,,,ˈŋɘ.ɻɘ,,,0
28131006609,"Santa Bárbara",-37.67405,-71.80186,20030,gato,cat,,,ɲɐ̝j.cʰɪ,,,0
28131006609,"Santa Bárbara",-37.67405,-71.80186,10200,liebre,hare,,,ˈmɐ̝.ɻɐ̝,,,0
28131006609,"Santa Bárbara",-37.67405,-71.80186,3420,gusano,worm,,,ˈpɪ.ɻʊ,,,0
28131006609,"Santa Bárbara",-37.67405,-71.80186,3810,huevo,egg,,,kʊ.ˈɻɐ̝m,,,0
28131006609,"Santa Bárbara",-37.67405,-71.80186,5510,piedra,stone,,,ˈkʊ.ɻɐ̝,,,0
28131006609,"Santa Bárbara",-37.67405,-71.80186,5850,viento,wind,,,kɘ.ˈɻɘf,,,0
28131006609,"Santa Bárbara",-37.67405,-71.80186,6510,casa,house,,,ˈʐ̞ʊ.kʰɐ̝,,,0
28131006609,"Santa Bárbara",-37.67405,-71.80186,30500,pueblo,town,,,wɐ̝.ˈʐɪ.ɐ̝,,,0
28131006609,"Santa Bárbara",-37.67405,-71.80186,6810,camino,road,,,ˈʐ̞ɘ.pɘ,,,0
28131007109,Cañete,-37.96722,-73.39282,70,siete,seven,,,ˈɻël.ʝë,,,0
28131007109,Cañete,-37.96722,-73.39282,80,ocho,eight,,,ˈɸʊ.ʐɐ̝,,,0
28131007109,Cañete,-37.96722,-73.39282,100,diez,ten,,,mɐ̝ʐ,,,0
28131007109,Cañete,-37.96722,-73.39282,210,mil,thousand,,,wɐ̝.ˈɻɐ̝ŋ.kɐ̝,,,0
28131007109,Cañete,-37.96722,-73.39282,7010,negro,black,,,ˈkʊ.ʐɘ,,,0
28131007109,Cañete,-37.96722,-73.39282,7910,caliente,warm,,,ɐ̝ɭ,,,0
28131007109,Cañete,-37.96722,-73.39282,2240,diente,tooth,,,m̩.ˈbö.ʐö,,,0
28131007109,Cañete,-37.96722,-73.39282,2620,hueso,bone,,,m̩.ˈbö.ɻö,,,0
28131007109,Cañete,-37.96722,-73.39282,10620,esposa,wife,,,ˈkʊ.ʐë,,,0
28131007109,Cañete,-37.96722,-73.39282,21400,duenyo_casa,house_owner,,,ˌɲën.ˈɖ͡ʐʊ.kɐ̝,,,0
28131007109,Cañete,-37.96722,-73.39282,20070,zorro,fox,,,ŋɘ.ˈʐɘ,,,0
28131007109,Cañete,-37.96722,-73.39282,20030,gato,cat,,,ˈɲɐ̝j.ç̩,,,0
28131007109,Cañete,-37.96722,-73.39282,10200,liebre,hare,,,ˈmɐ̝.ʐɐ̝,,,0
28131007109,Cañete,-37.96722,-73.39282,3420,gusano,worm,,,ˈbɪ.ʐʊ,,,0
28131007109,Cañete,-37.96722,-73.39282,3810,huevo,egg,,,ˈkʰʊ.ʐɐ̝m,,,0
28131007109,Cañete,-37.96722,-73.39282,5510,piedra,stone,,,ˈkʊ.ʐɐ̝,,,0
28131007109,Cañete,-37.96722,-73.39282,5850,viento,wind,,,kʰɘ.ˈʐɘv,,,0
28131007109,Cañete,-37.96722,-73.39282,6510,casa,house,,,ˈʐʊ.kɐ̝,,,0
28131007109,Cañete,-37.96722,-73.39282,30500,pueblo,town,,,ɡwɐ̝.ˈɻɪ.ɐ̝,,,0
28131007109,Cañete,-37.96722,-73.39282,6810,camino,road,,,ˈɻɘ.pɘ,,,0
28131009109,Tirúa,-38.3699,-73.49067,70,siete,seven,,,ˈɻël.ɡë,,,0
28131009109,Tirúa,-38.3699,-73.49067,80,ocho,eight,,,ˈpʊ.ɻɐ̝̥,,,0
28131009109,Tirúa,-38.3699,-73.49067,100,diez,ten,,,ˈmɐ̝.ɻë,,,0
28131009109,Tirúa,-38.3699,-73.49067,210,mil,thousand,,,wɐ̝.ˈɻɐ̝ŋ.kʰɐ̝,,,0
28131009109,Tirúa,-38.3699,-73.49067,7010,negro,black,,,ˈkʊ.ɻɘ,,,0
28131009109,Tirúa,-38.3699,-73.49067,7910,caliente,warm,,,ɐ̝.ˈɻë.ŋɪ,,,0
28131009109,Tirúa,-38.3699,-73.49067,2240,diente,tooth,,,ˈɸö.ɻö,,,0
28131009109,Tirúa,-38.3699,-73.49067,2620,hueso,bone,,,ˈö.ɻö,,,0
28131009109,Tirúa,-38.3699,-73.49067,10620,esposa,wife,,,ˈkʊ.ɻë,,,0
28131009109,Tirúa,-38.3699,-73.49067,21400,duenyo_casa,house_owner,,,ˌŋën.ˈd͡ɹ̝ʊ.ɡɐ̝,,,0
28131009109,Tirúa,-38.3699,-73.49067,20070,zorro,fox,,,ˈɳɘ.ɻɘ,,,0
28131009109,Tirúa,-38.3699,-73.49067,20030,gato,cat,,,nɐ̝ɻ.kɪ,,,0
28131009109,Tirúa,-38.3699,-73.49067,10200,liebre,hare,,,ˈmɐ̝.ɭɐ̝,,,0
28131009109,Tirúa,-38.3699,-73.49067,3420,gusano,worm,,,ˈpɪ.ɻʊ,,,0
28131009109,Tirúa,-38.3699,-73.49067,3810,huevo,egg,,,ˈkʊ.ɻɐ̝m,,,0
28131009109,Tirúa,-38.3699,-73.49067,5510,piedra,stone,,,ˈkʊ.ɻɐ̝,,,0
28131009109,Tirúa,-38.3699,-73.49067,5850,viento,wind,,,ɘ.ˈɻɘf,,,0
28131009109,Tirúa,-38.3699,-73.49067,6510,casa,house,,,ˈɻʊ.kɐ̝,,,0
28131009109,Tirúa,-38.3699,-73.49067,30500,pueblo,town,,,wɐ̝.ˈɻɪ.ɐ̝,,,0
28131009109,Tirúa,-38.3699,-73.49067,6810,camino,road,,,ˈëɻ.pʊ̥,,,0
28131009809,"Alto Bío Bío",-38.04457,-71.36344,70,siete,seven,,,ël.ˈɡë,,,0
28131009809,"Alto Bío Bío",-38.04457,-71.36344,80,ocho,eight,,,ɸʊ.ˈɻɐ̝,,,0
28131009809,"Alto Bío Bío",-38.04457,-71.36344,100,diez,ten,,,mɐ̝.ɻɪ,,,0
28131009809,"Alto Bío Bío",-38.04457,-71.36344,210,mil,thousand,,,wɐ̝.ˈɻɐ̝ŋ.kʰɐ̝,,,0
28131009809,"Alto Bío Bío",-38.04457,-71.36344,7010,negro,black,,,ˈkʊ.ɻɘ,,,0
28131009809,"Alto Bío Bío",-38.04457,-71.36344,7910,caliente,warm,,,ˈɐ̝.ɻë,,,0
28131009809,"Alto Bío Bío",-38.04457,-71.36344,2240,diente,tooth,,,m̩̆.ˈβö.ɹö,,,0
28131009809,"Alto Bío Bío",-38.04457,-71.36344,2620,hueso,bone,,,vö.ˈɻö,,,0
28131009809,"Alto Bío Bío",-38.04457,-71.36344,10620,esposa,wife,,,ˈkʊ.ɻë,,,0
28131009809,"Alto Bío Bío",-38.04457,-71.36344,21400,duenyo_casa,house_owner,,,ˌɲën.ˈɾʊ.kɐ̝,,,0
28131009809,"Alto Bío Bío",-38.04457,-71.36344,20070,zorro,fox,,,ˈŋɘ.ɻɘ,,,0
28131009809,"Alto Bío Bío",-38.04457,-71.36344,20030,gato,cat,,,ˈɲɐ̝j.cʰɪ,,,0
28131009809,"Alto Bío Bío",-38.04457,-71.36344,10200,liebre,hare,,,mɐ̝.ˈɻɐ̝,,,0
28131009809,"Alto Bío Bío",-38.04457,-71.36344,3420,gusano,worm,,,ˈpɪ.ɻʊ,,,0
28131009809,"Alto Bío Bío",-38.04457,-71.36344,3810,huevo,egg,,,kʊ.ˈɻɐ̝m,,,0
28131009809,"Alto Bío Bío",-38.04457,-71.36344,5510,piedra,stone,,,kʊ.ˈɻɐ̝,,,0
28131009809,"Alto Bío Bío",-38.04457,-71.36344,5850,viento,wind,,,kʰɘ.ˈɻɘf,,,0
28131009809,"Alto Bío Bío",-38.04457,-71.36344,6510,casa,house,,,ˈɻʊ.kɐ̝,,,0
28131009809,"Alto Bío Bío",-38.04457,-71.36344,30500,pueblo,town,,,ˌwɐ̝.ˈɻɪ.ɐ̝,,,0
28131009809,"Alto Bío Bío",-38.04457,-71.36344,6810,camino,road,,,ˈɻɘ.pɘ,,,0
28141000309,Angol,-37.86289,-72.68304,70,siete,seven,,,ˈɻël.ɣë,,,0
28141000309,Angol,-37.86289,-72.68304,80,ocho,eight,,,ˈʊ.ɻɐ̝,,,0
28141000309,Angol,-37.86289,-72.68304,100,diez,ten,,,ˈmɐ̝.ɻɪ,,,0
28141000309,Angol,-37.86289,-72.68304,210,mil,thousand,,,ˌwɐ̝.ˈɻɐ̝ŋ.kʰɐ̝,,,0
28141000309,Angol,-37.86289,-72.68304,7010,negro,black,,,kö.ˈɻɘ,,,0
28141000309,Angol,-37.86289,-72.68304,2240,diente,tooth,,,ˈvö.ɻö,,,0
28141000309,Angol,-37.86289,-72.68304,2620,hueso,bone,,,vö.ˈɻö,,,0
28141000309,Angol,-37.86289,-72.68304,10620,esposa,wife,,,kʊ.ˈɻë,,,0
28141000309,Angol,-37.86289,-72.68304,21400,duenyo_casa,house_owner,,,ˌŋën.ɽʊ.ˈkɐ̝,,,0
28141000309,Angol,-37.86289,-72.68304,20070,zorro,fox,,,ŋɘ.ˈɻɘ,,,0
28141000309,Angol,-37.86289,-72.68304,20030,gato,cat,,,ˈɲɐ̝j.cʰɪ,,,0
28141000309,Angol,-37.86289,-72.68304,10200,liebre,hare,,,mɐ̝.ˈɻɐ̝,,,0
28141000309,Angol,-37.86289,-72.68304,3420,gusano,worm,,,ˈpɪ.ɻʊ,,,0
28141000309,Angol,-37.86289,-72.68304,3810,huevo,egg,,,kʊ.ˈɻɐ̝m,,,0
28141000309,Angol,-37.86289,-72.68304,5510,piedra,stone,,,ˈkʊ.ɻɐ̝,,,0
28141000309,Angol,-37.86289,-72.68304,5850,viento,wind,,,kɘ.ˈɻɘv,,,0
28141000309,Angol,-37.86289,-72.68304,6510,casa,house,,,ˈɻʊ.kʰɐ̝,,,0
28141000309,Angol,-37.86289,-72.68304,6810,camino,road,,,ˈɻɘ.pɘ,,,0
28141001209,Lumaco,-38.17584,-72.89947,70,siete,seven,,,ˈɘɻ.jë,,,0
28141001209,Lumaco,-38.17584,-72.89947,80,ocho,eight,,,ˈbʊ.ɻɐ̝,,,0
28141001209,Lumaco,-38.17584,-72.89947,100,diez,ten,,,ˈmɐ̝.ɻɪ,,,0
28141001209,Lumaco,-38.17584,-72.89947,210,mil,thousand,,,wɐ̝.ˈɻɐ̝ŋ.kʰɐ̝,,,0
28141001209,Lumaco,-38.17584,-72.89947,7010,negro,black,,,xwɘɻ,,,0
28141001209,Lumaco,-38.17584,-72.89947,7910,caliente,warm,,,ˈhɐ̝.ɻë,,,0
28141001209,Lumaco,-38.17584,-72.89947,2240,diente,tooth,,,m.ˈβö.ɻö,,,0
28141001209,Lumaco,-38.17584,-72.89947,2620,hueso,bone,,,m.ˈβö.ɻö,,,0
28141001209,Lumaco,-38.17584,-72.89947,10620,esposa,wife,,,ˈkʊ.ɻë,,,0
28141001209,Lumaco,-38.17584,-72.89947,21400,duenyo_casa,house_owner,,,ˌɲën.ɻʊ.ˈkɐ̝,,,0
28141001209,Lumaco,-38.17584,-72.89947,20070,zorro,fox,,,ˈŋɘ.ɻɘ,,,0
28141001209,Lumaco,-38.17584,-72.89947,20030,gato,cat,,,ˈɲɐ̝j.çëë̥̯,,,0
28141001209,Lumaco,-38.17584,-72.89947,10200,liebre,hare,,,ˈmɐ̝.ɻɐ̝,,,0
28141001209,Lumaco,-38.17584,-72.89947,3420,gusano,worm,,,ˈpɪ.ɻʊ,,,0
28141001209,Lumaco,-38.17584,-72.89947,3810,huevo,egg,,,ˈkʊ.ɻɐ̝m,,,0
28141001209,Lumaco,-38.17584,-72.89947,5510,piedra,stone,,,ˈkʊː.ɻɐ̝,,,0
28141001209,Lumaco,-38.17584,-72.89947,5850,viento,wind,,,ɡɘ.ˈɻɘf,,,0
28141001209,Lumaco,-38.17584,-72.89947,6510,casa,house,,,ˈɾʊ.kɐ̝,,,0
28141001209,Lumaco,-38.17584,-72.89947,30500,pueblo,town,,,wɐ̝.ˈɻɪ.ɐ̝,,,0
28141001209,Lumaco,-38.17584,-72.89947,6810,camino,road,,,ˈʐë.pʊ,,,0
28141001409,Ercilla,-38.04926,-72.44544,70,siete,seven,,,ˈʐë.ɡlë,,,0
28141001409,Ercilla,-38.04926,-72.44544,80,ocho,eight,,,pʊ.ˈʐɐ̝,,,0
28141001409,Ercilla,-38.04926,-72.44544,100,diez,ten,,,ˈmɐ̝.ɻɪ,,,0
28141001409,Ercilla,-38.04926,-72.44544,210,mil,thousand,,,wɐ̝.ˈɻɐ̝ŋ.kʰɐ̝,,,0
28141001409,Ercilla,-38.04926,-72.44544,7010,negro,black,,,kʊ.ˈɻɘ,,,0
28141001409,Ercilla,-38.04926,-72.44544,7910,caliente,warm,,,ˌɐ̝.ˈɻë.lɪ̥,,,0
28141001409,Ercilla,-38.04926,-72.44544,2240,diente,tooth,,,fö.ˈɻö,,,0
28141001409,Ercilla,-38.04926,-72.44544,2620,hueso,bone,,,fö.ˈʐö,,,0
28141001409,Ercilla,-38.04926,-72.44544,10620,esposa,wife,,,kʊ.ˈɻë,,,0
28141001409,Ercilla,-38.04926,-72.44544,21400,duenyo_casa,house_owner,,,ˌɲën.ʊ̆.ˌkɐ̝̥,,,0
28141001409,Ercilla,-38.04926,-72.44544,20070,zorro,fox,,,ŋɘɻʂ,,,0
28141001409,Ercilla,-38.04926,-72.44544,20030,gato,cat,,,ˈɲɐ̝j.cʰɪ,,,0
28141001409,Ercilla,-38.04926,-72.44544,10200,liebre,hare,,,ˈmɐ̝.ɻɐ̝,,,0
28141001409,Ercilla,-38.04926,-72.44544,3420,gusano,worm,,,ˈpɪ.ʐʊ,,,0
28141001409,Ercilla,-38.04926,-72.44544,3810,huevo,egg,,,kʊ.ˈɻɐ̝m,,,0
28141001409,Ercilla,-38.04926,-72.44544,5510,piedra,stone,,,kʊ.ˈɻɐ̝,,,0
28141001409,Ercilla,-38.04926,-72.44544,5850,viento,wind,,,kɘ.ˈɻɘf,,,0
28141001409,Ercilla,-38.04926,-72.44544,6510,casa,house,,,ˈʊ.kɐ̝̥,,,0
28141001409,Ercilla,-38.04926,-72.44544,30500,pueblo,town,,,wɐ̝.ˈɻɪ.ɐ̝,,,0
28141001409,Ercilla,-38.04926,-72.44544,6810,camino,road,,,ɻ̩.ˈpɘ,,,0
28141002309,Galvarino,-38.40865,-72.78342,70,siete,seven,,,ˈɻë.ɣ̞lë,,,0
28141002309,Galvarino,-38.40865,-72.78342,80,ocho,eight,,,ˈpʰʊ.ɻɐ̝,,,0
28141002309,Galvarino,-38.40865,-72.78342,100,diez,ten,,,ˈmɐ̝.ɻɪ,,,0
28141002309,Galvarino,-38.40865,-72.78342,210,mil,thousand,,,wɐ̝.ˈɻɐ̝ŋ.kɐ̝,,,0
28141002309,Galvarino,-38.40865,-72.78342,7010,negro,black,,,ˈkʊ.ɻɘ,,,0
28141002309,Galvarino,-38.40865,-72.78342,7910,caliente,warm,,,ɐ̝.ˈɻë,,,0
28141002309,Galvarino,-38.40865,-72.78342,7910,caliente,warm,,,ˈkö.fɪ,,,0
28141002309,Galvarino,-38.40865,-72.78342,2240,diente,tooth,,,ˈfö.ɻö,,,0
28141002309,Galvarino,-38.40865,-72.78342,2620,hueso,bone,,,ˈp͡ɸö.ɻö,,,0
28141002309,Galvarino,-38.40865,-72.78342,10620,esposa,wife,,,ˈkʊ.ɻë,,,0
28141002309,Galvarino,-38.40865,-72.78342,21400,duenyo_casa,house_owner,,,ˌɲën.ˈɻʊ.kɐ̝,,,0
28141002309,Galvarino,-38.40865,-72.78342,20070,zorro,fox,,,ˈŋɘ.ɻɘ,,,0
28141002309,Galvarino,-38.40865,-72.78342,20030,gato,cat,,,ˈɲɐ̝j.cʰɪ,,,0
28141002309,Galvarino,-38.40865,-72.78342,10200,liebre,hare,,,ˈmɐ̝.ɻɐ̝,,,0
28141002309,Galvarino,-38.40865,-72.78342,3420,gusano,worm,,,ˈpɪ.ɻʊ,,,0
28141002309,Galvarino,-38.40865,-72.78342,3810,huevo,egg,,,kʊ.ˈɻɐ̝m,,,0
28141002309,Galvarino,-38.40865,-72.78342,5510,piedra,stone,,,ˈkʊ.ɻɐ̝,,,0
28141002309,Galvarino,-38.40865,-72.78342,5850,viento,wind,,,kɘ.ˈɻɘf,,,0
28141002309,Galvarino,-38.40865,-72.78342,6510,casa,house,,,ˈɻʊ.kɐ̝,,,0
28141002309,Galvarino,-38.40865,-72.78342,30500,pueblo,town,,,wɐ̝.ˈɻɪ.ɐ̝,,,0
28141002309,Galvarino,-38.40865,-72.78342,6810,camino,road,,,ˈɻɘ.pɘ,,,0
28141002509,Victoria,-38.35303,-72.19395,70,siete,seven,,,ˈɻë.ɡlë,,,0
28141002509,Victoria,-38.35303,-72.19395,80,ocho,eight,,,ˈpʰʊ.ɻɐ̝,,,0
28141002509,Victoria,-38.35303,-72.19395,100,diez,ten,,,mɐ̝.ˈɻɪ,,,0
28141002509,Victoria,-38.35303,-72.19395,210,mil,thousand,,,wɐ̝.ˈɻɐ̝ŋ.kʰɐ̝,,,0
28141002509,Victoria,-38.35303,-72.19395,7010,negro,black,,,kʊ.ˈɻɘ,,,0
28141002509,Victoria,-38.35303,-72.19395,7910,caliente,warm,,,ɐ̝.ˈɻë.lɪ,,,0
28141002509,Victoria,-38.35303,-72.19395,2240,diente,tooth,,,fö.ˈɻö,,,0
28141002509,Victoria,-38.35303,-72.19395,2620,hueso,bone,,,fö.ˈɻö,,,0
28141002509,Victoria,-38.35303,-72.19395,10620,esposa,wife,,,kʊ.ˈɻë,,,0
28141002509,Victoria,-38.35303,-72.19395,21400,duenyo_casa,house_owner,,,ˌɲën.ɻʊ.ˈkɐ̝,,,0
28141002509,Victoria,-38.35303,-72.19395,20070,zorro,fox,,,ŋɘ.ˈɻɘ,,,0
28141002509,Victoria,-38.35303,-72.19395,20030,gato,cat,,,ɲɐ̝j.cʰɪ,,,0
28141002509,Victoria,-38.35303,-72.19395,10200,liebre,hare,,,mɐ̝.ˈɻɐ̝,,,0
28141002509,Victoria,-38.35303,-72.19395,3420,gusano,worm,,,ˈpɪ.ɻʊ,,,0
28141002509,Victoria,-38.35303,-72.19395,3810,huevo,egg,,,kʊ.ˈɻɐ̝m,,,0
28141002509,Victoria,-38.35303,-72.19395,5510,piedra,stone,,,kʊ.ˈɻɐ̝,,,0
28141002509,Victoria,-38.35303,-72.19395,5850,viento,wind,,,kʰɘ.ˈɻɘ.vɘ̆,,,0
28141002509,Victoria,-38.35303,-72.19395,6510,casa,house,,,ʂʊ.ˈkɐ̝,,,0
28141002509,Victoria,-38.35303,-72.19395,30500,pueblo,town,,,wɐ̝.ˈɻɪ.ɐ̝,,,0
28141002509,Victoria,-38.35303,-72.19395,6810,camino,road,,,ɻɘ.ˈpɘ,,,0
28141002809,Lonquimay,-38.42587,-71.37014,70,siete,seven,,,ˈɻë.ɡlë,,,0
28141002809,Lonquimay,-38.42587,-71.37014,80,ocho,eight,,,ˈpu.ɻa,,,0
28141002809,Lonquimay,-38.42587,-71.37014,100,diez,ten,,,ˈmɐ̝.ɻɪ,,,0
28141002809,Lonquimay,-38.42587,-71.37014,210,mil,thousand,,,wɐ̝.ˈɻɐ̝ŋ.kɐ̝,,,0
28141002809,Lonquimay,-38.42587,-71.37014,7010,negro,black,,,ˈkʰʊ.ɻɘ,,,0
28141002809,Lonquimay,-38.42587,-71.37014,7910,caliente,warm,,,ɐ̝.ˈɻḛ̈jç,,,0
28141002809,Lonquimay,-38.42587,-71.37014,2240,diente,tooth,,,ɸöɻ.ˈʂö,,,0
28141002809,Lonquimay,-38.42587,-71.37014,2620,hueso,bone,,,ɸö.ˈɻö,,,0
28141002809,Lonquimay,-38.42587,-71.37014,10620,esposa,wife,,,kʊ.ɻëë̥̯,,,0
28141002809,Lonquimay,-38.42587,-71.37014,21400,duenyo_casa,house_owner,,,"ˈɲën ɽʊ.ˌkɐ̝ɐ̝̥̯",,,0
28141002809,Lonquimay,-38.42587,-71.37014,20070,zorro,fox,,,ˈŋɘ.ʂɘ,,,0
28141002809,Lonquimay,-38.42587,-71.37014,20030,gato,cat,,,ˈɲɐ̝j.cɪ,,,0
28141002809,Lonquimay,-38.42587,-71.37014,10200,liebre,hare,,,ˈmɐ̝.ʂɐ̝̰ɐ̝̥̯,,,0
28141002809,Lonquimay,-38.42587,-71.37014,3420,gusano,worm,,,ˈbɪ.ʂʊ̥,,,0
28141002809,Lonquimay,-38.42587,-71.37014,3810,huevo,egg,,,kʊ.ˈɻɐ̝m,,,0
28141002809,Lonquimay,-38.42587,-71.37014,5510,piedra,stone,,,ˈkʊ.ɻɐ̝,,,0
28141002809,Lonquimay,-38.42587,-71.37014,5850,viento,wind,,,kɘ.ˈʐɘfː,,,0
28141002809,Lonquimay,-38.42587,-71.37014,6510,casa,house,,,ˈɻʊ.kʰɐ̝ɐ̝̥̯,,,0
28141002809,Lonquimay,-38.42587,-71.37014,30500,pueblo,town,,,ˈwɐ̝.ɻɪ.ɐ̝ɐ̝̥̯,,,0
28141002809,Lonquimay,-38.42587,-71.37014,6810,camino,road,,,ˈɻɘ.pɘ,,,0
28141003209,"Chol Chol",-38.51661,-72.97454,70,siete,seven,,,ˈɻë.ɡlë,,,0
28141003209,"Chol Chol",-38.51661,-72.97454,80,ocho,eight,,,ˈpʰʊ.ɻɐ̝,,,0
28141003209,"Chol Chol",-38.51661,-72.97454,100,diez,ten,,,ˈmɐ̝.ɻɪ,,,0
28141003209,"Chol Chol",-38.51661,-72.97454,7010,negro,black,,,kʊ.ˈɻɘ,,,0
28141003209,"Chol Chol",-38.51661,-72.97454,7910,caliente,warm,,,ɐ̝.ˈɻë,,,0
28141003209,"Chol Chol",-38.51661,-72.97454,2240,diente,tooth,,,fö.ˈɻö,,,0
28141003209,"Chol Chol",-38.51661,-72.97454,2620,hueso,bone,,,fö.ˈɻö,,,0
28141003209,"Chol Chol",-38.51661,-72.97454,10620,esposa,wife,,,kʊ.ˈɻë,,,0
28141003209,"Chol Chol",-38.51661,-72.97454,21400,duenyo_casa,house_owner,,,ˌɲëɲ.ɻʊ.ˈkʰɐ̝,,,0
28141003209,"Chol Chol",-38.51661,-72.97454,20070,zorro,fox,,,ŋɘ.ˈɻɘ,,,0
28141003209,"Chol Chol",-38.51661,-72.97454,20030,gato,cat,,,ˈɲɐ̝j.cʰɪ,,,0
28141003209,"Chol Chol",-38.51661,-72.97454,10200,liebre,hare,,,ˈmɐ̝.ɻɐ̝,,,0
28141003209,"Chol Chol",-38.51661,-72.97454,3420,gusano,worm,,,ˈpɪ.ɻʊ,,,0
28141003209,"Chol Chol",-38.51661,-72.97454,3810,huevo,egg,,,kʊ.ˈɻɐ̝m,,,0
28141003209,"Chol Chol",-38.51661,-72.97454,5510,piedra,stone,,,kʊ.ˈɻɐ̝,,,0
28141003209,"Chol Chol",-38.51661,-72.97454,5850,viento,wind,,,kʰɘ.ˈɻɘf,,,0
28141003209,"Chol Chol",-38.51661,-72.97454,5850,viento,wind,,,wɘ.ˈʈ͡ʂë,,,0
28141003209,"Chol Chol",-38.51661,-72.97454,6510,casa,house,,,ˈɻʊ.kʰɐ̝,,,0
28141003209,"Chol Chol",-38.51661,-72.97454,30500,pueblo,town,,,ˌwɐ̝.ɻɪ.ˈɐ̝,,,0
28141003209,"Chol Chol",-38.51661,-72.97454,6810,camino,road,,,ɻ̩ː.ˈpʊ,,,0
28141004309,Dollinco,-38.67157,-72.82837,70,siete,seven,,,ˌʐëj.ɣɘ̆.ˈlë,,,0
28141004309,Dollinco,-38.67157,-72.82837,80,ocho,eight,,,pʰʊ.ˈɻɐ̝,,,0
28141004309,Dollinco,-38.67157,-72.82837,100,diez,ten,,,mɐ̝.ˈɻɪ,,,0
28141004309,Dollinco,-38.67157,-72.82837,210,mil,thousand,,,wɐ̝.ˈɻɐ̝ŋ.kʰɐ̝,,,0
28141004309,Dollinco,-38.67157,-72.82837,7010,negro,black,,,kʊ.ˈʐɘ,,,0
28141004309,Dollinco,-38.67157,-72.82837,7910,caliente,warm,,,kö.ˈfwɘj,,,0
28141004309,Dollinco,-38.67157,-72.82837,2240,diente,tooth,,,fö.ˈɻö,,,0
28141004309,Dollinco,-38.67157,-72.82837,2620,hueso,bone,,,fö.ˈɻö,,,0
28141004309,Dollinco,-38.67157,-72.82837,10620,esposa,wife,,,kʊ.ˈɻë,,,0
28141004309,Dollinco,-38.67157,-72.82837,21400,duenyo_casa,house_owner,,,ˌɲën.ʐʊ.ˈkɐ̝,,,0
28141004309,Dollinco,-38.67157,-72.82837,20070,zorro,fox,,,ŋɘ.ˈɻɘ,,,0
28141004309,Dollinco,-38.67157,-72.82837,10200,liebre,hare,,,mɐ̝.ˈɻɐ̝,,,0
28141004309,Dollinco,-38.67157,-72.82837,3420,gusano,worm,,,ˈpɪ.ɻʊ,,,0
28141004309,Dollinco,-38.67157,-72.82837,3810,huevo,egg,,,kʊ.ˈɻɐ̝m,,,0
28141004309,Dollinco,-38.67157,-72.82837,5510,piedra,stone,,,kʊ.ˈʐɐ̝,,,0
28141004309,Dollinco,-38.67157,-72.82837,5850,viento,wind,,,kʰɘ.ˈɻɘf,,,0
28141004309,Dollinco,-38.67157,-72.82837,6510,casa,house,,,ɻʊ.ˈkʰɐ̝,,,0
28141004309,Dollinco,-38.67157,-72.82837,30500,pueblo,town,,,ˌwɐ̝.ɻɪ.ˈɐ̝,,,0
28141004309,Dollinco,-38.67157,-72.82837,6810,camino,road,,,ʐɘ.ˈpɘ,,,0
28141004509,Vilcún,-38.59695,-72.31239,70,siete,seven,,,ˈɽë.ɡlë,,,0
28141004509,Vilcún,-38.59695,-72.31239,80,ocho,eight,,,ˈpʊ.ɻɐ̝,,,0
28141004509,Vilcún,-38.59695,-72.31239,100,diez,ten,,,ˈmɐ̝.ɻɪ,,,0
28141004509,Vilcún,-38.59695,-72.31239,210,mil,thousand,,,wɐ̝.ˈɻɐ̝ŋ.kʰɐ̝,,,0
28141004509,Vilcún,-38.59695,-72.31239,7010,negro,black,,,kʊ̆.ˈɻɘ,,,0
28141004509,Vilcún,-38.59695,-72.31239,7910,caliente,warm,,,ɐ̝.ˈɻë,,,0
28141004509,Vilcún,-38.59695,-72.31239,2240,diente,tooth,,,ˈfö.ɻö,,,0
28141004509,Vilcún,-38.59695,-72.31239,2620,hueso,bone,,,ˈfö.ɻö,,,0
28141004509,Vilcún,-38.59695,-72.31239,10620,esposa,wife,,,kʊ.ˈɻë,,,0
28141004509,Vilcún,-38.59695,-72.31239,21400,duenyo_casa,house_owner,,,ˌɲën.ɽ̥ʊ̆.ˈkɐ̝,,,0
28141004509,Vilcún,-38.59695,-72.31239,20070,zorro,fox,,,ˈŋɘ.ɻɘ,,,0
28141004509,Vilcún,-38.59695,-72.31239,20030,gato,cat,,,ˈɲɐ̝j.cʰɪ,,,0
28141004509,Vilcún,-38.59695,-72.31239,10200,liebre,hare,,,ˈmɐ̝.ɻɐ̝ɐ̝̥̯,,,0
28141004509,Vilcún,-38.59695,-72.31239,3420,gusano,worm,,,ˈpɪ.ɻö,,,0
28141004509,Vilcún,-38.59695,-72.31239,3810,huevo,egg,,,kʊ.ˈʐɐ̝m,,,0
28141004509,Vilcún,-38.59695,-72.31239,5510,piedra,stone,,,kʊ.ˈɻɐ̝,,,0
28141004509,Vilcún,-38.59695,-72.31239,5850,viento,wind,,,kɘ.ˈɻɘf,,,0
28141004509,Vilcún,-38.59695,-72.31239,6510,casa,house,,,ɻʊ.ˈkʰɐ̝,,,0
28141004509,Vilcún,-38.59695,-72.31239,30500,pueblo,town,,,ˈwɐ̝.ɻɪ.ɐ̝ɐ̝̥̯,,,0
28141004509,Vilcún,-38.59695,-72.31239,6810,camino,road,,,ɻɘ.ˈpɘ,,,0
28141005109,"Puerto Saavedra",-38.78431,-73.39912,70,siete,seven,,,ˈʐë.ɣlë,,,0
28141005109,"Puerto Saavedra",-38.78431,-73.39912,80,ocho,eight,,,ˈpʊ.ʐɐ̝,,,0
28141005109,"Puerto Saavedra",-38.78431,-73.39912,100,diez,ten,,,ˈmɐ̝.ɻɪ,,,0
28141005109,"Puerto Saavedra",-38.78431,-73.39912,210,mil,thousand,,,wɐ̝.ˈɻɐ̝ŋ.kʰɐ̝,,,0
28141005109,"Puerto Saavedra",-38.78431,-73.39912,7010,negro,black,,,kʊ.ˈʐɘ,,,0
28141005109,"Puerto Saavedra",-38.78431,-73.39912,7910,caliente,warm,,,ɐ̝.ˈʐë,,,0
28141005109,"Puerto Saavedra",-38.78431,-73.39912,7910,caliente,warm,,,ɐ̝.ˈʐë.lɪ,,,0
28141005109,"Puerto Saavedra",-38.78431,-73.39912,2240,diente,tooth,,,fö.ˈɻö,,,0
28141005109,"Puerto Saavedra",-38.78431,-73.39912,2620,hueso,bone,,,fö.ˈɻö,,,0
28141005109,"Puerto Saavedra",-38.78431,-73.39912,10620,esposa,wife,,,ˈkʊ.ʐë,,,0
28141005109,"Puerto Saavedra",-38.78431,-73.39912,21400,duenyo_casa,house_owner,,,ŋën.ˈʐʊ.kɐ̝,,,0
28141005109,"Puerto Saavedra",-38.78431,-73.39912,20070,zorro,fox,,,ˈŋɘ.ʐɘ,,,0
28141005109,"Puerto Saavedra",-38.78431,-73.39912,20030,gato,cat,,,ˈɲɐ̝ɻ.cʰɪ,,,0
28141005109,"Puerto Saavedra",-38.78431,-73.39912,10200,liebre,hare,,,ˈmɐ̝.ʐɐ̝,,,0
28141005109,"Puerto Saavedra",-38.78431,-73.39912,3420,gusano,worm,,,ˈpɪ.ʐʊ,,,0
28141005109,"Puerto Saavedra",-38.78431,-73.39912,3810,huevo,egg,,,kʊ.ˈɻɐ̝m,,,0
28141005109,"Puerto Saavedra",-38.78431,-73.39912,5510,piedra,stone,,,ˈkʊ.ʐɐ̝,,,0
28141005109,"Puerto Saavedra",-38.78431,-73.39912,5850,viento,wind,,,kɘ.ˈɻɘf,,,0
28141005109,"Puerto Saavedra",-38.78431,-73.39912,6510,casa,house,,,ˈɻʊ.kɐ̝,,,0
28141005109,"Puerto Saavedra",-38.78431,-73.39912,30500,pueblo,town,,,ɣwɐ̝.ˈʐɪ.ɐ̝,,,0
28141005109,"Puerto Saavedra",-38.78431,-73.39912,6810,camino,road,,,ʐɘ.ˈpɘ,,,0
28141005409,"Truf Truf",-38.75576,-72.43983,70,siete,seven,,,ˈrë.lë,,,0
28141005409,"Truf Truf",-38.75576,-72.43983,80,ocho,eight,,,ˈpʊ.rɐ̝,,,0
28141005409,"Truf Truf",-38.75576,-72.43983,100,diez,ten,,,ˈmɐ̝.r̝ɪ,,,0
28141005409,"Truf Truf",-38.75576,-72.43983,210,mil,thousand,,,wɐ̝.ˈɾɐ̝ŋ.kʰɐ̝,,,0
28141005409,"Truf Truf",-38.75576,-72.43983,7010,negro,black,,,kʊ.ˈr̝ɘ,,,0
28141005409,"Truf Truf",-38.75576,-72.43983,7910,caliente,warm,,,ɐ̝.rë.ˈlëj,,,0
28141005409,"Truf Truf",-38.75576,-72.43983,2240,diente,tooth,,,fö.ˈrö,,,0
28141005409,"Truf Truf",-38.75576,-72.43983,2620,hueso,bone,,,ɸö.ˈɻö,,,0
28141005409,"Truf Truf",-38.75576,-72.43983,10620,esposa,wife,,,kʊ.ˈr̝ë,,,0
28141005409,"Truf Truf",-38.75576,-72.43983,21400,duenyo_casa,house_owner,,,"ˌɲën ˈrʊ.kɐ̝",,,0
28141005409,"Truf Truf",-38.75576,-72.43983,20070,zorro,fox,,,ŋɘ.ˈʐɘ,,,0
28141005409,"Truf Truf",-38.75576,-72.43983,20030,gato,cat,,,nɐ̝ɻ.ˈkɪ,,,0
28141005409,"Truf Truf",-38.75576,-72.43983,10200,liebre,hare,,,ˈmɐ̝.rɐ̝,,,0
28141005409,"Truf Truf",-38.75576,-72.43983,3420,gusano,worm,,,pɪ.ˈʐʊ,,,0
28141005409,"Truf Truf",-38.75576,-72.43983,3810,huevo,egg,,,kʊ.ˈrɐ̝m,,,0
28141005409,"Truf Truf",-38.75576,-72.43983,5510,piedra,stone,,,kʊ.ˈrɐ̝,,,0
28141005409,"Truf Truf",-38.75576,-72.43983,5850,viento,wind,,,kɘ.ˈɻɘf,,,0
28141005409,"Truf Truf",-38.75576,-72.43983,6510,casa,house,,,ʐʊ.ˈkɐ̝,,,0
28141005409,"Truf Truf",-38.75576,-72.43983,30500,pueblo,town,,,wɐ̝.ˈrɪ.ɐ̝,,,0
28141005409,"Truf Truf",-38.75576,-72.43983,6810,camino,road,,,ˈr̝ɘ.pɘ,,,0
28141005909,Icalma,-38.72338,-71.1847,70,siete,seven,,,ɻë.ˈɣlë,,,0
28141005909,Icalma,-38.72338,-71.1847,80,ocho,eight,,,pʊ.ˈɻɐ̝,,,0
28141005909,Icalma,-38.72338,-71.1847,100,diez,ten,,,mɐ̝.ˈɻɪ,,,0
28141005909,Icalma,-38.72338,-71.1847,210,mil,thousand,,,wɐ̝.ˈɻɐ̝ŋ.kʰɐ̝̥,,,0
28141005909,Icalma,-38.72338,-71.1847,7010,negro,black,,,kʊ.ˈɻɘ,,,0
28141005909,Icalma,-38.72338,-71.1847,7910,caliente,warm,,,ˌɐ̝.ˈɻë.lëj,,,0
28141005909,Icalma,-38.72338,-71.1847,2240,diente,tooth,,,p͡ɸö.ˈɻö,,,0
28141005909,Icalma,-38.72338,-71.1847,2620,hueso,bone,,,ˈfö.ɻö,,,0
28141005909,Icalma,-38.72338,-71.1847,10620,esposa,wife,,,kʊ.ˈɻë,,,0
28141005909,Icalma,-38.72338,-71.1847,21400,duenyo_casa,house_owner,,,ˌŋën.ˈɻʊ.kɐ̝,,,0
28141005909,Icalma,-38.72338,-71.1847,20070,zorro,fox,,,ŋɘ.ˈɻɘ,,,0
28141005909,Icalma,-38.72338,-71.1847,20030,gato,cat,,,ɲɐ̝j.ˈcɪ,,,0
28141005909,Icalma,-38.72338,-71.1847,10200,liebre,hare,,,mɐ̝.ˈɻɐ̝,,,0
28141005909,Icalma,-38.72338,-71.1847,3420,gusano,worm,,,pɪ.ˈɻʊ,,,0
28141005909,Icalma,-38.72338,-71.1847,3810,huevo,egg,,,ˈkʊ.ɻɐ̝m,,,0
28141005909,Icalma,-38.72338,-71.1847,5510,piedra,stone,,,kʊ.ˈɻɐ̝,,,0
28141005909,Icalma,-38.72338,-71.1847,5850,viento,wind,,,kɘ.ˈɻɘf,,,0
28141005909,Icalma,-38.72338,-71.1847,5850,viento,wind,,,ʊ.ˈʈ͡ʂë,,,0
28141005909,Icalma,-38.72338,-71.1847,6510,casa,house,,,ˈɻʊ.kɐ̝,,,0
28141005909,Icalma,-38.72338,-71.1847,30500,pueblo,town,,,wɐ̝.ˈɻɪ.ɐ̝,,,0
28141005909,Icalma,-38.72338,-71.1847,6810,camino,road,,,ɻɘ.ˈpɘ,,,0
28141006309,Freire,-38.99144,-72.8833,70,siete,seven,,,ˈɻëɣ̞.lë,,,0
28141006309,Freire,-38.99144,-72.8833,80,ocho,eight,,,ˈpʊ.ɻɐ̝,,,0
28141006309,Freire,-38.99144,-72.8833,100,diez,ten,,,ˈmɐ̝.ɻɪ,,,0
28141006309,Freire,-38.99144,-72.8833,210,mil,thousand,,,wɐ̝.ˈɻɐ̝ŋ.kɐ̝,,,0
28141006309,Freire,-38.99144,-72.8833,7010,negro,black,,,kʰʊ.ˈɻɘ,,,0
28141006309,Freire,-38.99144,-72.8833,7910,caliente,warm,,,ɐ̝.ˈɻë,,,0
28141006309,Freire,-38.99144,-72.8833,2240,diente,tooth,,,ˈfö.ɻö,,,0
28141006309,Freire,-38.99144,-72.8833,10620,esposa,wife,,,ˈkʰʊ.ɻë,,,0
28141006309,Freire,-38.99144,-72.8833,21400,duenyo_casa,house_owner,,,ˌɲën.ˈɻʊ.kɐ̝,,,0
28141006309,Freire,-38.99144,-72.8833,20070,zorro,fox,,,ˈŋɘ.ɻɘ,,,0
28141006309,Freire,-38.99144,-72.8833,20030,gato,cat,,,nɐ̝ɻ.ˈcɪ,,,0
28141006309,Freire,-38.99144,-72.8833,10200,liebre,hare,,,ˈmɐ̝.ɻɐ̝,,,0
28141006309,Freire,-38.99144,-72.8833,3420,gusano,worm,,,ˈpɪ.ɻʊ,,,0
28141006309,Freire,-38.99144,-72.8833,3810,huevo,egg,,,kʊ.ˈɻɐ̝m,,,0
28141006309,Freire,-38.99144,-72.8833,5510,piedra,stone,,,ˈkʊ.ɻɐ̝,,,0
28141006309,Freire,-38.99144,-72.8833,5850,viento,wind,,,kʰɘ.ˈɻʊf,,,0
28141006309,Freire,-38.99144,-72.8833,6510,casa,house,,,ɻʊ.ˈkɐ̝,,,0
28141006309,Freire,-38.99144,-72.8833,30500,pueblo,town,,,wɐ̝.ˈɻɪ.ɐ̝,,,0
28141006309,Freire,-38.99144,-72.8833,6810,camino,road,,,ɻɘ.ˈpɘ,,,0
28141006609,Cunco,-38.97601,-72.01425,70,siete,seven,,,ʐë.ˈɡlë,,,0
28141006609,Cunco,-38.97601,-72.01425,80,ocho,eight,,,pʊ.ˈʂɐ̝,,,0
28141006609,Cunco,-38.97601,-72.01425,100,diez,ten,,,mɐ̝.ˈʂɻɪ,,,0
28141006609,Cunco,-38.97601,-72.01425,210,mil,thousand,,,ᵑɡwɐ̝.r̥ɐ̝ŋ.kʰɐ̝,,,0
28141006609,Cunco,-38.97601,-72.01425,7010,negro,black,,,kʊ.ˈʐɘ,,,0
28141006609,Cunco,-38.97601,-72.01425,7910,caliente,warm,,,ɐ̝.ˈʐë,,,0
28141006609,Cunco,-38.97601,-72.01425,2240,diente,tooth,,,ˈp͡ɸö.ʂö,,,0
28141006609,Cunco,-38.97601,-72.01425,2620,hueso,bone,,,föʐ.ˈʂö,,,0
28141006609,Cunco,-38.97601,-72.01425,10620,esposa,wife,,,kʊ.ˈʂë,,,0
28141006609,Cunco,-38.97601,-72.01425,21400,duenyo_casa,house_owner,,,ˈɲën.ˌɖ͡ʐʊ.kɐ̝,,,0
28141006609,Cunco,-38.97601,-72.01425,20070,zorro,fox,,,ŋɘ.ˈʐʊ,,,0
28141006609,Cunco,-38.97601,-72.01425,20030,gato,cat,,,nɐ̝ʂ.ˈkʰɪ,,,0
28141006609,Cunco,-38.97601,-72.01425,10200,liebre,hare,,,mɐ̝.ˈʂɐ̝,,,0
28141006609,Cunco,-38.97601,-72.01425,3420,gusano,worm,,,pɪ.ˈʂʊ,,,0
28141006609,Cunco,-38.97601,-72.01425,3810,huevo,egg,,,kʊ.ˈʂɐ̝m,,,0
28141006609,Cunco,-38.97601,-72.01425,5510,piedra,stone,,,kʊ.ˈʐɐ̝,,,0
28141006609,Cunco,-38.97601,-72.01425,5850,viento,wind,,,kɘ.ˈʐɘf,,,0
28141006609,Cunco,-38.97601,-72.01425,6510,casa,house,,,ɳ̩.ˌɖ͡ʐʊ.ˈkɐ̝,,,0
28141006609,Cunco,-38.97601,-72.01425,30500,pueblo,town,,,wɐ̝.ˈʐɪ.ɐ̝,,,0
28141006609,Cunco,-38.97601,-72.01425,6810,camino,road,,,ʐʊ.ˈpʊ,,,0
28141007209,"Nueva Toltén",-39.20931,-73.1312,70,siete,seven,,,ˈɻëɘ̯.lë,,,0
28141007209,"Nueva Toltén",-39.20931,-73.1312,80,ocho,eight,,,βʊ.ˈɻɐ̝,,,0
28141007209,"Nueva Toltén",-39.20931,-73.1312,100,diez,ten,,,ˈmɐ̝.ɻɪ,,,0
28141007209,"Nueva Toltén",-39.20931,-73.1312,210,mil,thousand,,,wɐ̝.ˈɻɐ̝ŋ.kɐ̝,,,0
28141007209,"Nueva Toltén",-39.20931,-73.1312,7010,negro,black,,,ˈhʊ.ɻɘ,,,0
28141007209,"Nueva Toltén",-39.20931,-73.1312,7910,caliente,warm,,,ˈɐ̝.ɻë,,,0
28141007209,"Nueva Toltén",-39.20931,-73.1312,2240,diente,tooth,,,ˈfö.ɻö,,,0
28141007209,"Nueva Toltén",-39.20931,-73.1312,2620,hueso,bone,,,ˈfö.ɻö,,,0
28141007209,"Nueva Toltén",-39.20931,-73.1312,10620,esposa,wife,,,kʊ.ˈɻë,,,0
28141007209,"Nueva Toltén",-39.20931,-73.1312,21400,duenyo_casa,house_owner,,,ˈɲën.ˌɖ͡ʐʊ.kɐ̝̥,,,0
28141007209,"Nueva Toltén",-39.20931,-73.1312,20070,zorro,fox,,,ˈŋɘ.ɻɘ,,,0
28141007209,"Nueva Toltén",-39.20931,-73.1312,20030,gato,cat,,,ˈnɐ̝ɻ.cɪ,,,0
28141007209,"Nueva Toltén",-39.20931,-73.1312,10200,liebre,hare,,,ˈmɐ̝.ɻɐ̝,,,0
28141007209,"Nueva Toltén",-39.20931,-73.1312,3420,gusano,worm,,,ˈpɪ.ɻʊ,,,0
28141007209,"Nueva Toltén",-39.20931,-73.1312,3810,huevo,egg,,,ʊ.ˈɻɐ̝m,,,0
28141007209,"Nueva Toltén",-39.20931,-73.1312,5510,piedra,stone,,,ˈhʊ.ɻɐ̝,,,0
28141007209,"Nueva Toltén",-39.20931,-73.1312,5850,viento,wind,,,kɘ.ˈɻɘf,,,0
28141007209,"Nueva Toltén",-39.20931,-73.1312,6510,casa,house,,,ˈɻʊ.kɐ̝ɐ̝̥,,,0
28141007209,"Nueva Toltén",-39.20931,-73.1312,30500,pueblo,town,,,ˈwɐ̝.ɻɪ.ɐ̝,,,0
28141007209,"Nueva Toltén",-39.20931,-73.1312,6810,camino,road,,,ˈɻɘ.pɘ,,,0
28141008509,Villarrica,-39.48612,-72.3038,70,siete,seven,,,ɻë.ˈɡlë,,,0
28141008509,Villarrica,-39.48612,-72.3038,80,ocho,eight,,,pʰʊ.ˈɻɐ̝,,,0
28141008509,Villarrica,-39.48612,-72.3038,100,diez,ten,,,mɐ̝.ˈɻɪ,,,0
28141008509,Villarrica,-39.48612,-72.3038,210,mil,thousand,,,wɐ̝.ˈɻɐ̝ŋ.kɐ̝,,,0
28141008509,Villarrica,-39.48612,-72.3038,7010,negro,black,,,kʊ.ˈɻɘ,,,0
28141008509,Villarrica,-39.48612,-72.3038,7910,caliente,warm,,,ɐ̝.ˈɻë,,,0
28141008509,Villarrica,-39.48612,-72.3038,2240,diente,tooth,,,fö.ˈɻö,,,0
28141008509,Villarrica,-39.48612,-72.3038,2620,hueso,bone,,,fö.ˈɻö,,,0
28141008509,Villarrica,-39.48612,-72.3038,10620,esposa,wife,,,kʊ.ˈɻë,,,0
28141008509,Villarrica,-39.48612,-72.3038,21400,duenyo_casa,house_owner,,,ˌɲën.ˈɻʊ.kɐ̝,,,0
28141008509,Villarrica,-39.48612,-72.3038,20070,zorro,fox,,,ŋɘ.ˈɻɘ,,,0
28141008509,Villarrica,-39.48612,-72.3038,20030,gato,cat,,,nɐ̝ɻ.ˈcʰɪ,,,0
28141008509,Villarrica,-39.48612,-72.3038,10200,liebre,hare,,,mɐ̝.ˈɻɐ̝,,,0
28141008509,Villarrica,-39.48612,-72.3038,3420,gusano,worm,,,pɪ.ˈʐʊ,,,0
28141008509,Villarrica,-39.48612,-72.3038,3810,huevo,egg,,,kʊ.ˈɻɐ̝m,,,0
28141008509,Villarrica,-39.48612,-72.3038,5510,piedra,stone,,,kʊ.ˈɻɐ̝,,,0
28141008509,Villarrica,-39.48612,-72.3038,5850,viento,wind,,,kʰɘː.ˈɻɘf,,,0
28141008509,Villarrica,-39.48612,-72.3038,6510,casa,house,,,ɻʊ.ˈkɐ̝,,,0
28141008509,Villarrica,-39.48612,-72.3038,30500,pueblo,town,,,wɐ̝.ˈɻɪ.ɐ̝,,,0
28141008509,Villarrica,-39.48612,-72.3038,6810,camino,road,,,ɻɘ.ˈpɘ,,,0
28141008909,Curarrehue,-39.46788,-71.55193,70,siete,seven,,,ˈɭëj.lë,,,0
28141008909,Curarrehue,-39.46788,-71.55193,80,ocho,eight,,,ˈpʊ.ɻɐ̝,,,0
28141008909,Curarrehue,-39.46788,-71.55193,100,diez,ten,,,ˈmɐ̝.ɭɪ,,,0
28141008909,Curarrehue,-39.46788,-71.55193,210,mil,thousand,,,wɐ̝.ˈɻɐ̝ŋ.kɐ̝,,,0
28141008909,Curarrehue,-39.46788,-71.55193,7010,negro,black,,,kʊ.ˈɻɘ,,,0
28141008909,Curarrehue,-39.46788,-71.55193,7910,caliente,warm,,,ɐ̝.ˈɻë.lɪ,,,0
28141008909,Curarrehue,-39.46788,-71.55193,2240,diente,tooth,,,fö.ˈɻö,,,0
28141008909,Curarrehue,-39.46788,-71.55193,2620,hueso,bone,,,fö.ˈɻö,,,0
28141008909,Curarrehue,-39.46788,-71.55193,10620,esposa,wife,,,kʊ.ˈɻë,,,0
28141008909,Curarrehue,-39.46788,-71.55193,21400,duenyo_casa,house_owner,,,ˌɲën.ˈɻʊ.kɐ̝,,,0
28141008909,Curarrehue,-39.46788,-71.55193,20070,zorro,fox,,,ŋɘ.ˈɻɘ,,,0
28141008909,Curarrehue,-39.46788,-71.55193,20030,gato,cat,,,ˈnɐ̝ɻ.kë,,,0
28141008909,Curarrehue,-39.46788,-71.55193,10200,liebre,hare,,,mɐ̝.ˈɭɐ̝,,,0
28141008909,Curarrehue,-39.46788,-71.55193,3420,gusano,worm,,,pɪ.ˈɻʊ,,,0
28141008909,Curarrehue,-39.46788,-71.55193,3810,huevo,egg,,,kʊ.ˈɻɐ̝m,,,0
28141008909,Curarrehue,-39.46788,-71.55193,5510,piedra,stone,,,kʊ.ˈɻɐ̝,,,0
28141008909,Curarrehue,-39.46788,-71.55193,5850,viento,wind,,,kɘ.ˈɻɘf,,,0
28141008909,Curarrehue,-39.46788,-71.55193,5850,viento,wind,,,wɪ.ˈʈ͡ʂë,,,0
28141008909,Curarrehue,-39.46788,-71.55193,6510,casa,house,,,ˈɻʊ.kɐ̝,,,0
28141008909,Curarrehue,-39.46788,-71.55193,30500,pueblo,town,,,ˌwɐ̝.ɻɪ.ˈɐ̝,,,0
28141008909,Curarrehue,-39.46788,-71.55193,6810,camino,road,,,ɻɘ.ˈpɘ,,,0
28151000109,Mariquina,-39.45147,-73.26457,70,siete,seven,,,ˈɽël.ɣ̞ë,,,0
28151000109,Mariquina,-39.45147,-73.26457,80,ocho,eight,,,ˈkʊ.ɻɐ̝,,,0
28151000109,Mariquina,-39.45147,-73.26457,100,diez,ten,,,ˈmɐ̝.ɻɪ,,,0
28151000109,Mariquina,-39.45147,-73.26457,210,mil,thousand,,,wɐ̝.ˈɻɐ̝ŋ.kʰɐ̝̥,,,0
28151000109,Mariquina,-39.45147,-73.26457,7010,negro,black,,,kʊɻ,,,0
28151000109,Mariquina,-39.45147,-73.26457,7910,caliente,warm,,,ˈɐ̝.ɻë,,,0
28151000109,Mariquina,-39.45147,-73.26457,2240,diente,tooth,,,ˈp͡ɸö.ɻö,,,0
28151000109,Mariquina,-39.45147,-73.26457,2620,hueso,bone,,,ˈfö.ɻö,,,0
28151000109,Mariquina,-39.45147,-73.26457,10620,esposa,wife,,,ˈkʊ.ɻë,,,0
28151000109,Mariquina,-39.45147,-73.26457,21400,duenyo_casa,house_owner,,,ˌɲën.ˈɻʊ.kɐ̝,,,0
28151000109,Mariquina,-39.45147,-73.26457,20070,zorro,fox,,,ˈŋɘ.ɻɘ,,,0
28151000109,Mariquina,-39.45147,-73.26457,20030,gato,cat,,,ˈnɐ̝r.cʰɪ̥,,,0
28151000109,Mariquina,-39.45147,-73.26457,10200,liebre,hare,,,ˈmɐ̝.ɻɐ̝,,,0
28151000109,Mariquina,-39.45147,-73.26457,3420,gusano,worm,,,ˈpɪ.ɻʊ,,,0
28151000109,Mariquina,-39.45147,-73.26457,3810,huevo,egg,,,kʊ.ˈɻɐ̝m,,,0
28151000109,Mariquina,-39.45147,-73.26457,5510,piedra,stone,,,ˈkʊ.ɻɐ̝,,,0
28151000109,Mariquina,-39.45147,-73.26457,5850,viento,wind,,,ˈkɘ.ɻɘf,,,0
28151000109,Mariquina,-39.45147,-73.26457,5850,viento,wind,,,ˈwɘ.t͡ɹ̝̥ë,,,0
28151000109,Mariquina,-39.45147,-73.26457,6510,casa,house,,,ˈɻʊ.kʰɐ̝,,,0
28151000109,Mariquina,-39.45147,-73.26457,30500,pueblo,town,,,wɐ̝.ˈɻɪ.ɐ̝,,,0
28151000109,Mariquina,-39.45147,-73.26457,6810,camino,road,,,ˈɻɘ.pɪ,,,0
28151000409,Lanco,-39.5046,-72.44441,70,siete,seven,,,ˈɽëɣ̞.lë,,,0
28151000409,Lanco,-39.5046,-72.44441,80,ocho,eight,,,ˈpʊ.ɻɐ̝,,,0
28151000409,Lanco,-39.5046,-72.44441,100,diez,ten,,,ˈmɐ̝.ɻɪ,,,0
28151000409,Lanco,-39.5046,-72.44441,210,mil,thousand,,,wɐ̝.ˈɻɐ̝ŋ.kʰɐ̝,,,0
28151000409,Lanco,-39.5046,-72.44441,7010,negro,black,,,ˈkʰʊ.ʐʊ,,,0
28151000409,Lanco,-39.5046,-72.44441,7910,caliente,warm,,,ˌɐ̝.ɻël.ˈëjç,,,0
28151000409,Lanco,-39.5046,-72.44441,2240,diente,tooth,,,ɸ̞ö.ˈɻö,,,0
28151000409,Lanco,-39.5046,-72.44441,2620,hueso,bone,,,ɸö.ˈɻö,,,0
28151000409,Lanco,-39.5046,-72.44441,10620,esposa,wife,,,ˈkʊ.ʐë,,,0
28151000409,Lanco,-39.5046,-72.44441,21400,duenyo_casa,house_owner,,,ˌɲën.ˈɽʊ.kɐ̝,,,0
28151000409,Lanco,-39.5046,-72.44441,20070,zorro,fox,,,ŋɘ.ˈɻɘ,,,0
28151000409,Lanco,-39.5046,-72.44441,20030,gato,cat,,,nɐ̝ɻ.ˈcʰɪ,,,0
28151000409,Lanco,-39.5046,-72.44441,10200,liebre,hare,,,mɐ̝.ˈɻɐ̝,,,0
28151000409,Lanco,-39.5046,-72.44441,3420,gusano,worm,,,ˈpɪ.ɻʊ,,,0
28151000409,Lanco,-39.5046,-72.44441,3810,huevo,egg,,,kʊ.ˈʐɐ̝m,,,0
28151000409,Lanco,-39.5046,-72.44441,5510,piedra,stone,,,kʊ.ˈɻɐ̝,,,0
28151000409,Lanco,-39.5046,-72.44441,5850,viento,wind,,,kɘ.ˈʐɘf,,,0
28151000409,Lanco,-39.5046,-72.44441,6510,casa,house,,,ɳ̩.ˌʐʊ.ˈkɐ̝,,,0
28151000409,Lanco,-39.5046,-72.44441,30500,pueblo,town,,,wɐ̝.ˈɻɪ.ɐ̝,,,0
28151000409,Lanco,-39.5046,-72.44441,6810,camino,road,,,ˈɖ͡ʐɘ.pɘ,,,0
28151000709,Panguipulli,-39.54399,-72.12614,70,siete,seven,,,ˈʐël.ʝë,,,0
28151000709,Panguipulli,-39.54399,-72.12614,80,ocho,eight,,,ˈbʊ.ɻɐ̝,,,0
28151000709,Panguipulli,-39.54399,-72.12614,100,diez,ten,,,ˈmɐ̝.ɻɪ̥,,,0
28151000709,Panguipulli,-39.54399,-72.12614,210,mil,thousand,,,wɐ̝.ˈɻɐ̝ŋ.kʰɐ̝ɐ̝̥̯,,,0
28151000709,Panguipulli,-39.54399,-72.12614,7010,negro,black,,,ˈkʊ.ʐɘ,,,0
28151000709,Panguipulli,-39.54399,-72.12614,7910,caliente,warm,,,ˌɐ̝.ɻë.ˈŋɪ,,,0
28151000709,Panguipulli,-39.54399,-72.12614,2240,diente,tooth,,,ˈfö.ɻö,,,0
28151000709,Panguipulli,-39.54399,-72.12614,2620,hueso,bone,,,ˈfö.ɻö,,,0
28151000709,Panguipulli,-39.54399,-72.12614,10620,esposa,wife,,,ˈkʊ.ɹ̝ë,,,0
28151000709,Panguipulli,-39.54399,-72.12614,21400,duenyo_casa,house_owner,,,ˌɲën.ˈʐʊ.kɐ̝,,,0
28151000709,Panguipulli,-39.54399,-72.12614,20070,zorro,fox,,,ŋɘ.ʐɘ,,,0
28151000709,Panguipulli,-39.54399,-72.12614,20030,gato,cat,,,ˈnɐ̝ɻ.cɪ,,,0
28151000709,Panguipulli,-39.54399,-72.12614,10200,liebre,hare,,,ˈmɐ̝.ɻɐ̝ɐ̝̥̯,,,0
28151000709,Panguipulli,-39.54399,-72.12614,3420,gusano,worm,,,ˈpɪ.ʐʊ,,,0
28151000709,Panguipulli,-39.54399,-72.12614,3810,huevo,egg,,,kʊ.ˈɻɐ̝m,,,0
28151000709,Panguipulli,-39.54399,-72.12614,5510,piedra,stone,,,kʊ.ˈʐɐ̝,,,0
28151000709,Panguipulli,-39.54399,-72.12614,5850,viento,wind,,,kɘ.ˈɻɘf,,,0
28151000709,Panguipulli,-39.54399,-72.12614,6510,casa,house,,,ˈɻʊ.kɐ̝ɐ̝̥̯,,,0
28151000709,Panguipulli,-39.54399,-72.12614,30500,pueblo,town,,,wɐ̝.ˈʐɪ.ɐ̝,,,0
28151000709,Panguipulli,-39.54399,-72.12614,6810,camino,road,,,ˈɻɘ.pɘ,,,0
28151002309,Valdivia,-39.81291,-72.95438,70,siete,seven,,,ˈɻël.jë,,,0
28151002309,Valdivia,-39.81291,-72.95438,80,ocho,eight,,,ˈpʰʊ.ɻɐ̝,,,0
28151002309,Valdivia,-39.81291,-72.95438,100,diez,ten,,,ˈmɐ̝.ɻɪ,,,0
28151002309,Valdivia,-39.81291,-72.95438,210,mil,thousand,,,wɐ̝.ˈɻɐ̝ŋ.kʰɐ̝,,,0
28151002309,Valdivia,-39.81291,-72.95438,7010,negro,black,,,ˈkʊ.ɻɪ,,,0
28151002309,Valdivia,-39.81291,-72.95438,7910,caliente,warm,,,ɐ̝.ˈɻë,,,0
28151002309,Valdivia,-39.81291,-72.95438,2240,diente,tooth,,,ˈfö.ɻö,,,0
28151002309,Valdivia,-39.81291,-72.95438,2620,hueso,bone,,,ˈfö.ɻö,,,0
28151002309,Valdivia,-39.81291,-72.95438,10620,esposa,wife,,,ˈkʰʊ.ɻë,,,0
28151002309,Valdivia,-39.81291,-72.95438,21400,duenyo_casa,house_owner,,,ˌɲën.ˈɻʊ.kɐ̝,,,0
28151002309,Valdivia,-39.81291,-72.95438,20070,zorro,fox,,,ˈŋɘ.ɻɘ,,,0
28151002309,Valdivia,-39.81291,-72.95438,20030,gato,cat,,,ˈɲɐ̝ɻ.cʰɪ,,,0
28151002309,Valdivia,-39.81291,-72.95438,10200,liebre,hare,,,ˈmɐ̝.ɻɐ̝,,,0
28151002309,Valdivia,-39.81291,-72.95438,3420,gusano,worm,,,ˈbɪ.ɻʊ,,,0
28151002309,Valdivia,-39.81291,-72.95438,3810,huevo,egg,,,kʊ.ˈɻɐ̝m,,,0
28151002309,Valdivia,-39.81291,-72.95438,5510,piedra,stone,,,ˈkʊ.ɻɐ̝,,,0
28151002309,Valdivia,-39.81291,-72.95438,5850,viento,wind,,,kɘ.ˈɻɘf,,,0
28151002309,Valdivia,-39.81291,-72.95438,6510,casa,house,,,ˈɻʊ.kɐ̝,,,0
28151002309,Valdivia,-39.81291,-72.95438,30500,pueblo,town,,,wɐ̝.ˈɻɪ.ɐ̝,,,0
28151002309,Valdivia,-39.81291,-72.95438,6810,camino,road,,,ˈɻɘ.pɘ,,,0
28161000309,"San Pablo",-40.38308,-73.34988,70,siete,seven,,,ˈʂël.ɟ͡ʝë,,,0
28161000309,"San Pablo",-40.38308,-73.34988,80,ocho,eight,,,ˈbʊ.ʂɐ̝,,,0
28161000309,"San Pablo",-40.38308,-73.34988,100,diez,ten,,,ˈmɐ̝.ʂɪ̥,,,0
28161000309,"San Pablo",-40.38308,-73.34988,210,mil,thousand,,,wɐ̝.ˈɻɐ̝ŋ.kʰɐ̝,,,0
28161000309,"San Pablo",-40.38308,-73.34988,7010,negro,black,,,ˈkʉ.ʂɘ,,,0
28161000309,"San Pablo",-40.38308,-73.34988,7910,caliente,warm,,,ˈɐ̝.ʂë,,,0
28161000309,"San Pablo",-40.38308,-73.34988,2240,diente,tooth,,,ˈfö.ʂʊ,,,0
28161000309,"San Pablo",-40.38308,-73.34988,2620,hueso,bone,,,fö.rr̥ʊ,,,0
28161000309,"San Pablo",-40.38308,-73.34988,21400,duenyo_casa,house_owner,,,"ɲën ˈʂʊ.kɐ̝",,,0
28161000309,"San Pablo",-40.38308,-73.34988,20070,zorro,fox,,,ˈŋɘ.rɘ,,,0
28161000309,"San Pablo",-40.38308,-73.34988,20030,gato,cat,,,ˈnɐ̝ʂ.cʰɪ,,,0
28161000309,"San Pablo",-40.38308,-73.34988,10200,liebre,hare,,,mɐ̝.ˈʐɐ̝n,,,0
28161000309,"San Pablo",-40.38308,-73.34988,3420,gusano,worm,,,ˈbɪ.ʂʊ,,,0
28161000309,"San Pablo",-40.38308,-73.34988,3810,huevo,egg,,,kʊ.ˈʂɐ̝m,,,0
28161000309,"San Pablo",-40.38308,-73.34988,5850,viento,wind,,,kɘ.ˈʂɘf,,,0
28161000309,"San Pablo",-40.38308,-73.34988,6510,casa,house,,,ˈʂʊ.kɐ̝,,,0
28161000309,"San Pablo",-40.38308,-73.34988,6810,camino,road,,,ˈʂʊ.bö,,,0
28161001209,"S. Juan de la Costa",-40.51004,-73.52129,80,ocho,eight,,,ˈpʊ.ʂɐ̝,,,0
28161001209,"S. Juan de la Costa",-40.51004,-73.52129,100,diez,ten,,,ˈmɐ̝.ʂɪ,,,0
28161001209,"S. Juan de la Costa",-40.51004,-73.52129,210,mil,thousand,,,wɐ̝.ˈɾɐ̝ŋ.xə,,,0
28161001209,"S. Juan de la Costa",-40.51004,-73.52129,7010,negro,black,,,ˈkʊ.ʂɘ,,,0
28161001209,"S. Juan de la Costa",-40.51004,-73.52129,7910,caliente,warm,,,ˈɐ̝.ʂë,,,0
28161001209,"S. Juan de la Costa",-40.51004,-73.52129,2240,diente,tooth,,,ˈɸö.ʂö,,,0
28161001209,"S. Juan de la Costa",-40.51004,-73.52129,2620,hueso,bone,,,ˈɸö.ʂö,,,0
28161001209,"S. Juan de la Costa",-40.51004,-73.52129,21400,duenyo_casa,house_owner,,,"ɲën ˈʂʊ.kɐ̝",,,0
28161001209,"S. Juan de la Costa",-40.51004,-73.52129,20070,zorro,fox,,,ˈŋɘ.ʂɘ,,,0
28161001209,"S. Juan de la Costa",-40.51004,-73.52129,20030,gato,cat,,,nɐ̝ʂ.cʰɪ,,,0
28161001209,"S. Juan de la Costa",-40.51004,-73.52129,3420,gusano,worm,,,ˈpɪ.ʂʊ̥,,,0
28161001209,"S. Juan de la Costa",-40.51004,-73.52129,3810,huevo,egg,,,kʊ.ˈʂɐ̝m,,,0
28161001209,"S. Juan de la Costa",-40.51004,-73.52129,5510,piedra,stone,,,ˈkʊ.ʂɐ̝,,,0
28161001209,"S. Juan de la Costa",-40.51004,-73.52129,5850,viento,wind,,,kɘ.ˈʂɘf,,,0
28161001209,"S. Juan de la Costa",-40.51004,-73.52129,6510,casa,house,,,ˈʂʊ.kʰɐ̝,,,0
28161001209,"S. Juan de la Costa",-40.51004,-73.52129,30500,pueblo,town,,,wɐ̝.ˈʂɪ.ɐ̝,,,0
28161001209,"S. Juan de la Costa",-40.51004,-73.52129,6810,camino,road,,,ˈʂɘ.pɘ,,,0
28221005509,Chalileo,-36.42252,-66.47321,70,siete,seven,,,ʐë.ˈɣlë,,,0
28221005509,Chalileo,-36.42252,-66.47321,80,ocho,eight,,,pʰʊ.ˈɻɐ̝,,,0
28221005509,Chalileo,-36.42252,-66.47321,100,diez,ten,,,mɐ̝.ˈɻɪ,,,0
28221005509,Chalileo,-36.42252,-66.47321,210,mil,thousand,,,wɐ̝.ˈɻɐ̝ŋ.kɐ̝,,,0
28221005509,Chalileo,-36.42252,-66.47321,7010,negro,black,,,kʊ.ˈɻɘ,,,0
28221005509,Chalileo,-36.42252,-66.47321,7910,caliente,warm,,,ɐ̝.ˈɻë,,,0
28221005509,Chalileo,-36.42252,-66.47321,2620,hueso,bone,,,ᵐvö.ˈɻö,,,0
28221005509,Chalileo,-36.42252,-66.47321,10620,esposa,wife,,,kʊ.ˈɻë,,,0
28221005509,Chalileo,-36.42252,-66.47321,21400,duenyo_casa,house_owner,,,ˌŋën.ɻʊ.ˈkɐ̝,,,0
28221005509,Chalileo,-36.42252,-66.47321,20070,zorro,fox,,,ŋɘ.ˈɻɘ,,,0
28221005509,Chalileo,-36.42252,-66.47321,20030,gato,cat,,,ɲɐ̝j.ˈcʰɪ,,,0
28221005509,Chalileo,-36.42252,-66.47321,10200,liebre,hare,,,mɐ̝.ˈɻɐ̝,,,0
28221005509,Chalileo,-36.42252,-66.47321,3420,gusano,worm,,,pɪ.ˈɻʊ,,,0
28221005509,Chalileo,-36.42252,-66.47321,3810,huevo,egg,,,kʰʊ.ˈɻɐ̝m,,,0
28221005509,Chalileo,-36.42252,-66.47321,5510,piedra,stone,,,kʊ.ˈɻɐ̝,,,0
28221005509,Chalileo,-36.42252,-66.47321,5850,viento,wind,,,kʰɘ.ɻɘv,,,0
28221005509,Chalileo,-36.42252,-66.47321,6510,casa,house,,,ɻʊ.ˈkʰɐ̝,,,0
28221005509,Chalileo,-36.42252,-66.47321,30500,pueblo,town,,,wɐ̝.ɻɪ.ˈɐ̝,,,0
28221005509,Chalileo,-36.42252,-66.47321,6810,camino,road,,,ɻɘ.ˈpɘ,,,0
28261005309,Picunches,-38.78279,-70.22884,70,siete,seven,,,ɻë.ˈɣ̞l̝ë,,,0
28261005309,Picunches,-38.78279,-70.22884,80,ocho,eight,,,p͡ɸʊ.ˈɻɐ̝,,,0
28261005309,Picunches,-38.78279,-70.22884,100,diez,ten,,,mɐ̝.ˈɻɪ,,,0
28261005309,Picunches,-38.78279,-70.22884,210,mil,thousand,,,wɐ̝.ˈɻɐ̝ŋ.ɡɐ̝,,,0
28261005309,Picunches,-38.78279,-70.22884,7010,negro,black,,,xʊ.ˈɻɘ,,,0
28261005309,Picunches,-38.78279,-70.22884,2240,diente,tooth,,,fö.ˈɻö,,,0
28261005309,Picunches,-38.78279,-70.22884,2620,hueso,bone,,,fö.ˈɻö,,,0
28261005309,Picunches,-38.78279,-70.22884,21400,duenyo_casa,house_owner,,,ˌɲën.ɻʊ.ˈkɐ̝,,,0
28261005309,Picunches,-38.78279,-70.22884,20070,zorro,fox,,,ŋɘ.ˈɻɘ,,,0
28261005309,Picunches,-38.78279,-70.22884,20030,gato,cat,,,ɲɐ̝j.ˈçɪ,,,0
28261005309,Picunches,-38.78279,-70.22884,10200,liebre,hare,,,mɐ̝.ˈɻɐ̝,,,0
28261005309,Picunches,-38.78279,-70.22884,3420,gusano,worm,,,ˈpɪ.ɻʊ,,,0
28261005309,Picunches,-38.78279,-70.22884,3810,huevo,egg,,,kʊ.ˈɻɐ̝m,,,0
28261005309,Picunches,-38.78279,-70.22884,5510,piedra,stone,,,ʊ.ˈɻɐ̝,,,0
28261005309,Picunches,-38.78279,-70.22884,5850,viento,wind,,,kɘ.ˈɻɘf,,,0
28261005309,Picunches,-38.78279,-70.22884,6510,casa,house,,,ɻʊ.ˈkʰɐ̝,,,0
28261005309,Picunches,-38.78279,-70.22884,30500,pueblo,town,,,wɐ̝.ɻɪ.ˈɐ̝,,,0
28261005309,Picunches,-38.78279,-70.22884,6810,camino,road,,,ɻɘ.ˈɸɘ,,,0
28261005509,Zapala,-38.85047,-69.74997,70,siete,seven,,,ʐëj.ˈlë,,,0
28261005509,Zapala,-38.85047,-69.74997,80,ocho,eight,,,pʰʊ.ˈɻɐ̝,,,0
28261005509,Zapala,-38.85047,-69.74997,100,diez,ten,,,ˈmɐ̝.ʐɪ,,,0
28261005509,Zapala,-38.85047,-69.74997,210,mil,thousand,,,wɐ̝.ˈʐɐ̝ŋ.kʰɐ̝,,,0
28261005509,Zapala,-38.85047,-69.74997,7010,negro,black,,,kʊ.ˈʐɘ,,,0
28261005509,Zapala,-38.85047,-69.74997,7910,caliente,warm,,,ɐ̝.ˈʐë,,,0
28261005509,Zapala,-38.85047,-69.74997,2240,diente,tooth,,,ɸ̞ö.ˈɻö,,,0
28261005509,Zapala,-38.85047,-69.74997,2620,hueso,bone,,,fö.ˈɻö,,,0
28261005509,Zapala,-38.85047,-69.74997,10620,esposa,wife,,,kʊ.ˈʐë,,,0
28261005509,Zapala,-38.85047,-69.74997,20070,zorro,fox,,,ŋɘ.ˈʐɘ,,,0
28261005509,Zapala,-38.85047,-69.74997,20030,gato,cat,,,ɲɐ̝ɻ.ˈcʰɪ,,,0
28261005509,Zapala,-38.85047,-69.74997,10200,liebre,hare,,,mɐ̝.ˈrɐ̝,,,0
28261005509,Zapala,-38.85047,-69.74997,3420,gusano,worm,,,pɪ.ˈʐʊ,,,0
28261005509,Zapala,-38.85047,-69.74997,3810,huevo,egg,,,kʊ.ˈʐɐ̝m,,,0
28261005509,Zapala,-38.85047,-69.74997,5510,piedra,stone,,,kʊ.ˈʐɐ̝,,,0
28261005509,Zapala,-38.85047,-69.74997,5850,viento,wind,,,kʰɘ.ˈʐɘf,,,0
28261005509,Zapala,-38.85047,-69.74997,6510,casa,house,,,ɻʊ.ˈkʰɐ̝,,,0
28261005509,Zapala,-38.85047,-69.74997,30500,pueblo,town,,,ˈwɐ̝.rɪ.ɐ̝,,,0
28261005509,Zapala,-38.85047,-69.74997,6810,camino,road,,,ʐɘ.ˈpɘ,,,0
28261006109,Aluminé,-39.19681,-71.05406,70,siete,seven,,,ʂʐëj.ˈlë,,,0
28261006109,Aluminé,-39.19681,-71.05406,80,ocho,eight,,,ɸʊ.ˈʐɐ̝,,,0
28261006109,Aluminé,-39.19681,-71.05406,100,diez,ten,,,mɐ̝.ˈɻɪ,,,0
28261006109,Aluminé,-39.19681,-71.05406,210,mil,thousand,,,wɐ̝.ˈɻɐ̝ŋ.kʰɐ̝,,,0
28261006109,Aluminé,-39.19681,-71.05406,7010,negro,black,,,kʊ.ˈʐʊ,,,0
28261006109,Aluminé,-39.19681,-71.05406,7910,caliente,warm,,,ɐ̝.ˈɻëj,,,0
28261006109,Aluminé,-39.19681,-71.05406,2240,diente,tooth,,,ɸ̞ö.ˈɻö,,,0
28261006109,Aluminé,-39.19681,-71.05406,2620,hueso,bone,,,ɸö.ˈɻö,,,0
28261006109,Aluminé,-39.19681,-71.05406,21400,duenyo_casa,house_owner,,,ˌɲën.ʐʊ.ˈkɐ̝,,,0
28261006109,Aluminé,-39.19681,-71.05406,20070,zorro,fox,,,ŋɘ.ˈʐɘ,,,0
28261006109,Aluminé,-39.19681,-71.05406,20030,gato,cat,,,nɐ̝ɻ.ˈcʰɪ,,,0
28261006109,Aluminé,-39.19681,-71.05406,10200,liebre,hare,,,mɐ̝.ˈɻɐ̝,,,0
28261006109,Aluminé,-39.19681,-71.05406,3420,gusano,worm,,,ɸɪ.ˈʐʊ,,,0
28261006109,Aluminé,-39.19681,-71.05406,3810,huevo,egg,,,kʊ.ˈʐɐ̝m,,,0
28261006109,Aluminé,-39.19681,-71.05406,5510,piedra,stone,,,kʊ.ˈʐɐ̝,,,0
28261006109,Aluminé,-39.19681,-71.05406,5850,viento,wind,,,kʊ.ˈʐʊf,,,0
28261006109,Aluminé,-39.19681,-71.05406,6510,casa,house,,,ʐʊ.ˈkʰɐ̝,,,0
28261006109,Aluminé,-39.19681,-71.05406,30500,pueblo,town,,,wɐ̝ɻ.ˈjɐ̝,,,0
28261006109,Aluminé,-39.19681,-71.05406,6810,camino,road,,,ʐɘ.ˈpɘ,,,0
28261007109,"Junín de los Andes",-39.82386,-71.28742,70,siete,seven,,,ɻëj.ˈɡlë,,,0
28261007109,"Junín de los Andes",-39.82386,-71.28742,80,ocho,eight,,,pʰʊ.ˈɻɐ̝,,,0
28261007109,"Junín de los Andes",-39.82386,-71.28742,100,diez,ten,,,mɐ̝.ˈɻɪ,,,0
28261007109,"Junín de los Andes",-39.82386,-71.28742,210,mil,thousand,,,wɐ̝.ˈɻɐ̝ŋ.kɐ̝,,,0
28261007109,"Junín de los Andes",-39.82386,-71.28742,7010,negro,black,,,x̞ʊ.ˈɻɘ,,,0
28261007109,"Junín de los Andes",-39.82386,-71.28742,7910,caliente,warm,,,ɐ̝.ˈɻë.lɪ,,,0
28261007109,"Junín de los Andes",-39.82386,-71.28742,2240,diente,tooth,,,ɸ̞ö.ˈɻö,,,0
28261007109,"Junín de los Andes",-39.82386,-71.28742,2620,hueso,bone,,,ɸö.ˈɻö,,,0
28261007109,"Junín de los Andes",-39.82386,-71.28742,10620,esposa,wife,,,kʊ.ˈɻë,,,0
28261007109,"Junín de los Andes",-39.82386,-71.28742,21400,duenyo_casa,house_owner,,,ˌɲën.ɻʊ.ˈkɐ̝,,,0
28261007109,"Junín de los Andes",-39.82386,-71.28742,20070,zorro,fox,,,ŋɘ.ˈɻɘ,,,0
28261007109,"Junín de los Andes",-39.82386,-71.28742,20030,gato,cat,,,nɐ̝ɻ.ˈɟɪ,,,0
28261007109,"Junín de los Andes",-39.82386,-71.28742,10200,liebre,hare,,,mɐ̝.ˈɻɐ̝,,,0
28261007109,"Junín de los Andes",-39.82386,-71.28742,3420,gusano,worm,,,pɪ.ˈɻʊ,,,0
28261007109,"Junín de los Andes",-39.82386,-71.28742,3810,huevo,egg,,,kʊ.ˈɻɐ̝m,,,0
28261007109,"Junín de los Andes",-39.82386,-71.28742,5510,piedra,stone,,,kʊ.ˈɻɐ̝,,,0
28261007109,"Junín de los Andes",-39.82386,-71.28742,5850,viento,wind,,,kɘ.ˈɻɘf,,,0
28261007109,"Junín de los Andes",-39.82386,-71.28742,6510,casa,house,,,ɻʊ.ˈkɐ̝,,,0
28261007109,"Junín de los Andes",-39.82386,-71.28742,30500,pueblo,town,,,ˌwɐ̝.ɻɪ.ˈɐ̝,,,0
28261007109,"Junín de los Andes",-39.82386,-71.28742,6810,camino,road,,,ɻɘ.ˈɸɘ,,,0
28261007209,Huiliches,-39.63992,-71.18686,70,siete,seven,,,ɻëɣ.ˈɺë,,,0
28261007209,Huiliches,-39.63992,-71.18686,80,ocho,eight,,,ɸʊ.ˈɻɐ̝,,,0
28261007209,Huiliches,-39.63992,-71.18686,100,diez,ten,,,mɐ̝.ˈɻɪ,,,0
28261007209,Huiliches,-39.63992,-71.18686,210,mil,thousand,,,wɐ̝.ˈɻɐ̝ŋ.kʰɐ̝̥,,,0
28261007209,Huiliches,-39.63992,-71.18686,7010,negro,black,,,kʊ.ˈɻɘ,,,0
28261007209,Huiliches,-39.63992,-71.18686,7910,caliente,warm,,,ɐ̝.ˈɻë,,,0
28261007209,Huiliches,-39.63992,-71.18686,2240,diente,tooth,,,hö.ˈɻö,,,0
28261007209,Huiliches,-39.63992,-71.18686,2620,hueso,bone,,,ɸ̞ö.ˈɻö,,,0
28261007209,Huiliches,-39.63992,-71.18686,10620,esposa,wife,,,kʊ.ˈʐë,,,0
28261007209,Huiliches,-39.63992,-71.18686,21400,duenyo_casa,house_owner,,,ˌɲën.ɽʊ.ˈkɐ̝,,,0
28261007209,Huiliches,-39.63992,-71.18686,20070,zorro,fox,,,ŋɘ.ˈɻɘ,,,0
28261007209,Huiliches,-39.63992,-71.18686,20030,gato,cat,,,ŋɐ̝ɻ.ˈcʰɪ,,,0
28261007209,Huiliches,-39.63992,-71.18686,10200,liebre,hare,,,mɐ̝.ˈɻɐ̝,,,0
28261007209,Huiliches,-39.63992,-71.18686,3420,gusano,worm,,,ɪ.ˈɻʊ,,,0
28261007209,Huiliches,-39.63992,-71.18686,3810,huevo,egg,,,kʊ.ˈɻɐ̝m,,,0
28261007209,Huiliches,-39.63992,-71.18686,5510,piedra,stone,,,kʊ.ˈɻɐ̝,,,0
28261007209,Huiliches,-39.63992,-71.18686,5850,viento,wind,,,kɘ.ˈɻɘ,,,0
28261007209,Huiliches,-39.63992,-71.18686,6510,casa,house,,,ʊ̆.ˈkɐ̝,,,0
28261007209,Huiliches,-39.63992,-71.18686,30500,pueblo,town,,,wɐ̝.ɻɪ.ˈɐ̝,,,0
28261007209,Huiliches,-39.63992,-71.18686,6810,camino,road,,,ɻɘ.ˈpɘ,,,0
28281003209,"Lago Rosario",-43.24408,-71.32581,70,siete,seven,,,ɖ͡ʐëɣ̞.ˈlë,,,0
28281003209,"Lago Rosario",-43.24408,-71.32581,80,ocho,eight,,,ʊ.ˈɻɐ̝,,,0
28281003209,"Lago Rosario",-43.24408,-71.32581,100,diez,ten,,,mɐ̝.ˈɽɪ,,,0
28281003209,"Lago Rosario",-43.24408,-71.32581,210,mil,thousand,,,wɐ̝.ˈɻɐ̝ŋ.kʰɐ̝̥,,,0
28281003209,"Lago Rosario",-43.24408,-71.32581,7010,negro,black,,,kʊ.ˈɻɘ,,,0
28281003209,"Lago Rosario",-43.24408,-71.32581,2240,diente,tooth,,,ɸ̞ö.ˈɻö,,,0
28281003209,"Lago Rosario",-43.24408,-71.32581,2620,hueso,bone,,,ɸ̞ö.ˈɻö,,,0
28281003209,"Lago Rosario",-43.24408,-71.32581,10620,esposa,wife,,,kʊ.ˈɻë,,,0
28281003209,"Lago Rosario",-43.24408,-71.32581,10620,esposa,wife,,,θö.ˈmö.t͡ʃë,,,0
28281003209,"Lago Rosario",-43.24408,-71.32581,20070,zorro,fox,,,ŋɘ.ˈɻɘ,,,0
28281003209,"Lago Rosario",-43.24408,-71.32581,20030,gato,cat,,,nɐ̝ɻ.ˈcɪ,,,0
28281003209,"Lago Rosario",-43.24408,-71.32581,10200,liebre,hare,,,mɐ̝.ˈɻɐ̝,,,0
28281003209,"Lago Rosario",-43.24408,-71.32581,3810,huevo,egg,,,kʊ.ˈɻɐ̝m,,,0
28281003209,"Lago Rosario",-43.24408,-71.32581,5510,piedra,stone,,,kʊ.ˈɻɐ̝,,,0
28281003209,"Lago Rosario",-43.24408,-71.32581,5850,viento,wind,,,ɡɘ.ˈɻʊf,,,0
28281003209,"Lago Rosario",-43.24408,-71.32581,6510,casa,house,,,ɻʊ.ˈkɐ̝,,,0
28281003209,"Lago Rosario",-43.24408,-71.32581,30500,pueblo,town,,,wɐ̝.ˈɻɪ.ɐ̝,,,0
28281003209,"Lago Rosario",-43.24408,-71.32581,6810,camino,road,,,ɻɘ.ˈpɘ,,,0
28271006509,Jacobacci,-41.28813,-69.55719,70,siete,seven,,,ʐëɣ.ˈʐë,,,0
28271006509,Jacobacci,-41.28813,-69.55719,80,ocho,eight,,,pʰʊ.ˈɻɐ̝,,,0
28271006509,Jacobacci,-41.28813,-69.55719,100,diez,ten,,,mɐ̝.ˈɻɪ,,,0
28271006509,Jacobacci,-41.28813,-69.55719,7010,negro,black,,,kʊ.ˈʐɘ,,,0
28271006509,Jacobacci,-41.28813,-69.55719,7910,caliente,warm,,,ɐ̝.ˈɻëj,,,0
28271006509,Jacobacci,-41.28813,-69.55719,2240,diente,tooth,,,fö.ˈɻö,,,0
28271006509,Jacobacci,-41.28813,-69.55719,2620,hueso,bone,,,fö.ˈɻö,,,0
28271006509,Jacobacci,-41.28813,-69.55719,10620,esposa,wife,,,kʊ.ˈɻë,,,0
28271006509,Jacobacci,-41.28813,-69.55719,20070,zorro,fox,,,ŋɘ.ˈɻɘ,,,0
28271006509,Jacobacci,-41.28813,-69.55719,20030,gato,cat,,,ɲɐ̝ɻ.ˈcʰɪ,,,0
28271006509,Jacobacci,-41.28813,-69.55719,10200,liebre,hare,,,mɐ̝.ˈɻɐ̝,,,0
28271006509,Jacobacci,-41.28813,-69.55719,3420,gusano,worm,,,pʰɪ.ˈɻʊ,,,0
28271006509,Jacobacci,-41.28813,-69.55719,3810,huevo,egg,,,kʰʊ.ˈɻɐ̝m,,,0
28271006509,Jacobacci,-41.28813,-69.55719,5510,piedra,stone,,,kʊ.ˈɻɐ̝,,,0
28271006509,Jacobacci,-41.28813,-69.55719,5850,viento,wind,,,kɘ.ˈɻɘf,,,0
28271006509,Jacobacci,-41.28813,-69.55719,6510,casa,house,,,ɻʊ.ˈkɐ̝,,,0
28271006509,Jacobacci,-41.28813,-69.55719,30500,pueblo,town,,,wɐ̝.ˈɻɪ,,,0
28271006509,Jacobacci,-41.28813,-69.55719,6810,camino,road,,,ʐɘ.ˈpɘ,,,0
28281000209,Cushamen,-42.23392,-71.34994,70,siete,seven,,,ʐëj.ˈlë,,,0
28281000209,Cushamen,-42.23392,-71.34994,80,ocho,eight,,,pʰʊ.ˈʐɐ̝,,,0
28281000209,Cushamen,-42.23392,-71.34994,100,diez,ten,,,mɐ̝.ˈʐɪ,,,0
28281000209,Cushamen,-42.23392,-71.34994,210,mil,thousand,,,wɐ̝.ˈʐɐ̝ŋ.kʰɐ̝,,,0
28281000209,Cushamen,-42.23392,-71.34994,7010,negro,black,,,kʊ.ˈʐɘ,,,0
28281000209,Cushamen,-42.23392,-71.34994,7910,caliente,warm,,,ɐ̝.ˈʐë,,,0
28281000209,Cushamen,-42.23392,-71.34994,2240,diente,tooth,,,fö.ˈʐö,,,0
28281000209,Cushamen,-42.23392,-71.34994,2620,hueso,bone,,,fö.ˈʐö,,,0
28281000209,Cushamen,-42.23392,-71.34994,21400,duenyo_casa,house_owner,,,ˌŋën.ʐʊ.ˈkɐ̝,,,0
28281000209,Cushamen,-42.23392,-71.34994,20070,zorro,fox,,,ŋɘ.ˈʐɘ,,,0
28281000209,Cushamen,-42.23392,-71.34994,20030,gato,cat,,,nɐ̝ɻ.ˈcʰɪ,,,0
28281000209,Cushamen,-42.23392,-71.34994,10200,liebre,hare,,,mɐ̝.ˈʐɐ̝,,,0
28281000209,Cushamen,-42.23392,-71.34994,3420,gusano,worm,,,pɪ.ˈʐʊ,,,0
28281000209,Cushamen,-42.23392,-71.34994,3810,huevo,egg,,,kʊ.ˈʐɐ̝m,,,0
28281000209,Cushamen,-42.23392,-71.34994,5510,piedra,stone,,,kʊ.ˈʐɐ̝,,,0
28281000209,Cushamen,-42.23392,-71.34994,5850,viento,wind,,,kʰɘ.ˈʐɘf,,,0
28281000209,Cushamen,-42.23392,-71.34994,6510,casa,house,,,ʐʊ.ˈkʰɐ̝,,,0
28281000209,Cushamen,-42.23392,-71.34994,30500,pueblo,town,,,wɐ̝.ˈʐɪ.ɐ̝,,,0
28281000209,Cushamen,-42.23392,-71.34994,6810,camino,road,,,ʐʊ.ˈpɘ,,,0
28281002209,Futaleufú,-42.95052,-71.18351,70,siete,seven,,,ʐë.ˈɣlë,,,0
28281002209,Futaleufú,-42.95052,-71.18351,80,ocho,eight,,,hʊ.ˈɻɐ̝,,,0
28281002209,Futaleufú,-42.95052,-71.18351,7010,negro,black,,,kʰʊ.ˈʐʊ,,,0
28281002209,Futaleufú,-42.95052,-71.18351,7910,caliente,warm,,,ɐ̝.ˈʐël̠,,,0
28281002209,Futaleufú,-42.95052,-71.18351,2240,diente,tooth,,,fö.ˈʐö,,,0
28281002209,Futaleufú,-42.95052,-71.18351,2620,hueso,bone,,,fö.ˈɻö,,,0
28281002209,Futaleufú,-42.95052,-71.18351,10620,esposa,wife,,,hʊ.ˈʐën.wë̥,,,0
28281002209,Futaleufú,-42.95052,-71.18351,21400,duenyo_casa,house_owner,,,ˌɲën.ʐʊ.ˈkɐ̝,,,0
28281002209,Futaleufú,-42.95052,-71.18351,20070,zorro,fox,,,ŋɘ.ˈʐʊ,,,0
28281002209,Futaleufú,-42.95052,-71.18351,20030,gato,cat,,,nɐ̝ɻ.ˈkɪ,,,0
28281002209,Futaleufú,-42.95052,-71.18351,10200,liebre,hare,,,mɐ̝.ˈɻɐ̝,,,0
28281002209,Futaleufú,-42.95052,-71.18351,3420,gusano,worm,,,pʰɪ.ˈʐʊ,,,0
28281002209,Futaleufú,-42.95052,-71.18351,3810,huevo,egg,,,hʊ.ˈɻɐ̝m,,,0
28281002209,Futaleufú,-42.95052,-71.18351,5510,piedra,stone,,,hʊ.ˈɻɐ̝,,,0
28281002209,Futaleufú,-42.95052,-71.18351,5850,viento,wind,,,kʰʊ.ˈɻɘf,,,0
28281002209,Futaleufú,-42.95052,-71.18351,6510,casa,house,,,ʂʊ̆.ˈkɐ̝,,,0
28281002209,Futaleufú,-42.95052,-71.18351,6810,camino,road,,,ʐɘ.ˈɸʊ,,,0
