LanguageId,LanguageName,Latitude,Longitude,WordId,WordModernName1,WordModernName2,WordProtoName1,WordProtoName2,Phonetic,SpellingAltv1,SpellingAltv2,NotCognateWithMainWordInThisFamily
28001000000,"Ref. Spelling",-40,-75.5,70,siete,seven,,,ʐëɣlë,regle,,0
28001000000,"Ref. Spelling",-40,-75.5,80,ocho,eight,,,pʊʐɐ̝,pura,,0
28001000000,"Ref. Spelling",-40,-75.5,100,diez,ten,,,mɐ̝ʐɪ,mari,,0
28001000000,"Ref. Spelling",-40,-75.5,210,mil,thousand,,,wɐ̝ʐɐ̝ŋkɐ̝,warangka,,0
28001000000,"Ref. Spelling",-40,-75.5,7010,negro,black,,,kʊʐɘ,kurü,,0
28001000000,"Ref. Spelling",-40,-75.5,7860,pesado,heavy,,,fɐ̝në,fane,,0
28001000000,"Ref. Spelling",-40,-75.5,7860,pesado,heavy,,,ʐʊpɐ̝wjɪ,rupawyi,,0
28001000000,"Ref. Spelling",-40,-75.5,7910,caliente,warm,,,ɐ̝ʐë,are,,0
28001000000,"Ref. Spelling",-40,-75.5,7910,caliente,warm,,,köfɪ,kofi,,0
28001000000,"Ref. Spelling",-40,-75.5,20680,flaco,skinny,,,ʈʂöŋlɪ,trongli,,0
28001000000,"Ref. Spelling",-40,-75.5,20690,gordo,fat,,,möʈʂɪn,motrin,,0
28001000000,"Ref. Spelling",-40,-75.5,2240,diente,tooth,,,föʐö,foro,,0
28001000000,"Ref. Spelling",-40,-75.5,10560,mandibula,jaw,,,"ʈʂɐ̝ŋɐ̝ ʈʂɐ̝ŋɐ̝","tranga tranga",,0
28001000000,"Ref. Spelling",-40,-75.5,2620,hueso,bone,,,föʐö,foro,,0
28001000000,"Ref. Spelling",-40,-75.5,2630,piel,skin,,,ʈʂɐ̝wɐ̝,trawa,,0
28001000000,"Ref. Spelling",-40,-75.5,2710,barriga,belly,,,pɘʈʂɐ̝,pütra,,0
28001000000,"Ref. Spelling",-40,-75.5,2710,barriga,belly,,,ɐ̝ŋkɐ̝,angka,,0
28001000000,"Ref. Spelling",-40,-75.5,10620,esposa,wife,,,kʊʐë,kure,,0
28001000000,"Ref. Spelling",-40,-75.5,10740,hombre,man,,,wënʈʂʊ,wentru,,0
28001000000,"Ref. Spelling",-40,-75.5,21400,duenyo_casa,house_owner,,,"ŋën ʐʊkɐ̝","ngen ruka",,0
28001000000,"Ref. Spelling",-40,-75.5,3120,perro,dog,,,ʈʂëwɐ̝,trewa,,0
28001000000,"Ref. Spelling",-40,-75.5,20070,zorro,fox,,,ŋɘʐɘ,ngürü,,0
28001000000,"Ref. Spelling",-40,-75.5,20030,gato,cat,,,nɐ̝ʐkɪ,narki,,0
28001000000,"Ref. Spelling",-40,-75.5,10200,liebre,hare,,,mɐ̝ʐɐ̝,mara,,0
28001000000,"Ref. Spelling",-40,-75.5,3420,gusano,worm,,,pɪʐʊ,piru,,0
28001000000,"Ref. Spelling",-40,-75.5,3430,piojo,louse,,,t̪ɘn̪,t’ün',,0
28001000000,"Ref. Spelling",-40,-75.5,3430,piojo,louse,,,pɘ.ˈʈ͡ʂɐ̝ɻ,pütrar,,0
28001000000,"Ref. Spelling",-40,-75.5,3810,huevo,egg,,,kʊʐɐ̝m,kuram,,0
28001000000,"Ref. Spelling",-40,-75.5,10710,neblina,fog,,,ʈʂʊkʊʐ,trukur,,0
28001000000,"Ref. Spelling",-40,-75.5,5410,fuego,fire,,,kɘʈʂɐ̝l,kütral,,0
28001000000,"Ref. Spelling",-40,-75.5,5510,piedra,stone,,,kʊʐɐ̝,kura,,0
28001000000,"Ref. Spelling",-40,-75.5,5430,ceniza,ash,,,ʈʂʊfkën,trufken,,0
28001000000,"Ref. Spelling",-40,-75.5,5430,ceniza,ash,,,ɐ̝tʃëlpëɲ,achelpeñ,,0
28001000000,"Ref. Spelling",-40,-75.5,10120,barro,mud,,,föʈʂɐ̝,fotra,,0
28001000000,"Ref. Spelling",-40,-75.5,10120,barro,mud,,,pël̪ë,pel’e,,0
28001000000,"Ref. Spelling",-40,-75.5,5850,viento,wind,,,kɘʐɘf,kürüf,,0
28001000000,"Ref. Spelling",-40,-75.5,5850,viento,wind,,,wɘʈʂë,wütre,,0
28001000000,"Ref. Spelling",-40,-75.5,5840,nube,cloud,,,ʈʂömɘ,tromü,,0
28001000000,"Ref. Spelling",-40,-75.5,10810,cielo_truenos,thundery_sky,,,ʈʂɐ̝lkɐ̝nwënʊ,tralkanwenu,,0
28001000000,"Ref. Spelling",-40,-75.5,21530,hace_calor,it_is_hot,,,ɐ̝ʐëŋëj,arengey,,0
28001000000,"Ref. Spelling",-40,-75.5,21520,hace_frio,it_is_cold,,,wɘʈʂëŋë,wütrenge,,0
28001000000,"Ref. Spelling",-40,-75.5,21520,hace_frio,it_is_cold,,,ɐ̝ʈʂëŋëj,atrengey,,0
28001000000,"Ref. Spelling",-40,-75.5,6120,choclo,cob_of_corn,,,ʊwɐ̝,uwa,,0
28001000000,"Ref. Spelling",-40,-75.5,6120,choclo,cob_of_corn,,,kɐ̝ʐɘwɐ̝,karüwa,,0
28001000000,"Ref. Spelling",-40,-75.5,20550,harina_tostada,toasted_flour,,,mɘʐkë,mürke,,0
28001000000,"Ref. Spelling",-40,-75.5,6510,casa,house,,,ʐʊkɐ̝,ruka,,0
28001000000,"Ref. Spelling",-40,-75.5,30500,pueblo,town,,,wɐ̝ʐɪɐ̝,waria,,0
28001000000,"Ref. Spelling",-40,-75.5,20890,arado,plough,,,ɐ̝ʐɐ̝w,araw,,0
28001000000,"Ref. Spelling",-40,-75.5,20890,arado,plough,,,ʐɘŋɐ̝n,rüngan,,0
28001000000,"Ref. Spelling",-40,-75.5,6810,camino,road,,,ʐɘpɘ,rüpü,,0
28001000000,"Ref. Spelling",-40,-75.5,8030,caminar,walk,,,ʈʂëkɐ̝n,trekan,,0
28001000000,"Ref. Spelling",-40,-75.5,8110,estar_en_pie,be_standing,,,ʊʈʂɐ̝lën,utralen,,0
28001000000,"Ref. Spelling",-40,-75.5,8110,estar_en_pie,be_standing,,,wɪʈʂɐ̝pɘʐɐ̝n,witrapüran,,0
28001000000,"Ref. Spelling",-40,-75.5,10550,machacar,smash,,,ʈʂɐ̝nɐ̝n,tranan,,0
28001000000,"Ref. Spelling",-40,-75.5,8830,empujar,push,,,ʐɘʈʂën,rütren,,0
28001000000,"Ref. Spelling",-40,-75.5,8830,empujar,push,,,ɐ̝lʈʂön,altron,,0
28001000000,"Ref. Spelling",-40,-75.5,8830,empujar,push,,,ʐɘlʈʂën,rültren,,0
28001000000,"Ref. Spelling",-40,-75.5,20830,solamente,only,,,kɪθʊ,kidu,,0
28001000000,"Ref. Spelling",-40,-75.5,10450,solamente,alone,,,ʐë,re,,0
28001000000,"Ref. Spelling",-40,-75.5,21050,demasiado,too_much,,,fënʈʂën,fentren,,0
28001000000,"Ref. Spelling",-40,-75.5,510,anyo,year,,,ʈʂɪpɐ̝nt̪ʊ,tripant’u,,0
28001000000,"Ref. Spelling",-40,-75.5,20630,tambor,drum,,,kʊlʈʂʊn,kultrun,,0
28001000000,"Ref. Spelling",-40,-75.5,10800,cinta,headband,,,ʈʂɐ̝ʐɪlöŋkö,trarilongko,,0
28001000000,"Ref. Spelling",-40,-75.5,10340,quebrar,shatter,,,ʈʂɐ̝fön,trafon,,0
28001000000,"Ref. Spelling",-40,-75.5,10030,basta,enough,,,fënʈʂën,fentren,,0
28001000000,"Ref. Spelling",-40,-75.5,10030,basta,enough,,,mɘnɐ̝,müna,,0
28001000000,"Ref. Spelling",-40,-75.5,6320,flor,flower,,,ʐɐ̝jën,rayen,,0
28001000000,"Ref. Spelling",-40,-75.5,10430,cascada,waterfall,,,ʈʂɐ̝jën,trayen,,0
28001000000,"Ref. Spelling",-40,-75.5,10090,plano,spread_out,,,lɐ̝f,laf,,0
28001000000,"Ref. Spelling",-40,-75.5,10090,plano,spread_out,,,lɘʐ,lür,,0
28001000000,"Ref. Spelling",-40,-75.5,10310,greda_blanca,clay,,,mɐ̝ʎö,mallo,,0
28001000000,"Ref. Spelling",-40,-75.5,10310,greda_blanca,clay,,,ɻaɣ,rag,,0
28001000000,"Ref. Spelling",-40,-75.5,10500,visita,visitor,,,wɪʈʂɐ̝n,witran,,0
28001000000,"Ref. Spelling",-40,-75.5,10510,telar,loom,,,wɪʈʂɐ̝l,witral,,0
28001000000,"Ref. Spelling",-40,-75.5,10070,estrujar,wring,,,kɘʈʂɘn,kütrün,,0
28001000000,"Ref. Spelling",-40,-75.5,10080,atado,tied_up,,,kɘʈʂɘŋ,kütrüng,,0
28001000000,"Ref. Spelling",-40,-75.5,10590,verde,green,,,kɐ̝ʐɘ,karü,,0
28001000000,"Ref. Spelling",-40,-75.5,10600,cazuela,soup,,,köʐɘ,korü,,0
28131006609,"Santa Bárbara",-37.67405,-71.80186,70,siete,seven,,,ˈɻël.jë,,,0
28131006609,"Santa Bárbara",-37.67405,-71.80186,80,ocho,eight,,,pʊ.ˈɻɐ̝,,,0
28131006609,"Santa Bárbara",-37.67405,-71.80186,100,diez,ten,,,ˈmɐ̝.ɻɪ,,,0
28131006609,"Santa Bárbara",-37.67405,-71.80186,210,mil,thousand,,,wɐ̝.ɻɐ̝ŋ.ˈɡɐ̝,,,0
28131006609,"Santa Bárbara",-37.67405,-71.80186,7010,negro,black,,,ˈkʊ.ɻɘ,,,0
28131006609,"Santa Bárbara",-37.67405,-71.80186,7860,pesado,heavy,,,ˈʋɐ̝.nɪ,,,0
28131006609,"Santa Bárbara",-37.67405,-71.80186,7910,caliente,warm,,,hɐ̝.ˈɻë.lɪ,,,0
28131006609,"Santa Bárbara",-37.67405,-71.80186,20680,flaco,skinny,,,ˈʈöŋ.lɪ,,,0
28131006609,"Santa Bárbara",-37.67405,-71.80186,20690,gordo,fat,,,mö.ˈʈɪn,,,0
28131006609,"Santa Bárbara",-37.67405,-71.80186,2240,diente,tooth,,,ˈvö.ɻö,,,0
28131006609,"Santa Bárbara",-37.67405,-71.80186,10560,mandibula,jaw,,,ˌt̺͡s̺ɐ̝.ŋɐ̝.ˈt̺͡s̺ɐ̝.ŋɐ̝,,,0
28131006609,"Santa Bárbara",-37.67405,-71.80186,2620,hueso,bone,,,ˈvö.ɻö,,,0
28131006609,"Santa Bárbara",-37.67405,-71.80186,2630,piel,skin,,,ˈʈɐ̝.wɐ̝,,,0
28131006609,"Santa Bárbara",-37.67405,-71.80186,2710,barriga,belly,,,ˈpɘ.ʈɐ̝,,,0
28131006609,"Santa Bárbara",-37.67405,-71.80186,10620,esposa,wife,,,ʊ.ˈɻë,,,0
28131006609,"Santa Bárbara",-37.67405,-71.80186,10740,hombre,man,,,ˈɡwën.ʈ͡ʂʊ,,,0
28131006609,"Santa Bárbara",-37.67405,-71.80186,21400,duenyo_casa,house_owner,,,ˈnën.ˌɖ͡ʐʊ.kɐ̝,,,0
28131006609,"Santa Bárbara",-37.67405,-71.80186,3120,perro,dog,,,ˈʈ͡ʂë.wɐ̝,,,0
28131006609,"Santa Bárbara",-37.67405,-71.80186,20070,zorro,fox,,,ˈŋɘ.ɻɘ,,,0
28131006609,"Santa Bárbara",-37.67405,-71.80186,20030,gato,cat,,,ɲɐ̝j.cʰɪ,,,0
28131006609,"Santa Bárbara",-37.67405,-71.80186,10200,liebre,hare,,,ˈmɐ̝.ɻɐ̝,,,0
28131006609,"Santa Bárbara",-37.67405,-71.80186,3420,gusano,worm,,,ˈpɪ.ɻʊ,,,0
28131006609,"Santa Bárbara",-37.67405,-71.80186,3430,piojo,louse,,,t̪ɘn,,,0
28131006609,"Santa Bárbara",-37.67405,-71.80186,3810,huevo,egg,,,kʊ.ˈɻɐ̝m,,,0
28131006609,"Santa Bárbara",-37.67405,-71.80186,10710,neblina,fog,,,ʈʊ.ˈkɻ̩,,,0
28131006609,"Santa Bárbara",-37.67405,-71.80186,5410,fuego,fire,,,kɘ̆.ˈɖɐ̝l,,,0
28131006609,"Santa Bárbara",-37.67405,-71.80186,5510,piedra,stone,,,ˈkʊ.ɻɐ̝,,,0
28131006609,"Santa Bárbara",-37.67405,-71.80186,5430,ceniza,ash,,,ʈʊf.ˈcʰën,,,0
28131006609,"Santa Bárbara",-37.67405,-71.80186,10120,barro,mud,,,ˈwö.ʈɐ̝,,,0
28131006609,"Santa Bárbara",-37.67405,-71.80186,5850,viento,wind,,,kɘ.ˈɻɘf,,,0
28131006609,"Santa Bárbara",-37.67405,-71.80186,5840,nube,cloud,,,ɖö.ˈmɘ,,,0
28131006609,"Santa Bárbara",-37.67405,-71.80186,10810,cielo_truenos,thundery_sky,,,ˌʈɐ̝l.kɐ̝n.ˈwë.nʊ,,,0
28131006609,"Santa Bárbara",-37.67405,-71.80186,21530,hace_calor,it_is_hot,,,hɐ̝.ˈɻëj.mɪ,,,0
28131006609,"Santa Bárbara",-37.67405,-71.80186,21520,hace_frio,it_is_cold,,,ˌwʊ.ˈt̪ëj.mɪ,,,0
28131006609,"Santa Bárbara",-37.67405,-71.80186,6120,choclo,cob_of_corn,,,ˈʊ.wɐ̝,,,0
28131006609,"Santa Bárbara",-37.67405,-71.80186,6120,choclo,cob_of_corn,,,ˌkʰɐ̝.ˈɻʊ.wɐ̝,,,0
28131006609,"Santa Bárbara",-37.67405,-71.80186,20550,harina_tostada,toasted_flour,,,ˈmɘɻ.kʰë,,,0
28131006609,"Santa Bárbara",-37.67405,-71.80186,6510,casa,house,,,ˈʐ̞ʊ.kʰɐ̝,,,0
28131006609,"Santa Bárbara",-37.67405,-71.80186,30500,pueblo,town,,,wɐ̝.ˈʐɪ.ɐ̝,,,0
28131006609,"Santa Bárbara",-37.67405,-71.80186,20890,arado,plough,,,ɐ̝.ˈɻɐ̝w,,,0
28131006609,"Santa Bárbara",-37.67405,-71.80186,6810,camino,road,,,ˈʐ̞ɘ.pɘ,,,0
28131006609,"Santa Bárbara",-37.67405,-71.80186,8030,caminar,walk,,,t̺͡s̺ë.ˈkɐ̝n,,,0
28131006609,"Santa Bárbara",-37.67405,-71.80186,8110,estar_en_pie,be_standing,,,ʊ̆.ˈʈɐ̝.lë,,,0
28131006609,"Santa Bárbara",-37.67405,-71.80186,10550,machacar,smash,,,t̺͡s̺ɐ̝.ˈnɐ̝n,,,0
28131006609,"Santa Bárbara",-37.67405,-71.80186,20830,solamente,only,,,ˌcʰɪ.ˈðʊ.lɪ,,,0
28131006609,"Santa Bárbara",-37.67405,-71.80186,10450,solamente,alone,,,ʐë,,,0
28131006609,"Santa Bárbara",-37.67405,-71.80186,21050,demasiado,too_much,,,ʋën.ˈʈën,,,0
28131006609,"Santa Bárbara",-37.67405,-71.80186,510,anyo,year,,,t͡ɹ̝̥p̩̚.ˈpɐ̝n̪.t̪ɘ,,,0
28131006609,"Santa Bárbara",-37.67405,-71.80186,20630,tambor,drum,,,kʊl.ˈʈʊŋ.ɡɐ̝,,,0
28131006609,"Santa Bárbara",-37.67405,-71.80186,10800,cinta,headband,,,ˌʈɐ̝.ɻɪ.ˈlöŋ.kö,,,0
28131006609,"Santa Bárbara",-37.67405,-71.80186,10340,quebrar,shatter,,,ʈɐ̝.ˈvön,,,0
28131006609,"Santa Bárbara",-37.67405,-71.80186,10030,basta,enough,,,ʋën.ˈʈën,,,0
28131006609,"Santa Bárbara",-37.67405,-71.80186,6320,flor,flower,,,ʐɐ̝.ˈjën,,,0
28131006609,"Santa Bárbara",-37.67405,-71.80186,10430,cascada,waterfall,,,ʈ͡ʂɐ̝.ˈjën,,,0
28131006609,"Santa Bárbara",-37.67405,-71.80186,10090,plano,spread_out,,,lɐ̝f,,,0
28131006609,"Santa Bárbara",-37.67405,-71.80186,10310,greda_blanca,clay,,,ˈmɐ̝.ʎö,,,0
28131006609,"Santa Bárbara",-37.67405,-71.80186,10500,visita,visitor,,,wɘ̆.ˈʈɐ̝n,,,0
28131006609,"Santa Bárbara",-37.67405,-71.80186,10510,telar,loom,,,wɘ.ˈʈɐ̝l,,,0
28131006609,"Santa Bárbara",-37.67405,-71.80186,10070,estrujar,wring,,,kʰɘ.ˈt͡ʃɘn,,,0
28131006609,"Santa Bárbara",-37.67405,-71.80186,10080,atado,tied_up,,,kɘ̆.ˈʈɘŋ,,,0
28131006609,"Santa Bárbara",-37.67405,-71.80186,10590,verde,green,,,ˈkɐ̝.ɻɘ,,,0
28131006609,"Santa Bárbara",-37.67405,-71.80186,10600,cazuela,soup,,,ˈkö.ɻɘ,,,0
28131007109,Cañete,-37.96722,-73.39282,70,siete,seven,,,ˈɻël.ʝë,,,0
28131007109,Cañete,-37.96722,-73.39282,80,ocho,eight,,,ˈɸʊ.ʐɐ̝,,,0
28131007109,Cañete,-37.96722,-73.39282,100,diez,ten,,,mɐ̝ʐ,,,0
28131007109,Cañete,-37.96722,-73.39282,210,mil,thousand,,,wɐ̝.ˈɻɐ̝ŋ.kɐ̝,,,0
28131007109,Cañete,-37.96722,-73.39282,7010,negro,black,,,ˈkʊ.ʐɘ,,,0
28131007109,Cañete,-37.96722,-73.39282,7860,pesado,heavy,,,m̩.ˈbɐ̝.në,,,0
28131007109,Cañete,-37.96722,-73.39282,7910,caliente,warm,,,ɐ̝ɭ,,,0
28131007109,Cañete,-37.96722,-73.39282,20680,flaco,skinny,,,ʈ͡ʂöŋ,,,0
28131007109,Cañete,-37.96722,-73.39282,20690,gordo,fat,,,mö.ˈt̺͡s̺ɪn,,,0
28131007109,Cañete,-37.96722,-73.39282,2240,diente,tooth,,,m̩.ˈbö.ʐö,,,0
28131007109,Cañete,-37.96722,-73.39282,10560,mandibula,jaw,,,ˌt͡ɹ̝̥ɐ̝.ŋɐ̝ɬ.ˈt̺͡s̺ɐ̝.ŋɐ̝ɬ,,,0
28131007109,Cañete,-37.96722,-73.39282,2620,hueso,bone,,,m̩.ˈbö.ɻö,,,0
28131007109,Cañete,-37.96722,-73.39282,2630,piel,skin,,,ˈt͡ɹ̝̥ɐ̝.wɐ̝,,,0
28131007109,Cañete,-37.96722,-73.39282,2710,barriga,belly,,,ˈɸɘ.t̺͡s̺ɐ̝,,,0
28131007109,Cañete,-37.96722,-73.39282,10620,esposa,wife,,,ˈkʊ.ʐë,,,0
28131007109,Cañete,-37.96722,-73.39282,10740,hombre,man,,,ˈwën.ʈ͡ʂʊ̥,,,0
28131007109,Cañete,-37.96722,-73.39282,21400,duenyo_casa,house_owner,,,ˌɲën.ˈɖ͡ʐʊ.kɐ̝,,,0
28131007109,Cañete,-37.96722,-73.39282,3120,perro,dog,,,ˈʈ͡ʂë.wɐ̝,,,0
28131007109,Cañete,-37.96722,-73.39282,20070,zorro,fox,,,ŋɘ.ˈʐɘ,,,0
28131007109,Cañete,-37.96722,-73.39282,20030,gato,cat,,,ˈɲɐ̝j.ç̩,,,0
28131007109,Cañete,-37.96722,-73.39282,10200,liebre,hare,,,ˈmɐ̝.ʐɐ̝,,,0
28131007109,Cañete,-37.96722,-73.39282,3420,gusano,worm,,,ˈbɪ.ʐʊ,,,0
28131007109,Cañete,-37.96722,-73.39282,3430,piojo,louse,,,t̪ɘn,,,0
28131007109,Cañete,-37.96722,-73.39282,3810,huevo,egg,,,ˈkʰʊ.ʐɐ̝m,,,0
28131007109,Cañete,-37.96722,-73.39282,10710,neblina,fog,,,ʈɘ̆.ˈkʰɘʐ,,,0
28131007109,Cañete,-37.96722,-73.39282,5410,fuego,fire,,,kɘ̆.ˈʈ͡ʂɐ̝l,,,0
28131007109,Cañete,-37.96722,-73.39282,5510,piedra,stone,,,ˈkʊ.ʐɐ̝,,,0
28131007109,Cañete,-37.96722,-73.39282,5430,ceniza,ash,,,ˈʈ͡ʂʊv.cʰën,,,0
28131007109,Cañete,-37.96722,-73.39282,10120,barro,mud,,,m̩.ˈbö.t͡sɐ̝,,,0
28131007109,Cañete,-37.96722,-73.39282,5850,viento,wind,,,kʰɘ.ˈʐɘv,,,0
28131007109,Cañete,-37.96722,-73.39282,5840,nube,cloud,,,ˈt͡ɹ̝̥ö.mɘ,,,0
28131007109,Cañete,-37.96722,-73.39282,10810,cielo_truenos,thundery_sky,,,ʈ͡ʂɐ̝l.ˈkɐ̝n,,,0
28131007109,Cañete,-37.96722,-73.39282,21530,hace_calor,it_is_hot,,,ˌɐ̝.ˈɻë.ŋɪ,,,0
28131007109,Cañete,-37.96722,-73.39282,21520,hace_frio,it_is_cold,,,ˌɐ̝.ˈʈ͡ʂë.ŋɪ,,,0
28131007109,Cañete,-37.96722,-73.39282,6120,choclo,cob_of_corn,,,wɐ̝,,,0
28131007109,Cañete,-37.96722,-73.39282,20550,harina_tostada,toasted_flour,,,mɘɻ.ˈcʰë,,,0
28131007109,Cañete,-37.96722,-73.39282,6510,casa,house,,,ˈʐʊ.kɐ̝,,,0
28131007109,Cañete,-37.96722,-73.39282,30500,pueblo,town,,,ɡwɐ̝.ˈɻɪ.ɐ̝,,,0
28131007109,Cañete,-37.96722,-73.39282,6810,camino,road,,,ˈɻɘ.pɘ,,,0
28131007109,Cañete,-37.96722,-73.39282,8030,caminar,walk,,,t͡ɹ̝̥ë.ˈkɐ̝n,,,0
28131007109,Cañete,-37.96722,-73.39282,8110,estar_en_pie,be_standing,,,wɘ.ˈt̺͡s̺ɐ̝n,,,0
28131007109,Cañete,-37.96722,-73.39282,10550,machacar,smash,,,ʈ͡ʂɐ̝.ˈnɐ̝n,,,0
28131007109,Cañete,-37.96722,-73.39282,8830,empujar,push,,,ʐë.ˈʈ͡ʂɐ̝n,,,0
28131007109,Cañete,-37.96722,-73.39282,21050,demasiado,too_much,,,m̩.ˌbën.ˈt̺͡s̺ën,,,0
28131007109,Cañete,-37.96722,-73.39282,510,anyo,year,,,ʈ͡ʂɪ.ˈpɐ̝n̪.t̪ʊʊ̥̯,,,0
28131007109,Cañete,-37.96722,-73.39282,20630,tambor,drum,,,ˈkʊl.ʈ͡ʂʊn,,,0
28131007109,Cañete,-37.96722,-73.39282,10800,cinta,headband,,,ˌʈ͡ʂɐ̝.ɻɪ.ˈlöŋ.kö,,,0
28131007109,Cañete,-37.96722,-73.39282,10340,quebrar,shatter,,,ʈ͡ʂɐ̝.ˈvön,,,0
28131007109,Cañete,-37.96722,-73.39282,10030,basta,enough,,,ˌvën.t̪ʰë.ˈpʊn,,,0
28131007109,Cañete,-37.96722,-73.39282,6320,flor,flower,,,ʐɐ̝.ˈjën,,,0
28131007109,Cañete,-37.96722,-73.39282,10430,cascada,waterfall,,,ʈ͡ʂɐ̝.ˈjën,,,0
28131007109,Cañete,-37.96722,-73.39282,10090,plano,spread_out,,,lɘʐ,,,0
28131007109,Cañete,-37.96722,-73.39282,10500,visita,visitor,,,wɪ.ˈt̺͡s̺ɐ̝n,,,0
28131007109,Cañete,-37.96722,-73.39282,10510,telar,loom,,,wɪ.ˈt̺͡s̺ɐ̝l,,,0
28131007109,Cañete,-37.96722,-73.39282,10070,estrujar,wring,,,ˌkʰɘ̆.ˈʈ͡ʂɘn,,,0
28131007109,Cañete,-37.96722,-73.39282,10080,atado,tied_up,,,ˌkɘ̆.ˈʈ͡ʂɘn,,,0
28131007109,Cañete,-37.96722,-73.39282,10590,verde,green,,,ˈkʰɐ̝.ʐɘ,,,0
28131007109,Cañete,-37.96722,-73.39282,10600,cazuela,soup,,,ˈkö.ʐn̩,,,0
28131009109,Tirúa,-38.3699,-73.49067,70,siete,seven,,,ˈɻël.ɡë,,,0
28131009109,Tirúa,-38.3699,-73.49067,80,ocho,eight,,,ˈpʊ.ɻɐ̝̥,,,0
28131009109,Tirúa,-38.3699,-73.49067,100,diez,ten,,,ˈmɐ̝.ɻë,,,0
28131009109,Tirúa,-38.3699,-73.49067,210,mil,thousand,,,wɐ̝.ˈɻɐ̝ŋ.kʰɐ̝,,,0
28131009109,Tirúa,-38.3699,-73.49067,7010,negro,black,,,ˈkʊ.ɻɘ,,,0
28131009109,Tirúa,-38.3699,-73.49067,7860,pesado,heavy,,,ʋɐ̝.ˈnë,,,0
28131009109,Tirúa,-38.3699,-73.49067,7910,caliente,warm,,,ɐ̝.ˈɻë.ŋɪ,,,0
28131009109,Tirúa,-38.3699,-73.49067,20690,gordo,fat,,,mö.ˈt͡ɹ̝̥ɪ,,,0
28131009109,Tirúa,-38.3699,-73.49067,2240,diente,tooth,,,ˈɸö.ɻö,,,0
28131009109,Tirúa,-38.3699,-73.49067,10560,mandibula,jaw,,,ˌt͡ɹ̝̥ɐ̝.ŋɐ̝.ˈt̺͡s̺ɐ̝ɣɐ̝,,,0
28131009109,Tirúa,-38.3699,-73.49067,2620,hueso,bone,,,ˈö.ɻö,,,0
28131009109,Tirúa,-38.3699,-73.49067,2630,piel,skin,,,t͡ɹ̝̥ɐ̝.wɐ̝,,,0
28131009109,Tirúa,-38.3699,-73.49067,2710,barriga,belly,,,ˈpɘ.t͡ɹ̝̥ɐ̝,,,0
28131009109,Tirúa,-38.3699,-73.49067,10620,esposa,wife,,,ˈkʊ.ɻë,,,0
28131009109,Tirúa,-38.3699,-73.49067,10740,hombre,man,,,ˈwën.t͡ɹ̝̥ʊ̥,,,0
28131009109,Tirúa,-38.3699,-73.49067,21400,duenyo_casa,house_owner,,,ˌŋën.ˈd͡ɹ̝ʊ.ɡɐ̝,,,0
28131009109,Tirúa,-38.3699,-73.49067,3120,perro,dog,,,ˈt͡ɹ̝̥ë.wɐ̝̥,,,0
28131009109,Tirúa,-38.3699,-73.49067,20070,zorro,fox,,,ˈɳɘ.ɻɘ,,,0
28131009109,Tirúa,-38.3699,-73.49067,20030,gato,cat,,,nɐ̝ɻ.kɪ,,,0
28131009109,Tirúa,-38.3699,-73.49067,10200,liebre,hare,,,ˈmɐ̝.ɭɐ̝,,,0
28131009109,Tirúa,-38.3699,-73.49067,3420,gusano,worm,,,ˈpɪ.ɻʊ,,,0
28131009109,Tirúa,-38.3699,-73.49067,3430,piojo,louse,,,t̪ɪn,,,0
28131009109,Tirúa,-38.3699,-73.49067,3810,huevo,egg,,,ˈkʊ.ɻɐ̝m,,,0
28131009109,Tirúa,-38.3699,-73.49067,10710,neblina,fog,,,ˈt͡ɹ̝̥ö.kʊɻ,,,0
28131009109,Tirúa,-38.3699,-73.49067,5410,fuego,fire,,,kɘ̆.ˈt͡ɹ̝̥ɐ̝l,,,0
28131009109,Tirúa,-38.3699,-73.49067,5510,piedra,stone,,,ˈkʊ.ɻɐ̝,,,0
28131009109,Tirúa,-38.3699,-73.49067,5430,ceniza,ash,,,ˈt͡ɹ̝̥ʊf.kën,,,0
28131009109,Tirúa,-38.3699,-73.49067,10120,barro,mud,,,wö.t͡ɹ̝̥ɐ̝,,,0
28131009109,Tirúa,-38.3699,-73.49067,5850,viento,wind,,,ɘ.ˈɻɘf,,,0
28131009109,Tirúa,-38.3699,-73.49067,21530,hace_calor,it_is_hot,,,ɐ̝.ˈɻë.ŋɪ,,,0
28131009109,Tirúa,-38.3699,-73.49067,21520,hace_frio,it_is_cold,,,ɐ̝.ˈt͡ɹ̝̥ë.ŋɪ,,,0
28131009109,Tirúa,-38.3699,-73.49067,6120,choclo,cob_of_corn,,,wɐ̝,,,0
28131009109,Tirúa,-38.3699,-73.49067,20550,harina_tostada,toasted_flour,,,ˈmɘɻ.kë,,,0
28131009109,Tirúa,-38.3699,-73.49067,6510,casa,house,,,ˈɻʊ.kɐ̝,,,0
28131009109,Tirúa,-38.3699,-73.49067,30500,pueblo,town,,,wɐ̝.ˈɻɪ.ɐ̝,,,0
28131009109,Tirúa,-38.3699,-73.49067,20890,arado,plough,,,ɐ̝.ˈðɐ̝w,,,0
28131009109,Tirúa,-38.3699,-73.49067,6810,camino,road,,,ˈëɻ.pʊ̥,,,0
28131009109,Tirúa,-38.3699,-73.49067,8030,caminar,walk,,,t͡ɹ̝̥ë.ˈkɐ̝n,,,0
28131009109,Tirúa,-38.3699,-73.49067,8110,estar_en_pie,be_standing,,,ˌwɪ.t͡ɹ̝̥ɐ̝.ˈlë,,,0
28131009109,Tirúa,-38.3699,-73.49067,10550,machacar,smash,,,t͡ɹ̝̥ɐ̝.ˈnɐ̝n,,,0
28131009109,Tirúa,-38.3699,-73.49067,8830,empujar,push,,,ˈɻɘ.t͡ɹ̝̥ɘ,,,0
28131009109,Tirúa,-38.3699,-73.49067,20830,solamente,only,,,ˈcʰɪ.ðö,,,0
28131009109,Tirúa,-38.3699,-73.49067,21050,demasiado,too_much,,,ʋën.ˈt̺͡s̺ën,,,0
28131009109,Tirúa,-38.3699,-73.49067,510,anyo,year,,,t͡ɹ̝̥ɪ.ˈpɐ̝n̪.t̪ɘ,,,0
28131009109,Tirúa,-38.3699,-73.49067,20630,tambor,drum,,,ˈʊl.t͡ɹ̝̥ʊn,,,0
28131009109,Tirúa,-38.3699,-73.49067,10800,cinta,headband,,,ˌt͡ɹ̝̥ɐ̝.ɻɪ.ˈlöŋ.kö,,,0
28131009109,Tirúa,-38.3699,-73.49067,10030,basta,enough,,,mɘ.ˈnɐ̝,,,0
28131009109,Tirúa,-38.3699,-73.49067,10430,cascada,waterfall,,,t͡ɹ̝̥ɐ̝.ˈjën,,,0
28131009109,Tirúa,-38.3699,-73.49067,10090,plano,spread_out,,,lɘɸ,,,0
28131009109,Tirúa,-38.3699,-73.49067,10500,visita,visitor,,,ˈwɪ.ɹ̝̥ɐ̝n,,,0
28131009109,Tirúa,-38.3699,-73.49067,10510,telar,loom,,,wɪ.ˈɹ̝̥ɐ̝l,,,0
28131009109,Tirúa,-38.3699,-73.49067,10070,estrujar,wring,,,kɘ̆.ˈt͡ɹ̝̥ɪn,,,0
28131009109,Tirúa,-38.3699,-73.49067,10080,atado,tied_up,,,kɘ̆.ˈt͡ɹ̝̥ɪŋ,,,0
28131009109,Tirúa,-38.3699,-73.49067,10590,verde,green,,,ˈkʰɐ̝.ɻɘ,,,0
28131009109,Tirúa,-38.3699,-73.49067,10600,cazuela,soup,,,köɻ,,,0
28131009809,"Alto Bío Bío",-38.04457,-71.36344,70,siete,seven,,,ël.ˈɡë,,,0
28131009809,"Alto Bío Bío",-38.04457,-71.36344,80,ocho,eight,,,ɸʊ.ˈɻɐ̝,,,0
28131009809,"Alto Bío Bío",-38.04457,-71.36344,100,diez,ten,,,mɐ̝.ɻɪ,,,0
28131009809,"Alto Bío Bío",-38.04457,-71.36344,210,mil,thousand,,,wɐ̝.ˈɻɐ̝ŋ.kʰɐ̝,,,0
28131009809,"Alto Bío Bío",-38.04457,-71.36344,7010,negro,black,,,ˈkʊ.ɻɘ,,,0
28131009809,"Alto Bío Bío",-38.04457,-71.36344,7860,pesado,heavy,,,ᵐbɐ̝.ˈnëj,,,0
28131009809,"Alto Bío Bío",-38.04457,-71.36344,7910,caliente,warm,,,ˈɐ̝.ɻë,,,0
28131009809,"Alto Bío Bío",-38.04457,-71.36344,20680,flaco,skinny,,,ˈʈ͡ʂöŋ.ɡlɪ,,,0
28131009809,"Alto Bío Bío",-38.04457,-71.36344,20690,gordo,fat,,,ˈmö.tʰɪ,,,0
28131009809,"Alto Bío Bío",-38.04457,-71.36344,2240,diente,tooth,,,m̩̆.ˈβö.ɹö,,,0
28131009809,"Alto Bío Bío",-38.04457,-71.36344,10560,mandibula,jaw,,,ˌʈʰɐ̝.ŋɐ̝.ˈʈʰɐ̝.ŋɐ̝,,,0
28131009809,"Alto Bío Bío",-38.04457,-71.36344,2620,hueso,bone,,,vö.ˈɻö,,,0
28131009809,"Alto Bío Bío",-38.04457,-71.36344,2630,piel,skin,,,ˈt̺͡s̺ɐ̝.wɐ̝,,,0
28131009809,"Alto Bío Bío",-38.04457,-71.36344,2710,barriga,belly,,,pɘ̆.ˈʈʰɐ̝,,,0
28131009809,"Alto Bío Bío",-38.04457,-71.36344,10620,esposa,wife,,,ˈkʊ.ɻë,,,0
28131009809,"Alto Bío Bío",-38.04457,-71.36344,10740,hombre,man,,,ˈwën.t̺͡s̺ʊ,,,0
28131009809,"Alto Bío Bío",-38.04457,-71.36344,21400,duenyo_casa,house_owner,,,ˌɲën.ˈɾʊ.kɐ̝,,,0
28131009809,"Alto Bío Bío",-38.04457,-71.36344,3120,perro,dog,,,t͡ɹ̝̥ë.ˈwɐ̝,,,0
28131009809,"Alto Bío Bío",-38.04457,-71.36344,20070,zorro,fox,,,ˈŋɘ.ɻɘ,,,0
28131009809,"Alto Bío Bío",-38.04457,-71.36344,20030,gato,cat,,,ˈɲɐ̝j.cʰɪ,,,0
28131009809,"Alto Bío Bío",-38.04457,-71.36344,10200,liebre,hare,,,mɐ̝.ˈɻɐ̝,,,0
28131009809,"Alto Bío Bío",-38.04457,-71.36344,3420,gusano,worm,,,ˈpɪ.ɻʊ,,,0
28131009809,"Alto Bío Bío",-38.04457,-71.36344,3430,piojo,louse,,,t̪ɘn,,,0
28131009809,"Alto Bío Bío",-38.04457,-71.36344,3810,huevo,egg,,,kʊ.ˈɻɐ̝m,,,0
28131009809,"Alto Bío Bío",-38.04457,-71.36344,10710,neblina,fog,,,ʈʊ.ˈkʊɻ,,,0
28131009809,"Alto Bío Bío",-38.04457,-71.36344,5410,fuego,fire,,,kʰt̩̚.ˈt̺͡s̺ɐ̝l,,,0
28131009809,"Alto Bío Bío",-38.04457,-71.36344,5510,piedra,stone,,,kʊ.ˈɻɐ̝,,,0
28131009809,"Alto Bío Bío",-38.04457,-71.36344,5430,ceniza,ash,,,ʈʊp̚.ˈkën,,,0
28131009809,"Alto Bío Bío",-38.04457,-71.36344,10120,barro,mud,,,m̩.ˈbö.t̺͡s̺ɐ̝,,,0
28131009809,"Alto Bío Bío",-38.04457,-71.36344,5850,viento,wind,,,kʰɘ.ˈɻɘf,,,0
28131009809,"Alto Bío Bío",-38.04457,-71.36344,5840,nube,cloud,,,t̺͡s̺ö.ˈmɘ,,,0
28131009809,"Alto Bío Bío",-38.04457,-71.36344,10810,cielo_truenos,thundery_sky,,,ˌʈʰɐ̝l.kɐ̝n.ˈwë.nö̥,,,0
28131009809,"Alto Bío Bío",-38.04457,-71.36344,21530,hace_calor,it_is_hot,,,ɐ̝.ɻë.ˈŋɪ,,,0
28131009809,"Alto Bío Bío",-38.04457,-71.36344,21520,hace_frio,it_is_cold,,,ˌʊ.ʈʰë.ˈŋɪ,,,0
28131009809,"Alto Bío Bío",-38.04457,-71.36344,6120,choclo,cob_of_corn,,,ˈʊ.wɐ̝,,,0
28131009809,"Alto Bío Bío",-38.04457,-71.36344,20550,harina_tostada,toasted_flour,,,ˈmɘɻ.kë,,,0
28131009809,"Alto Bío Bío",-38.04457,-71.36344,6510,casa,house,,,ˈɻʊ.kɐ̝,,,0
28131009809,"Alto Bío Bío",-38.04457,-71.36344,30500,pueblo,town,,,ˌwɐ̝.ˈɻɪ.ɐ̝,,,0
28131009809,"Alto Bío Bío",-38.04457,-71.36344,20890,arado,plough,,,ɐ̝.ˈɻɐ̝n,,,0
28131009809,"Alto Bío Bío",-38.04457,-71.36344,6810,camino,road,,,ˈɻɘ.pɘ,,,0
28131009809,"Alto Bío Bío",-38.04457,-71.36344,8030,caminar,walk,,,t̺͡s̺ë.ˈkɐ̝n,,,0
28131009809,"Alto Bío Bío",-38.04457,-71.36344,8110,estar_en_pie,be_standing,,,ʊ̥̆.ˌʈʰɐ̝.ˈlën,,,0
28131009809,"Alto Bío Bío",-38.04457,-71.36344,10550,machacar,smash,,,ʈʰɐ̝.ˈnɐ̝n,,,0
28131009809,"Alto Bío Bío",-38.04457,-71.36344,8830,empujar,push,,,ɐ̝l.ˈt̺͡s̺ön,,,0
28131009809,"Alto Bío Bío",-38.04457,-71.36344,20830,solamente,only,,,ˈcʰɪ.ðʊ,,,0
28131009809,"Alto Bío Bío",-38.04457,-71.36344,10450,solamente,alone,,,ɻë,,,0
28131009809,"Alto Bío Bío",-38.04457,-71.36344,21050,demasiado,too_much,,,m̩.ˈβën.ʈʰën,,,0
28131009809,"Alto Bío Bío",-38.04457,-71.36344,510,anyo,year,,,t͡ɹ̝̥ɪ.ˈpɐ̝n̪.t̪ö,,,0
28131009809,"Alto Bío Bío",-38.04457,-71.36344,20630,tambor,drum,,,xʊl.ˈʈʰʊn,,,0
28131009809,"Alto Bío Bío",-38.04457,-71.36344,10800,cinta,headband,,,ˌʈʰɐ̝.ɻɪ.ˈlöŋ.kö̥̆,,,0
28131009809,"Alto Bío Bío",-38.04457,-71.36344,10030,basta,enough,,,m̩.βëjn.ˈʈʰën,,,0
28131009809,"Alto Bío Bío",-38.04457,-71.36344,6320,flor,flower,,,n̩̆.ʐɐ̝.ˈjën,,,0
28131009809,"Alto Bío Bío",-38.04457,-71.36344,10430,cascada,waterfall,,,t̺͡s̺ɐ̝.ˈjën,,,0
28131009809,"Alto Bío Bío",-38.04457,-71.36344,10090,plano,spread_out,,,lɐ̝f,,,0
28131009809,"Alto Bío Bío",-38.04457,-71.36344,10500,visita,visitor,,,ʈɐ̝n,,,0
28131009809,"Alto Bío Bío",-38.04457,-71.36344,10510,telar,loom,,,ʊ.ˈt̺͡s̺ɐ̝l,,,0
28131009809,"Alto Bío Bío",-38.04457,-71.36344,10070,estrujar,wring,,,kʊ.ˈt͡ʃʊn,,,0
28131009809,"Alto Bío Bío",-38.04457,-71.36344,10080,atado,tied_up,,,kɘ̆.ˈʈʰɘŋ,,,0
28131009809,"Alto Bío Bío",-38.04457,-71.36344,10590,verde,green,,,ˈkʰɐ̝.ɻɘ,,,0
28131009809,"Alto Bío Bío",-38.04457,-71.36344,10600,cazuela,soup,,,ˈkö.ɻɘ,,,0
28141000309,Angol,-37.86289,-72.68304,70,siete,seven,,,ˈɻël.ɣë,,,0
28141000309,Angol,-37.86289,-72.68304,80,ocho,eight,,,ˈʊ.ɻɐ̝,,,0
28141000309,Angol,-37.86289,-72.68304,100,diez,ten,,,ˈmɐ̝.ɻɪ,,,0
28141000309,Angol,-37.86289,-72.68304,210,mil,thousand,,,ˌwɐ̝.ˈɻɐ̝ŋ.kʰɐ̝,,,0
28141000309,Angol,-37.86289,-72.68304,7010,negro,black,,,kö.ˈɻɘ,,,0
28141000309,Angol,-37.86289,-72.68304,7860,pesado,heavy,,,ʋɐ̝.ˈnë,,,0
28141000309,Angol,-37.86289,-72.68304,20690,gordo,fat,,,mö.ˈʈ͡ʂɪ,,,0
28141000309,Angol,-37.86289,-72.68304,2240,diente,tooth,,,ˈvö.ɻö,,,0
28141000309,Angol,-37.86289,-72.68304,2620,hueso,bone,,,vö.ˈɻö,,,0
28141000309,Angol,-37.86289,-72.68304,2630,piel,skin,,,ʈ͡ʂɐ̝.ˈwɐ̝,,,0
28141000309,Angol,-37.86289,-72.68304,2710,barriga,belly,,,pɘ.ˈʈ͡ʂɐ̝,,,0
28141000309,Angol,-37.86289,-72.68304,10620,esposa,wife,,,kʊ.ˈɻë,,,0
28141000309,Angol,-37.86289,-72.68304,10740,hombre,man,,,ˈwën.ʈ͡ʂʊ,,,0
28141000309,Angol,-37.86289,-72.68304,21400,duenyo_casa,house_owner,,,ˌŋën.ɽʊ.ˈkɐ̝,,,0
28141000309,Angol,-37.86289,-72.68304,3120,perro,dog,,,ˌʈ͡ʂë.ˈwɐ̝,,,0
28141000309,Angol,-37.86289,-72.68304,20070,zorro,fox,,,ŋɘ.ˈɻɘ,,,0
28141000309,Angol,-37.86289,-72.68304,20030,gato,cat,,,ˈɲɐ̝j.cʰɪ,,,0
28141000309,Angol,-37.86289,-72.68304,10200,liebre,hare,,,mɐ̝.ˈɻɐ̝,,,0
28141000309,Angol,-37.86289,-72.68304,3420,gusano,worm,,,ˈpɪ.ɻʊ,,,0
28141000309,Angol,-37.86289,-72.68304,3430,piojo,louse,,,pɘ.ˈʈ͡ʂɐ̝ɻ,,,0
28141000309,Angol,-37.86289,-72.68304,3810,huevo,egg,,,kʊ.ˈɻɐ̝m,,,0
28141000309,Angol,-37.86289,-72.68304,5410,fuego,fire,,,kɘ.ˈt̺͡s̺ɐ̝l,,,0
28141000309,Angol,-37.86289,-72.68304,5510,piedra,stone,,,ˈkʊ.ɻɐ̝,,,0
28141000309,Angol,-37.86289,-72.68304,5430,ceniza,ash,,,ʈ͡ʂʊv.ˈkʰën,,,0
28141000309,Angol,-37.86289,-72.68304,5850,viento,wind,,,kɘ.ˈɻɘv,,,0
28141000309,Angol,-37.86289,-72.68304,5840,nube,cloud,,,ˈʈ͡ʂö.mɘ,,,0
28141000309,Angol,-37.86289,-72.68304,10810,cielo_truenos,thundery_sky,,,ˌʈ͡ʂɐ̝l.ˈkɐ̝.nɪ,,,0
28141000309,Angol,-37.86289,-72.68304,21530,hace_calor,it_is_hot,,,ˌɐ̝.ɻë.ˈŋë,,,0
28141000309,Angol,-37.86289,-72.68304,21520,hace_frio,it_is_cold,,,ˌɐ̝.ʈ͡ʂë.ˈŋɪ,,,0
28141000309,Angol,-37.86289,-72.68304,6120,choclo,cob_of_corn,,,ʊ̆.ˈwɐ̝,,,0
28141000309,Angol,-37.86289,-72.68304,20550,harina_tostada,toasted_flour,,,mɘɻ.ˈcʰë,,,0
28141000309,Angol,-37.86289,-72.68304,6510,casa,house,,,ˈɻʊ.kʰɐ̝,,,0
28141000309,Angol,-37.86289,-72.68304,6810,camino,road,,,ˈɻɘ.pɘ,,,0
28141000309,Angol,-37.86289,-72.68304,8110,estar_en_pie,be_standing,,,ˌwɪ.ˈʈ͡ʂɐ̝.lën,,,0
28141000309,Angol,-37.86289,-72.68304,10550,machacar,smash,,,ʈ͡ʂɐ̝ɻ.ˌnɐ̝.ˈʋɪ,,,0
28141000309,Angol,-37.86289,-72.68304,8830,empujar,push,,,ɐ̝l.ˈt̺͡s̺ö.vɪ,,,0
28141000309,Angol,-37.86289,-72.68304,20830,solamente,only,,,kʰɪ.ˈðʊ,,,0
28141000309,Angol,-37.86289,-72.68304,510,anyo,year,,,ˌt͡ɹ̝̥ɪ.ˈpɐ̝n̪.t̪ʊ̥,,,0
28141000309,Angol,-37.86289,-72.68304,20630,tambor,drum,,,hʊl.ˈt͡ɹ̝̥ʊn,,,0
28141000309,Angol,-37.86289,-72.68304,10800,cinta,headband,,,ˌʈ͡ʂɐ̝.ɻɪ.ˈlöŋ.kö,,,0
28141000309,Angol,-37.86289,-72.68304,10340,quebrar,shatter,,,ʈ͡ʂɐ̝.ˌvö.ˈvɪ,,,0
28141000309,Angol,-37.86289,-72.68304,6320,flor,flower,,,ʐɐ̝.ˈjën,,,0
28141000309,Angol,-37.86289,-72.68304,10500,visita,visitor,,,wɪ.ˈʈ͡ʂɐ̝n,,,0
28141000309,Angol,-37.86289,-72.68304,10510,telar,loom,,,wɪ.ˈʈ͡ʂɐ̝l,,,0
28141000309,Angol,-37.86289,-72.68304,10590,verde,green,,,kʰɐ̝.ˈɻɘ,,,0
28141000309,Angol,-37.86289,-72.68304,10600,cazuela,soup,,,ˈkö.ɻɘ.ʋɪ,,,0
28141001209,Lumaco,-38.17584,-72.89947,70,siete,seven,,,ˈɘɻ.jë,,,0
28141001209,Lumaco,-38.17584,-72.89947,80,ocho,eight,,,ˈbʊ.ɻɐ̝,,,0
28141001209,Lumaco,-38.17584,-72.89947,100,diez,ten,,,ˈmɐ̝.ɻɪ,,,0
28141001209,Lumaco,-38.17584,-72.89947,210,mil,thousand,,,wɐ̝.ˈɻɐ̝ŋ.kʰɐ̝,,,0
28141001209,Lumaco,-38.17584,-72.89947,7010,negro,black,,,xwɘɻ,,,0
28141001209,Lumaco,-38.17584,-72.89947,7860,pesado,heavy,,,ˈvɐ̝.nëj,,,0
28141001209,Lumaco,-38.17584,-72.89947,7910,caliente,warm,,,ˈhɐ̝.ɻë,,,0
28141001209,Lumaco,-38.17584,-72.89947,20680,flaco,skinny,,,ˈʈ͡ʂöŋ.lɪ,,,0
28141001209,Lumaco,-38.17584,-72.89947,20690,gordo,fat,,,mö.ˈt͡ɹ̝̥ɪn,,,0
28141001209,Lumaco,-38.17584,-72.89947,2240,diente,tooth,,,m.ˈβö.ɻö,,,0
28141001209,Lumaco,-38.17584,-72.89947,2620,hueso,bone,,,m.ˈβö.ɻö,,,0
28141001209,Lumaco,-38.17584,-72.89947,2710,barriga,belly,,,ˈbɪ.tʰɐ̝,,,0
28141001209,Lumaco,-38.17584,-72.89947,10620,esposa,wife,,,ˈkʊ.ɻë,,,0
28141001209,Lumaco,-38.17584,-72.89947,10740,hombre,man,,,ˈwën.ʈ͡ʂʊ,,,0
28141001209,Lumaco,-38.17584,-72.89947,21400,duenyo_casa,house_owner,,,ˌɲën.ɻʊ.ˈkɐ̝,,,0
28141001209,Lumaco,-38.17584,-72.89947,3120,perro,dog,,,ˈʈʰë.wɐ̝,,,0
28141001209,Lumaco,-38.17584,-72.89947,20070,zorro,fox,,,ˈŋɘ.ɻɘ,,,0
28141001209,Lumaco,-38.17584,-72.89947,20030,gato,cat,,,ˈɲɐ̝j.çëë̥̯,,,0
28141001209,Lumaco,-38.17584,-72.89947,10200,liebre,hare,,,ˈmɐ̝.ɻɐ̝,,,0
28141001209,Lumaco,-38.17584,-72.89947,3420,gusano,worm,,,ˈpɪ.ɻʊ,,,0
28141001209,Lumaco,-38.17584,-72.89947,3430,piojo,louse,,,t̪ɘn,,,0
28141001209,Lumaco,-38.17584,-72.89947,3810,huevo,egg,,,ˈkʊ.ɻɐ̝m,,,0
28141001209,Lumaco,-38.17584,-72.89947,10710,neblina,fog,,,ʈ͡ʂö.ˈkʊɻ,,,0
28141001209,Lumaco,-38.17584,-72.89947,5410,fuego,fire,,,kɘ.ˈʈ͡ʂɐ̝l,,,0
28141001209,Lumaco,-38.17584,-72.89947,5510,piedra,stone,,,ˈkʊː.ɻɐ̝,,,0
28141001209,Lumaco,-38.17584,-72.89947,5430,ceniza,ash,,,ˈʈ͡ʂʊf.kën,,,0
28141001209,Lumaco,-38.17584,-72.89947,10120,barro,mud,,,ˈvö.ʈ͡ʂɐ̝,,,0
28141001209,Lumaco,-38.17584,-72.89947,5850,viento,wind,,,ɡɘ.ˈɻɘf,,,0
28141001209,Lumaco,-38.17584,-72.89947,5840,nube,cloud,,,ˈʈ͡ʂö.mʊ,,,0
28141001209,Lumaco,-38.17584,-72.89947,10810,cielo_truenos,thundery_sky,,,ˌt͡ɹ̝̥ɐ̝l.kɐ̝.wë.ˈnʊʊ̥̯,,,0
28141001209,Lumaco,-38.17584,-72.89947,21530,hace_calor,it_is_hot,,,ɐ̝.ɻë.ˈɲë,,,0
28141001209,Lumaco,-38.17584,-72.89947,21520,hace_frio,it_is_cold,,,ˌɐ̝.ˈʈ͡ʂë.ŋëj,,,0
28141001209,Lumaco,-38.17584,-72.89947,6120,choclo,cob_of_corn,,,kɐ̝.ˈɻɪ.wɐ̝,,,0
28141001209,Lumaco,-38.17584,-72.89947,20550,harina_tostada,toasted_flour,,,ˈmɘɻ.cʰë,,,0
28141001209,Lumaco,-38.17584,-72.89947,6510,casa,house,,,ˈɾʊ.kɐ̝,,,0
28141001209,Lumaco,-38.17584,-72.89947,30500,pueblo,town,,,wɐ̝.ˈɻɪ.ɐ̝,,,0
28141001209,Lumaco,-38.17584,-72.89947,20890,arado,plough,,,ɐ̝.ˈɻɐ̝w,,,0
28141001209,Lumaco,-38.17584,-72.89947,6810,camino,road,,,ˈʐë.pʊ,,,0
28141001209,Lumaco,-38.17584,-72.89947,8030,caminar,walk,,,ˈt͡ɹ̝̥ë.kɐ̝n,,,0
28141001209,Lumaco,-38.17584,-72.89947,8110,estar_en_pie,be_standing,,,ˌwɪ.ʈ͡ʂɐ̝.pɘ.ˈɻɐ̝m,,,0
28141001209,Lumaco,-38.17584,-72.89947,10550,machacar,smash,,,ʈ͡ʂɐ̝.ˈnɐ̝n,,,0
28141001209,Lumaco,-38.17584,-72.89947,20830,solamente,only,,,cʰɪ.θʊ,,,0
28141001209,Lumaco,-38.17584,-72.89947,21050,demasiado,too_much,,,vën.ˈt̺͡s̺ën,,,0
28141001209,Lumaco,-38.17584,-72.89947,510,anyo,year,,,t͡ɹ̝̥ɪ̥.ˈpɐ̝n̪.tö̥,,,0
28141001209,Lumaco,-38.17584,-72.89947,20630,tambor,drum,,,ˈkʊl.ʈ͡ʂʊ,,,0
28141001209,Lumaco,-38.17584,-72.89947,10800,cinta,headband,,,ˌʈ͡ʂɐ̝.ɻɪ.ˈlöŋ.kö̥,,,0
28141001209,Lumaco,-38.17584,-72.89947,10340,quebrar,shatter,,,ʈ͡ʂɐ̝.ˈfön,,,0
28141001209,Lumaco,-38.17584,-72.89947,6320,flor,flower,,,ɻɐ̝.ˈʝën,,,0
28141001209,Lumaco,-38.17584,-72.89947,10430,cascada,waterfall,,,ʈ͡ʂɐ̝.ˈjën,,,0
28141001209,Lumaco,-38.17584,-72.89947,10500,visita,visitor,,,wɪ.ˈʈ͡ʂɐ̝n,,,0
28141001209,Lumaco,-38.17584,-72.89947,10510,telar,loom,,,wɪ.ˈʈ͡ʂɐ̝l,,,0
28141001209,Lumaco,-38.17584,-72.89947,10590,verde,green,,,ˈkʰɐ̝.ɻɘ,,,0
28141001209,Lumaco,-38.17584,-72.89947,10600,cazuela,soup,,,ˈkö.ɻɘ,,,0
28141001409,Ercilla,-38.04926,-72.44544,70,siete,seven,,,ˈʐë.ɡlë,,,0
28141001409,Ercilla,-38.04926,-72.44544,80,ocho,eight,,,pʊ.ˈʐɐ̝,,,0
28141001409,Ercilla,-38.04926,-72.44544,100,diez,ten,,,ˈmɐ̝.ɻɪ,,,0
28141001409,Ercilla,-38.04926,-72.44544,210,mil,thousand,,,wɐ̝.ˈɻɐ̝ŋ.kʰɐ̝,,,0
28141001409,Ercilla,-38.04926,-72.44544,7010,negro,black,,,kʊ.ˈɻɘ,,,0
28141001409,Ercilla,-38.04926,-72.44544,7860,pesado,heavy,,,fɐ̝n.ˈnë,,,0
28141001409,Ercilla,-38.04926,-72.44544,7910,caliente,warm,,,ˌɐ̝.ˈɻë.lɪ̥,,,0
28141001409,Ercilla,-38.04926,-72.44544,20680,flaco,skinny,,,t͡ɹ̝̥öŋ.ɬɪ̥,,,0
28141001409,Ercilla,-38.04926,-72.44544,20690,gordo,fat,,,ˈmö.t̺͡s̺ɪ,,,0
28141001409,Ercilla,-38.04926,-72.44544,2240,diente,tooth,,,fö.ˈɻö,,,0
28141001409,Ercilla,-38.04926,-72.44544,10560,mandibula,jaw,,,ˈt̺͡s̺ɐ̝.ŋɐ̝.ˌt̺͡s̺ɐ̝.ŋɐ̝̥,,,0
28141001409,Ercilla,-38.04926,-72.44544,2620,hueso,bone,,,fö.ˈʐö,,,0
28141001409,Ercilla,-38.04926,-72.44544,2630,piel,skin,,,ˈt͡ɹ̝̥ɐ̝.wɐ̝̥,,,0
28141001409,Ercilla,-38.04926,-72.44544,2710,barriga,belly,,,ˈpɘ.t͡ɹ̝̥ɐ̝̥,,,0
28141001409,Ercilla,-38.04926,-72.44544,10620,esposa,wife,,,kʊ.ˈɻë,,,0
28141001409,Ercilla,-38.04926,-72.44544,10740,hombre,man,,,wën.ˈʈ͡ʂʊ,,,0
28141001409,Ercilla,-38.04926,-72.44544,21400,duenyo_casa,house_owner,,,ˌɲën.ʊ̆.ˌkɐ̝̥,,,0
28141001409,Ercilla,-38.04926,-72.44544,3120,perro,dog,,,ˈʈ͡ʂë.wɐ̝,,,0
28141001409,Ercilla,-38.04926,-72.44544,20070,zorro,fox,,,ŋɘɻʂ,,,0
28141001409,Ercilla,-38.04926,-72.44544,20030,gato,cat,,,ˈɲɐ̝j.cʰɪ,,,0
28141001409,Ercilla,-38.04926,-72.44544,10200,liebre,hare,,,ˈmɐ̝.ɻɐ̝,,,0
28141001409,Ercilla,-38.04926,-72.44544,3420,gusano,worm,,,ˈpɪ.ʐʊ,,,0
28141001409,Ercilla,-38.04926,-72.44544,3430,piojo,louse,,,t̪ɘn,,,0
28141001409,Ercilla,-38.04926,-72.44544,3430,piojo,louse,,,pt̩̚.ˈt͡ɹ̝̥ɐ̝ɻ,,,0
28141001409,Ercilla,-38.04926,-72.44544,3810,huevo,egg,,,kʊ.ˈɻɐ̝m,,,0
28141001409,Ercilla,-38.04926,-72.44544,10710,neblina,fog,,,t͡ɹ̝̥ö.ˈkɻ̩,,,0
28141001409,Ercilla,-38.04926,-72.44544,5410,fuego,fire,,,kɘ̥̯.ˈt͡ɹ̝̥ɐ̝ɬ,,,0
28141001409,Ercilla,-38.04926,-72.44544,5510,piedra,stone,,,kʊ.ˈɻɐ̝,,,0
28141001409,Ercilla,-38.04926,-72.44544,5430,ceniza,ash,,,t͡ɹ̝̥ʊf.ˈkʰën,,,0
28141001409,Ercilla,-38.04926,-72.44544,10120,barro,mud,,,ˈpʰö.t͡ɹ̝̥ɐ̝,,,0
28141001409,Ercilla,-38.04926,-72.44544,5850,viento,wind,,,kɘ.ˈɻɘf,,,0
28141001409,Ercilla,-38.04926,-72.44544,10810,cielo_truenos,thundery_sky,,,ʈ͡ʂɐ̝l.ˈkɐ̝n,,,0
28141001409,Ercilla,-38.04926,-72.44544,21520,hace_frio,it_is_cold,,,ˌɐ̝.ʈ͡ʂë.ˈŋɪ,,,0
28141001409,Ercilla,-38.04926,-72.44544,6120,choclo,cob_of_corn,,,wɐ̝,,,0
28141001409,Ercilla,-38.04926,-72.44544,20550,harina_tostada,toasted_flour,,,ˈmɘɻ.cʰë,,,0
28141001409,Ercilla,-38.04926,-72.44544,6510,casa,house,,,ˈʊ.kɐ̝̥,,,0
28141001409,Ercilla,-38.04926,-72.44544,30500,pueblo,town,,,wɐ̝.ˈɻɪ.ɐ̝,,,0
28141001409,Ercilla,-38.04926,-72.44544,6810,camino,road,,,ɻ̩.ˈpɘ,,,0
28141001409,Ercilla,-38.04926,-72.44544,8030,caminar,walk,,,ˌt̺͡s̺ë.ˈkɐ̝.lë.pë,,,0
28141001409,Ercilla,-38.04926,-72.44544,8110,estar_en_pie,be_standing,,,wɪ.ˌt͡ɹ̝̥ɐ̝.lë.ˈpë,,,0
28141001409,Ercilla,-38.04926,-72.44544,8830,empujar,push,,,ɘl.ˈt͡ɹ̝̥ëj,,,0
28141001409,Ercilla,-38.04926,-72.44544,20830,solamente,only,,,ˈcʰɪ.ðʊ,,,0
28141001409,Ercilla,-38.04926,-72.44544,21050,demasiado,too_much,,,pën.ˈt͡ɹ̝̥ën,,,0
28141001409,Ercilla,-38.04926,-72.44544,510,anyo,year,,,t͡ʃp̩̚.ˈpɐ̝n.tʊ̥,,,0
28141001409,Ercilla,-38.04926,-72.44544,20630,tambor,drum,,,kʊl.ˈt͡ɹ̝̥ʊ̥,,,0
28141001409,Ercilla,-38.04926,-72.44544,10800,cinta,headband,,,ˌt͡ɹ̝̥ɐ̝.ɻɪ.ˈlöŋ.kö̥,,,0
28141001409,Ercilla,-38.04926,-72.44544,10340,quebrar,shatter,,,ʈ͡ʂɐ̝.ˈföj,,,0
28141001409,Ercilla,-38.04926,-72.44544,6320,flor,flower,,,ɻɐ̝.ˈjën,,,0
28141001409,Ercilla,-38.04926,-72.44544,10310,greda_blanca,clay,,,ˈmɐ̝.ʎʊ,,,0
28141001409,Ercilla,-38.04926,-72.44544,10500,visita,visitor,,,wɪç.ˈt͡ɹ̝̥ɐ̝n,,,0
28141001409,Ercilla,-38.04926,-72.44544,10510,telar,loom,,,wɪ.ˈt͡ɹ̝̥ɐ̝ɬ,,,0
28141001409,Ercilla,-38.04926,-72.44544,10080,atado,tied_up,,,kɘ̆.ˈʈɘŋ,,,0
28141001409,Ercilla,-38.04926,-72.44544,10590,verde,green,,,kɐ̝ʐʂ,,,0
28141001409,Ercilla,-38.04926,-72.44544,10600,cazuela,soup,,,köʐʂ,,,0
28141002309,Galvarino,-38.40865,-72.78342,70,siete,seven,,,ˈɻë.ɣ̞lë,,,0
28141002309,Galvarino,-38.40865,-72.78342,80,ocho,eight,,,ˈpʰʊ.ɻɐ̝,,,0
28141002309,Galvarino,-38.40865,-72.78342,100,diez,ten,,,ˈmɐ̝.ɻɪ,,,0
28141002309,Galvarino,-38.40865,-72.78342,210,mil,thousand,,,wɐ̝.ˈɻɐ̝ŋ.kɐ̝,,,0
28141002309,Galvarino,-38.40865,-72.78342,7010,negro,black,,,ˈkʊ.ɻɘ,,,0
28141002309,Galvarino,-38.40865,-72.78342,7860,pesado,heavy,,,fɐ̝.ˈnën,,,0
28141002309,Galvarino,-38.40865,-72.78342,7910,caliente,warm,,,ɐ̝.ˈɻë,,,0
28141002309,Galvarino,-38.40865,-72.78342,7910,caliente,warm,,,ˈkö.fɪ,,,0
28141002309,Galvarino,-38.40865,-72.78342,20680,flaco,skinny,,,t͡ɹ̝̥öŋ.ˈlɪ,,,0
28141002309,Galvarino,-38.40865,-72.78342,20690,gordo,fat,,,mö.ˈt̺͡s̺ɪn,,,0
28141002309,Galvarino,-38.40865,-72.78342,2240,diente,tooth,,,ˈfö.ɻö,,,0
28141002309,Galvarino,-38.40865,-72.78342,10560,mandibula,jaw,,,ˌt͡ɹ̝̥ɐ̝.ŋɐ̝.ˈt͡ɹ̝̥ɐ̝.ŋɐ̝,,,0
28141002309,Galvarino,-38.40865,-72.78342,2620,hueso,bone,,,ˈp͡ɸö.ɻö,,,0
28141002309,Galvarino,-38.40865,-72.78342,2630,piel,skin,,,ˈt͡ɹ̝̥ɐ̝.wɐ̝̰,,,0
28141002309,Galvarino,-38.40865,-72.78342,2710,barriga,belly,,,ˈpɘ.ʈ͡ʂɐ̝,,,0
28141002309,Galvarino,-38.40865,-72.78342,10620,esposa,wife,,,ˈkʊ.ɻë,,,0
28141002309,Galvarino,-38.40865,-72.78342,10740,hombre,man,,,ˈwën.t̺͡s̺ʊ,,,0
28141002309,Galvarino,-38.40865,-72.78342,21400,duenyo_casa,house_owner,,,ˌɲën.ˈɻʊ.kɐ̝,,,0
28141002309,Galvarino,-38.40865,-72.78342,3120,perro,dog,,,ˈt͡ɹ̝̥ë.wɐ̝,,,0
28141002309,Galvarino,-38.40865,-72.78342,20070,zorro,fox,,,ˈŋɘ.ɻɘ,,,0
28141002309,Galvarino,-38.40865,-72.78342,20030,gato,cat,,,ˈɲɐ̝j.cʰɪ,,,0
28141002309,Galvarino,-38.40865,-72.78342,10200,liebre,hare,,,ˈmɐ̝.ɻɐ̝,,,0
28141002309,Galvarino,-38.40865,-72.78342,3420,gusano,worm,,,ˈpɪ.ɻʊ,,,0
28141002309,Galvarino,-38.40865,-72.78342,3430,piojo,louse,,,t̪ʊn,,,0
28141002309,Galvarino,-38.40865,-72.78342,3810,huevo,egg,,,kʊ.ˈɻɐ̝m,,,0
28141002309,Galvarino,-38.40865,-72.78342,10710,neblina,fog,,,ʈ͡ʂʊ.ˈkɘ̆ɻ,,,0
28141002309,Galvarino,-38.40865,-72.78342,5410,fuego,fire,,,kʰɘ.ˈʈ͡ʂɐ̝l,,,0
28141002309,Galvarino,-38.40865,-72.78342,5510,piedra,stone,,,ˈkʊ.ɻɐ̝,,,0
28141002309,Galvarino,-38.40865,-72.78342,5430,ceniza,ash,,,ʈ͡ʂʊf.ˈcʰën,,,0
28141002309,Galvarino,-38.40865,-72.78342,10120,barro,mud,,,ˈfö.ʈ͡ʂɐ̝,,,0
28141002309,Galvarino,-38.40865,-72.78342,5850,viento,wind,,,kɘ.ˈɻɘf,,,0
28141002309,Galvarino,-38.40865,-72.78342,5840,nube,cloud,,,ˈt͡ɹ̝̥ö.mɘ,,,0
28141002309,Galvarino,-38.40865,-72.78342,10810,cielo_truenos,thundery_sky,,,t͡ɹ̝̥ɐ̝l.ˈkɐ̝n,,,0
28141002309,Galvarino,-38.40865,-72.78342,21530,hace_calor,it_is_hot,,,ɐ̝.ˌɻë.ˈŋëj,,,0
28141002309,Galvarino,-38.40865,-72.78342,21520,hace_frio,it_is_cold,,,wɘ.ˌt͡ɹ̝̥ë.ˈŋëj,,,0
28141002309,Galvarino,-38.40865,-72.78342,6120,choclo,cob_of_corn,,,wɐ̝,,,0
28141002309,Galvarino,-38.40865,-72.78342,20550,harina_tostada,toasted_flour,,,ˈɱɘɻ.cë,,,0
28141002309,Galvarino,-38.40865,-72.78342,6510,casa,house,,,ˈɻʊ.kɐ̝,,,0
28141002309,Galvarino,-38.40865,-72.78342,30500,pueblo,town,,,wɐ̝.ˈɻɪ.ɐ̝,,,0
28141002309,Galvarino,-38.40865,-72.78342,20890,arado,plough,,,ɐ̝.ˈɻɐ̝w,,,0
28141002309,Galvarino,-38.40865,-72.78342,6810,camino,road,,,ˈɻɘ.pɘ,,,0
28141002309,Galvarino,-38.40865,-72.78342,8030,caminar,walk,,,t͡ɹ̝̥ë.ˈkɐ̝n,,,0
28141002309,Galvarino,-38.40865,-72.78342,8110,estar_en_pie,be_standing,,,wɪ.ˌt̺͡s̺ɐ̝.pɘ.ˈɻɐ̝n,,,0
28141002309,Galvarino,-38.40865,-72.78342,8110,estar_en_pie,be_standing,,,wɪʃ.ˌt͡ɹ̝̥ɐ̝.ˈlën,,,0
28141002309,Galvarino,-38.40865,-72.78342,10550,machacar,smash,,,t͡ɹ̝̥ɐ̝.ˈnɐ̝n,,,0
28141002309,Galvarino,-38.40865,-72.78342,8830,empujar,push,,,ɘlɬ.ˈʈ͡ʂën,,,0
28141002309,Galvarino,-38.40865,-72.78342,20830,solamente,only,,,ˈcʰɪ.sʊ,,,0
28141002309,Galvarino,-38.40865,-72.78342,10450,solamente,alone,,,ʐḛ̈,,,0
28141002309,Galvarino,-38.40865,-72.78342,21050,demasiado,too_much,,,fën.ˈt͡ɹ̝̥ën,,,0
28141002309,Galvarino,-38.40865,-72.78342,510,anyo,year,,,t͡ɹ̝̥ɪ.ˈpɐ̝n̪.t̪ʊ,,,0
28141002309,Galvarino,-38.40865,-72.78342,20630,tambor,drum,,,kʊɻ.ˈʈ͡ʂʊm,,,0
28141002309,Galvarino,-38.40865,-72.78342,10800,cinta,headband,,,ˌt̺͡s̺ɐ̝.ʐɪ.ˈlöŋ.kö,,,0
28141002309,Galvarino,-38.40865,-72.78342,10340,quebrar,shatter,,,t͡ɹ̝̥ɐ̝.ˈfön,,,0
28141002309,Galvarino,-38.40865,-72.78342,6320,flor,flower,,,ɻɐ̝.ˈjën,,,0
28141002309,Galvarino,-38.40865,-72.78342,10430,cascada,waterfall,,,t͡ɹ̝̥ɐ̝.ˈjën,,,0
28141002309,Galvarino,-38.40865,-72.78342,10090,plano,spread_out,,,lɐ̝ɻ,,,0
28141002309,Galvarino,-38.40865,-72.78342,10500,visita,visitor,,,wɪ.ˈt͡ɹ̝̥ɐ̝n,,,0
28141002309,Galvarino,-38.40865,-72.78342,10510,telar,loom,,,wɪ.ˈt͡ɹ̝̥ɐ̝l,,,0
28141002309,Galvarino,-38.40865,-72.78342,10070,estrujar,wring,,,kɘ.ˈʈ͡ʂɘn,,,0
28141002309,Galvarino,-38.40865,-72.78342,10080,atado,tied_up,,,kɘ̆.ˈʈʰɘŋ,,,0
28141002309,Galvarino,-38.40865,-72.78342,10590,verde,green,,,ˈkɐ̝ɻ.ʂɘ,,,0
28141002309,Galvarino,-38.40865,-72.78342,10600,cazuela,soup,,,ˈkö.ɻɘ,,,0
28141002509,Victoria,-38.35303,-72.19395,70,siete,seven,,,ˈɻë.ɡlë,,,0
28141002509,Victoria,-38.35303,-72.19395,80,ocho,eight,,,ˈpʰʊ.ɻɐ̝,,,0
28141002509,Victoria,-38.35303,-72.19395,100,diez,ten,,,mɐ̝.ˈɻɪ,,,0
28141002509,Victoria,-38.35303,-72.19395,210,mil,thousand,,,wɐ̝.ˈɻɐ̝ŋ.kʰɐ̝,,,0
28141002509,Victoria,-38.35303,-72.19395,7010,negro,black,,,kʊ.ˈɻɘ,,,0
28141002509,Victoria,-38.35303,-72.19395,7860,pesado,heavy,,,vɐ̝.ˈnëj,,,0
28141002509,Victoria,-38.35303,-72.19395,7910,caliente,warm,,,ɐ̝.ˈɻë.lɪ,,,0
28141002509,Victoria,-38.35303,-72.19395,20680,flaco,skinny,,,ʈ͡ʂöŋ.ˈlɪ,,,0
28141002509,Victoria,-38.35303,-72.19395,20690,gordo,fat,,,mö.ˈt̺͡s̺ɪ,,,0
28141002509,Victoria,-38.35303,-72.19395,2240,diente,tooth,,,fö.ˈɻö,,,0
28141002509,Victoria,-38.35303,-72.19395,2620,hueso,bone,,,fö.ˈɻö,,,0
28141002509,Victoria,-38.35303,-72.19395,2710,barriga,belly,,,ˈpɘ.t̺͡s̺ɐ̝,,,0
28141002509,Victoria,-38.35303,-72.19395,10620,esposa,wife,,,kʊ.ˈɻë,,,0
28141002509,Victoria,-38.35303,-72.19395,10740,hombre,man,,,wën.ˈʈ͡ʂʊ,,,0
28141002509,Victoria,-38.35303,-72.19395,21400,duenyo_casa,house_owner,,,ˌɲën.ɻʊ.ˈkɐ̝,,,0
28141002509,Victoria,-38.35303,-72.19395,3120,perro,dog,,,t̺͡s̺ë.ˈwɐ̝,,,0
28141002509,Victoria,-38.35303,-72.19395,20070,zorro,fox,,,ŋɘ.ˈɻɘ,,,0
28141002509,Victoria,-38.35303,-72.19395,20030,gato,cat,,,ɲɐ̝j.cʰɪ,,,0
28141002509,Victoria,-38.35303,-72.19395,10200,liebre,hare,,,mɐ̝.ˈɻɐ̝,,,0
28141002509,Victoria,-38.35303,-72.19395,3420,gusano,worm,,,ˈpɪ.ɻʊ,,,0
28141002509,Victoria,-38.35303,-72.19395,3430,piojo,louse,,,t̪ɘn,,,0
28141002509,Victoria,-38.35303,-72.19395,3810,huevo,egg,,,kʊ.ˈɻɐ̝m,,,0
28141002509,Victoria,-38.35303,-72.19395,5410,fuego,fire,,,kɘ̆.ˈʈɐ̝l,,,0
28141002509,Victoria,-38.35303,-72.19395,5510,piedra,stone,,,kʊ.ˈɻɐ̝,,,0
28141002509,Victoria,-38.35303,-72.19395,5430,ceniza,ash,,,ʈʊf.ˈcʰën,,,0
28141002509,Victoria,-38.35303,-72.19395,10120,barro,mud,,,ˈwö.t͡ɹ̝̥ɐ̝,,,0
28141002509,Victoria,-38.35303,-72.19395,5850,viento,wind,,,kʰɘ.ˈɻɘ.vɘ̆,,,0
28141002509,Victoria,-38.35303,-72.19395,5840,nube,cloud,,,ʈ͡ʂö.ˈmɘ,,,0
28141002509,Victoria,-38.35303,-72.19395,21520,hace_frio,it_is_cold,,,ɐ̝.ˌʈ͡ʂë.ˈŋɪ,,,0
28141002509,Victoria,-38.35303,-72.19395,6120,choclo,cob_of_corn,,,wɐ̝,,,0
28141002509,Victoria,-38.35303,-72.19395,20550,harina_tostada,toasted_flour,,,mɘɻ.ˈkʰë,,,0
28141002509,Victoria,-38.35303,-72.19395,6510,casa,house,,,ʂʊ.ˈkɐ̝,,,0
28141002509,Victoria,-38.35303,-72.19395,30500,pueblo,town,,,wɐ̝.ˈɻɪ.ɐ̝,,,0
28141002509,Victoria,-38.35303,-72.19395,6810,camino,road,,,ɻɘ.ˈpɘ,,,0
28141002509,Victoria,-38.35303,-72.19395,8110,estar_en_pie,be_standing,,,wɪ.ˌʈ͡ʂɐ̝.ˈlën,,,0
28141002509,Victoria,-38.35303,-72.19395,20830,solamente,only,,,cʰɪ̆.ˈsʊ,,,0
28141002509,Victoria,-38.35303,-72.19395,510,anyo,year,,,ʈ͡ʂɪ̆.ˈpɐ̝n̪.t̪ɘ,,,0
28141002509,Victoria,-38.35303,-72.19395,20630,tambor,drum,,,kʊl.ˈʈ͡ʂʊn,,,0
28141002509,Victoria,-38.35303,-72.19395,10800,cinta,headband,,,t̺͡s̺ɐ̝.ɻɪ.ˈlöŋ.kö,,,0
28141002509,Victoria,-38.35303,-72.19395,6320,flor,flower,,,ɻɐ̝.ˈjën,,,0
28141002509,Victoria,-38.35303,-72.19395,10430,cascada,waterfall,,,t̺͡s̺ɐ̝.ˈjën,,,0
28141002509,Victoria,-38.35303,-72.19395,10500,visita,visitor,,,wɪ.ˈt̺͡s̺ɐ̝n,,,0
28141002509,Victoria,-38.35303,-72.19395,10510,telar,loom,,,wɪ.ˈt̺͡s̺ɐ̝l,,,0
28141002509,Victoria,-38.35303,-72.19395,10070,estrujar,wring,,,kɘ.ˈt͡ɹ̝̥ɘj,,,0
28141002509,Victoria,-38.35303,-72.19395,10080,atado,tied_up,,,kɘ̆.ˈt̺͡s̺ɘŋ,,,0
28141002509,Victoria,-38.35303,-72.19395,10590,verde,green,,,kɐ̝.ˈɻɘ,,,0
28141002509,Victoria,-38.35303,-72.19395,10600,cazuela,soup,,,kö.ˈɻɘ,,,0
28141002809,Lonquimay,-38.42587,-71.37014,70,siete,seven,,,ˈɻë.ɡlë,,,0
28141002809,Lonquimay,-38.42587,-71.37014,80,ocho,eight,,,ˈpu.ɻa,,,0
28141002809,Lonquimay,-38.42587,-71.37014,100,diez,ten,,,ˈmɐ̝.ɻɪ,,,0
28141002809,Lonquimay,-38.42587,-71.37014,210,mil,thousand,,,wɐ̝.ˈɻɐ̝ŋ.kɐ̝,,,0
28141002809,Lonquimay,-38.42587,-71.37014,7010,negro,black,,,ˈkʰʊ.ɻɘ,,,0
28141002809,Lonquimay,-38.42587,-71.37014,7860,pesado,heavy,,,fɐ̝.ˈnëj,,,0
28141002809,Lonquimay,-38.42587,-71.37014,7910,caliente,warm,,,ɐ̝.ˈɻḛ̈jç,,,0
28141002809,Lonquimay,-38.42587,-71.37014,20680,flaco,skinny,,,ˈʈ͡ʂöŋ.ɬɪ̥,,,0
28141002809,Lonquimay,-38.42587,-71.37014,20690,gordo,fat,,,mö.ˈt̺͡s̺ɪn,,,0
28141002809,Lonquimay,-38.42587,-71.37014,2240,diente,tooth,,,ɸöɻ.ˈʂö,,,0
28141002809,Lonquimay,-38.42587,-71.37014,2620,hueso,bone,,,ɸö.ˈɻö,,,0
28141002809,Lonquimay,-38.42587,-71.37014,2630,piel,skin,,,t̺͡s̺ɐ̝.ˈwɐ̝̰ɐ̝̥̯,,,0
28141002809,Lonquimay,-38.42587,-71.37014,2710,barriga,belly,,,ˈbɘ.ʈ͡ʂɐ̝,,,0
28141002809,Lonquimay,-38.42587,-71.37014,10620,esposa,wife,,,kʊ.ɻëë̥̯,,,0
28141002809,Lonquimay,-38.42587,-71.37014,10740,hombre,man,,,ˈwën.ʈ͡ʂʊ̥,,,0
28141002809,Lonquimay,-38.42587,-71.37014,21400,duenyo_casa,house_owner,,,"ˈɲën ɽʊ.ˌkɐ̝ɐ̝̥̯",,,0
28141002809,Lonquimay,-38.42587,-71.37014,3120,perro,dog,,,ˈʈ͡ʂë.wɐ̝̰ɐ̝̥̯,,,0
28141002809,Lonquimay,-38.42587,-71.37014,20070,zorro,fox,,,ˈŋɘ.ʂɘ,,,0
28141002809,Lonquimay,-38.42587,-71.37014,20030,gato,cat,,,ˈɲɐ̝j.cɪ,,,0
28141002809,Lonquimay,-38.42587,-71.37014,10200,liebre,hare,,,ˈmɐ̝.ʂɐ̝̰ɐ̝̥̯,,,0
28141002809,Lonquimay,-38.42587,-71.37014,3420,gusano,worm,,,ˈbɪ.ʂʊ̥,,,0
28141002809,Lonquimay,-38.42587,-71.37014,3430,piojo,louse,,,t̪ɘn,,,0
28141002809,Lonquimay,-38.42587,-71.37014,3810,huevo,egg,,,kʊ.ˈɻɐ̝m,,,0
28141002809,Lonquimay,-38.42587,-71.37014,10710,neblina,fog,,,ʈ͡ʂʊ̆.ˈkʊʂ,,,0
28141002809,Lonquimay,-38.42587,-71.37014,5410,fuego,fire,,,kɘ̆ʈ̚.ˈʈ͡ʂɐ̝l,,,0
28141002809,Lonquimay,-38.42587,-71.37014,5510,piedra,stone,,,ˈkʊ.ɻɐ̝,,,0
28141002809,Lonquimay,-38.42587,-71.37014,5430,ceniza,ash,,,ʈʊf.ˈcën,,,0
28141002809,Lonquimay,-38.42587,-71.37014,10120,barro,mud,,,ˈfö.ʈ͡ʂɐ̝̥,,,0
28141002809,Lonquimay,-38.42587,-71.37014,5850,viento,wind,,,kɘ.ˈʐɘfː,,,0
28141002809,Lonquimay,-38.42587,-71.37014,5840,nube,cloud,,,ˈʈ͡ʂö.mɘɘ̥̯,,,0
28141002809,Lonquimay,-38.42587,-71.37014,21520,hace_frio,it_is_cold,,,ʊ̆.ˌt̺͡s̺ë.ˈŋɪ,,,0
28141002809,Lonquimay,-38.42587,-71.37014,6120,choclo,cob_of_corn,,,wːɐ̝ɐ̝̥̯,,,0
28141002809,Lonquimay,-38.42587,-71.37014,20550,harina_tostada,toasted_flour,,,ˈmɘɻʂ.kʰë̥,,,0
28141002809,Lonquimay,-38.42587,-71.37014,6510,casa,house,,,ˈɻʊ.kʰɐ̝ɐ̝̥̯,,,0
28141002809,Lonquimay,-38.42587,-71.37014,30500,pueblo,town,,,ˈwɐ̝.ɻɪ.ɐ̝ɐ̝̥̯,,,0
28141002809,Lonquimay,-38.42587,-71.37014,20890,arado,plough,,,ɐ̝.ˈɻɐ̝w,,,0
28141002809,Lonquimay,-38.42587,-71.37014,6810,camino,road,,,ˈɻɘ.pɘ,,,0
28141002809,Lonquimay,-38.42587,-71.37014,8030,caminar,walk,,,ʈ͡ʂë.ˈkʰɐ̝n,,,0
28141002809,Lonquimay,-38.42587,-71.37014,8110,estar_en_pie,be_standing,,,ˌwɪ.t̺͡s̺ɐ̝.ˈlën,,,0
28141002809,Lonquimay,-38.42587,-71.37014,10550,machacar,smash,,,ʈ͡ʂɐ̝.ˈnɐ̝n,,,0
28141002809,Lonquimay,-38.42587,-71.37014,8830,empujar,push,,,ɐ̝ɭ̥.ˈʈ͡ʂön,,,0
28141002809,Lonquimay,-38.42587,-71.37014,20830,solamente,only,,,ˈcʰɪ.sʊ,,,0
28141002809,Lonquimay,-38.42587,-71.37014,10450,solamente,alone,,,fëj,,,0
28141002809,Lonquimay,-38.42587,-71.37014,21050,demasiado,too_much,,,fën.ˈt̺͡s̺ë,,,0
28141002809,Lonquimay,-38.42587,-71.37014,510,anyo,year,,,ʈɪ.ˈpɐ̝n̪ː.t̪ʊ̥,,,0
28141002809,Lonquimay,-38.42587,-71.37014,20630,tambor,drum,,,kʊlɬ.ˈʈ͡ʂʊŋ,,,0
28141002809,Lonquimay,-38.42587,-71.37014,10800,cinta,headband,,,ˌʈ͡ʂɐ̝.ʐɪ.ˈlöŋ.kö̥,,,0
28141002809,Lonquimay,-38.42587,-71.37014,10030,basta,enough,,,ɸën.ˈt̺͡s̺ën,,,0
28141002809,Lonquimay,-38.42587,-71.37014,6320,flor,flower,,,ɻɐ̝.ˈʝën,,,0
28141002809,Lonquimay,-38.42587,-71.37014,10430,cascada,waterfall,,,ʈ͡ʂɐ̝.ˈjën,,,0
28141002809,Lonquimay,-38.42587,-71.37014,10090,plano,spread_out,,,nöɻʂ,,,0
28141002809,Lonquimay,-38.42587,-71.37014,10500,visita,visitor,,,wɪ̆.ˈt̺͡s̺ɐ̝n,,,0
28141002809,Lonquimay,-38.42587,-71.37014,10510,telar,loom,,,wɪ̆.ˈt̺͡s̺ɐ̝l,,,0
28141002809,Lonquimay,-38.42587,-71.37014,10070,estrujar,wring,,,kɘ̆ʈ̚.ˈʈ͡ʂɘ̆n,,,0
28141002809,Lonquimay,-38.42587,-71.37014,10590,verde,green,,,ˈkʰɐ̝ɻː,,,0
28141002809,Lonquimay,-38.42587,-71.37014,10600,cazuela,soup,,,kʰöɻʂ,,,0
28141003209,"Chol Chol",-38.51661,-72.97454,70,siete,seven,,,ˈɻë.ɡlë,,,0
28141003209,"Chol Chol",-38.51661,-72.97454,80,ocho,eight,,,ˈpʰʊ.ɻɐ̝,,,0
28141003209,"Chol Chol",-38.51661,-72.97454,100,diez,ten,,,ˈmɐ̝.ɻɪ,,,0
28141003209,"Chol Chol",-38.51661,-72.97454,7010,negro,black,,,kʊ.ˈɻɘ,,,0
28141003209,"Chol Chol",-38.51661,-72.97454,7860,pesado,heavy,,,fɐ̝.ˈnëj,,,0
28141003209,"Chol Chol",-38.51661,-72.97454,7910,caliente,warm,,,ɐ̝.ˈɻë,,,0
28141003209,"Chol Chol",-38.51661,-72.97454,20680,flaco,skinny,,,ʈ͡ʂöŋ.ˈlɪ,,,0
28141003209,"Chol Chol",-38.51661,-72.97454,20690,gordo,fat,,,mö.ˈʈ͡ʂɪn,,,0
28141003209,"Chol Chol",-38.51661,-72.97454,2240,diente,tooth,,,fö.ˈɻö,,,0
28141003209,"Chol Chol",-38.51661,-72.97454,10560,mandibula,jaw,,,ˌʈ͡ʂɐ̝.ŋɐ̝.ˈʈ͡ʂɐ̝.ŋɐ̝,,,0
28141003209,"Chol Chol",-38.51661,-72.97454,2620,hueso,bone,,,fö.ˈɻö,,,0
28141003209,"Chol Chol",-38.51661,-72.97454,2630,piel,skin,,,ʈ͡ʂɐ̝.ˈwɐ̝,,,0
28141003209,"Chol Chol",-38.51661,-72.97454,2710,barriga,belly,,,pɘ̆.ˈʈ͡ʂɐ̝,,,0
28141003209,"Chol Chol",-38.51661,-72.97454,10620,esposa,wife,,,kʊ.ˈɻë,,,0
28141003209,"Chol Chol",-38.51661,-72.97454,10740,hombre,man,,,wën.ˈʈ͡ʂʊ,,,0
28141003209,"Chol Chol",-38.51661,-72.97454,21400,duenyo_casa,house_owner,,,ˌɲëɲ.ɻʊ.ˈkʰɐ̝,,,0
28141003209,"Chol Chol",-38.51661,-72.97454,3120,perro,dog,,,ˈʈ͡ʂë.wɐ̝,,,0
28141003209,"Chol Chol",-38.51661,-72.97454,20070,zorro,fox,,,ŋɘ.ˈɻɘ,,,0
28141003209,"Chol Chol",-38.51661,-72.97454,20030,gato,cat,,,ˈɲɐ̝j.cʰɪ,,,0
28141003209,"Chol Chol",-38.51661,-72.97454,10200,liebre,hare,,,ˈmɐ̝.ɻɐ̝,,,0
28141003209,"Chol Chol",-38.51661,-72.97454,3420,gusano,worm,,,ˈpɪ.ɻʊ,,,0
28141003209,"Chol Chol",-38.51661,-72.97454,3430,piojo,louse,,,t̪ʊn,,,0
28141003209,"Chol Chol",-38.51661,-72.97454,3810,huevo,egg,,,kʊ.ˈɻɐ̝m,,,0
28141003209,"Chol Chol",-38.51661,-72.97454,10710,neblina,fog,,,ʈ͡ʂʊ.ˈkwʊɻ,,,0
28141003209,"Chol Chol",-38.51661,-72.97454,5410,fuego,fire,,,kʰɘ̆.ˈʈ͡ʂɐ̝l,,,0
28141003209,"Chol Chol",-38.51661,-72.97454,5510,piedra,stone,,,kʊ.ˈɻɐ̝,,,0
28141003209,"Chol Chol",-38.51661,-72.97454,5430,ceniza,ash,,,ʈ͡ʂʊf.ˈcʰën,,,0
28141003209,"Chol Chol",-38.51661,-72.97454,10120,barro,mud,,,fö.ˈʈ͡ʂɐ̝,,,0
28141003209,"Chol Chol",-38.51661,-72.97454,10120,barro,mud,,,pëˈlë,,,0
28141003209,"Chol Chol",-38.51661,-72.97454,5850,viento,wind,,,kʰɘ.ˈɻɘf,,,0
28141003209,"Chol Chol",-38.51661,-72.97454,5850,viento,wind,,,wɘ.ˈʈ͡ʂë,,,0
28141003209,"Chol Chol",-38.51661,-72.97454,5840,nube,cloud,,,ʈ͡ʂö.ˈmʊ,,,0
28141003209,"Chol Chol",-38.51661,-72.97454,10810,cielo_truenos,thundery_sky,,,ʈ͡ʂɐ̝l.ˌkɐ̝n.wë.ˈnʊ,,,0
28141003209,"Chol Chol",-38.51661,-72.97454,21530,hace_calor,it_is_hot,,,ˌɐ̝.ɻë.ˈŋɪ,,,0
28141003209,"Chol Chol",-38.51661,-72.97454,21520,hace_frio,it_is_cold,,,ˌwɘ.ʈ͡ʂë.ˈŋɪ,,,0
28141003209,"Chol Chol",-38.51661,-72.97454,6120,choclo,cob_of_corn,,,ɣwɐ̝,,,0
28141003209,"Chol Chol",-38.51661,-72.97454,20550,harina_tostada,toasted_flour,,,mɘɻ.ˈcʰë,,,0
28141003209,"Chol Chol",-38.51661,-72.97454,6510,casa,house,,,ˈɻʊ.kʰɐ̝,,,0
28141003209,"Chol Chol",-38.51661,-72.97454,30500,pueblo,town,,,ˌwɐ̝.ɻɪ.ˈɐ̝,,,0
28141003209,"Chol Chol",-38.51661,-72.97454,20890,arado,plough,,,ɐ̝.ˈɻɐ̝w,,,0
28141003209,"Chol Chol",-38.51661,-72.97454,6810,camino,road,,,ɻ̩ː.ˈpʊ,,,0
28141003209,"Chol Chol",-38.51661,-72.97454,8030,caminar,walk,,,ʈ͡ʂë.ˈkɐ̝n,,,0
28141003209,"Chol Chol",-38.51661,-72.97454,8110,estar_en_pie,be_standing,,,wɪ.ˌʈ͡ʂɐ̝.pɘ̆.ˈɻɐ̝n,,,0
28141003209,"Chol Chol",-38.51661,-72.97454,8110,estar_en_pie,be_standing,,,ˌwɪ.ʈ͡ʂɐ̝.ˈlën,,,0
28141003209,"Chol Chol",-38.51661,-72.97454,10550,machacar,smash,,,ʈ͡ʂɐ̝.ˈnɐ̝n,,,0
28141003209,"Chol Chol",-38.51661,-72.97454,8830,empujar,push,,,ɻɘ.ˈʈ͡ʂën,,,0
28141003209,"Chol Chol",-38.51661,-72.97454,20830,solamente,only,,,cʰɪ.ˈθʊ,,,0
28141003209,"Chol Chol",-38.51661,-72.97454,10450,solamente,alone,,,ɻë,,,0
28141003209,"Chol Chol",-38.51661,-72.97454,21050,demasiado,too_much,,,θən.ˈʈ͡ʂën,,,0
28141003209,"Chol Chol",-38.51661,-72.97454,510,anyo,year,,,ʈ͡ʂɪ.ˈpɐ̝n̪.t̪ʊ,,,0
28141003209,"Chol Chol",-38.51661,-72.97454,20630,tambor,drum,,,kʊɻ.ˈʈ͡ʂʊn,,,0
28141003209,"Chol Chol",-38.51661,-72.97454,10800,cinta,headband,,,ˌʈ͡ʂɐ̝.ɻɪ.ˈlöŋ.kʰö,,,0
28141003209,"Chol Chol",-38.51661,-72.97454,10340,quebrar,shatter,,,ʈ͡ʂɐ̝.ˈfön,,,0
28141003209,"Chol Chol",-38.51661,-72.97454,10030,basta,enough,,,ˌfën.ˈʈ͡ʂën,,,0
28141003209,"Chol Chol",-38.51661,-72.97454,6320,flor,flower,,,ɻɽɐ̝.ˈjën,,,0
28141003209,"Chol Chol",-38.51661,-72.97454,10430,cascada,waterfall,,,ʈ͡ʂɐ̝.ˈjën,,,0
28141003209,"Chol Chol",-38.51661,-72.97454,10090,plano,spread_out,,,lɐ̝f,,,0
28141003209,"Chol Chol",-38.51661,-72.97454,10500,visita,visitor,,,wɪ.ˈʈ͡ʂɐ̝n,,,0
28141003209,"Chol Chol",-38.51661,-72.97454,10510,telar,loom,,,wɪ.ˈʈ͡ʂɐ̝l,,,0
28141003209,"Chol Chol",-38.51661,-72.97454,10070,estrujar,wring,,,kʰɘ.ˈʈ͡ʂɘn,,,0
28141003209,"Chol Chol",-38.51661,-72.97454,10590,verde,green,,,kɐ̝.ˈɻɘ,,,0
28141003209,"Chol Chol",-38.51661,-72.97454,10600,cazuela,soup,,,kö.ˈɻɘ,,,0
28141004309,Dollinco,-38.67157,-72.82837,70,siete,seven,,,ˌʐëj.ɣɘ̆.ˈlë,,,0
28141004309,Dollinco,-38.67157,-72.82837,80,ocho,eight,,,pʰʊ.ˈɻɐ̝,,,0
28141004309,Dollinco,-38.67157,-72.82837,100,diez,ten,,,mɐ̝.ˈɻɪ,,,0
28141004309,Dollinco,-38.67157,-72.82837,210,mil,thousand,,,wɐ̝.ˈɻɐ̝ŋ.kʰɐ̝,,,0
28141004309,Dollinco,-38.67157,-72.82837,7010,negro,black,,,kʊ.ˈʐɘ,,,0
28141004309,Dollinco,-38.67157,-72.82837,7860,pesado,heavy,,,fɐ̝.ˈnëj,,,0
28141004309,Dollinco,-38.67157,-72.82837,7910,caliente,warm,,,kö.ˈfwɘj,,,0
28141004309,Dollinco,-38.67157,-72.82837,20680,flaco,skinny,,,t̺͡s̺öŋ.ˈlɪ,,,0
28141004309,Dollinco,-38.67157,-72.82837,20690,gordo,fat,,,mö.ˈt̺͡s̺ɪ,,,0
28141004309,Dollinco,-38.67157,-72.82837,2240,diente,tooth,,,fö.ˈɻö,,,0
28141004309,Dollinco,-38.67157,-72.82837,10560,mandibula,jaw,,,ˌʈ͡ʂɐ̝.ŋɐ̝.ˈʈ͡ʂɐ̝.ŋɐ̝,,,0
28141004309,Dollinco,-38.67157,-72.82837,2620,hueso,bone,,,fö.ˈɻö,,,0
28141004309,Dollinco,-38.67157,-72.82837,2630,piel,skin,,,ʈ͡ʂɐ̝.ˈwɐ̝,,,0
28141004309,Dollinco,-38.67157,-72.82837,2710,barriga,belly,,,pɘ̆.ˈʈ͡ʂɐ̝,,,0
28141004309,Dollinco,-38.67157,-72.82837,10620,esposa,wife,,,kʊ.ˈɻë,,,0
28141004309,Dollinco,-38.67157,-72.82837,10740,hombre,man,,,wën.ˈʈ͡ʂʊ,,,0
28141004309,Dollinco,-38.67157,-72.82837,21400,duenyo_casa,house_owner,,,ˌɲën.ʐʊ.ˈkɐ̝,,,0
28141004309,Dollinco,-38.67157,-72.82837,3120,perro,dog,,,ʈ͡ʂë.ˈwɐ̝,,,0
28141004309,Dollinco,-38.67157,-72.82837,20070,zorro,fox,,,ŋɘ.ˈɻɘ,,,0
28141004309,Dollinco,-38.67157,-72.82837,10200,liebre,hare,,,mɐ̝.ˈɻɐ̝,,,0
28141004309,Dollinco,-38.67157,-72.82837,3420,gusano,worm,,,ˈpɪ.ɻʊ,,,0
28141004309,Dollinco,-38.67157,-72.82837,3430,piojo,louse,,,t̪ɘn,,,0
28141004309,Dollinco,-38.67157,-72.82837,3810,huevo,egg,,,kʊ.ˈɻɐ̝m,,,0
28141004309,Dollinco,-38.67157,-72.82837,10710,neblina,fog,,,ʈ͡ʂʊ.ˈkʊɻ,,,0
28141004309,Dollinco,-38.67157,-72.82837,5410,fuego,fire,,,kɘ.ˈt̺͡s̺ɐ̝l,,,0
28141004309,Dollinco,-38.67157,-72.82837,5510,piedra,stone,,,kʊ.ˈʐɐ̝,,,0
28141004309,Dollinco,-38.67157,-72.82837,5430,ceniza,ash,,,t̺͡s̺ʊf.ˈcʰën,,,0
28141004309,Dollinco,-38.67157,-72.82837,10120,barro,mud,,,pë.ˈlë,,,0
28141004309,Dollinco,-38.67157,-72.82837,5850,viento,wind,,,kʰɘ.ˈɻɘf,,,0
28141004309,Dollinco,-38.67157,-72.82837,5840,nube,cloud,,,t̺ö.ˈmɘ,,,0
28141004309,Dollinco,-38.67157,-72.82837,10810,cielo_truenos,thundery_sky,,,ʈ͡ʂɐ̝l.ˌkɐ̝n.wë.ˈnʊ,,,0
28141004309,Dollinco,-38.67157,-72.82837,21530,hace_calor,it_is_hot,,,ɐ̝.ˌɻë.ˈŋɪ,,,0
28141004309,Dollinco,-38.67157,-72.82837,21520,hace_frio,it_is_cold,,,wɘ.ˈt̺͡s̺ën,,,0
28141004309,Dollinco,-38.67157,-72.82837,6120,choclo,cob_of_corn,,,wɐ̝,,,0
28141004309,Dollinco,-38.67157,-72.82837,20550,harina_tostada,toasted_flour,,,mɘɻ.ˈcʰë,,,0
28141004309,Dollinco,-38.67157,-72.82837,6510,casa,house,,,ɻʊ.ˈkʰɐ̝,,,0
28141004309,Dollinco,-38.67157,-72.82837,30500,pueblo,town,,,ˌwɐ̝.ɻɪ.ˈɐ̝,,,0
28141004309,Dollinco,-38.67157,-72.82837,20890,arado,plough,,,ɐ̝.ˈɻɐ̝w,,,0
28141004309,Dollinco,-38.67157,-72.82837,6810,camino,road,,,ʐɘ.ˈpɘ,,,0
28141004309,Dollinco,-38.67157,-72.82837,8030,caminar,walk,,,t̺͡s̺ë.ˈkʰɐ̝n,,,0
28141004309,Dollinco,-38.67157,-72.82837,8110,estar_en_pie,be_standing,,,wɪ.ˌt̺͡s̺ɐ̝.ˈlën,,,0
28141004309,Dollinco,-38.67157,-72.82837,10550,machacar,smash,,,ʈ͡ʂɐ̝.ˈnɐ̝n,,,0
28141004309,Dollinco,-38.67157,-72.82837,8830,empujar,push,,,ɻɘ̆l.ˈt̺͡s̺ën,,,0
28141004309,Dollinco,-38.67157,-72.82837,20830,solamente,only,,,cʰɪ.ˈsʊ,,,0
28141004309,Dollinco,-38.67157,-72.82837,21050,demasiado,too_much,,,fën.ˈt̺͡s̺ën,,,0
28141004309,Dollinco,-38.67157,-72.82837,510,anyo,year,,,ˌt̺͡s̺ɪ.ˈpɐ̝n̪.d̪ʊ,,,0
28141004309,Dollinco,-38.67157,-72.82837,20630,tambor,drum,,,kʊl.ˈʈ͡ʂʊn,,,0
28141004309,Dollinco,-38.67157,-72.82837,10800,cinta,headband,,,ˌt̺͡s̺ɐ̝.ʐɪ.ˈlöŋ.kö,,,0
28141004309,Dollinco,-38.67157,-72.82837,10340,quebrar,shatter,,,ʈ͡ʂɐ̝.ˈfön,,,0
28141004309,Dollinco,-38.67157,-72.82837,10030,basta,enough,,,p͡ɸën.ˈt̺͡s̺ën,,,0
28141004309,Dollinco,-38.67157,-72.82837,6320,flor,flower,,,ⁿɖ͡ʐɐ̝.ˈjën,,,0
28141004309,Dollinco,-38.67157,-72.82837,10090,plano,spread_out,,,lɐ̝f,,,0
28141004309,Dollinco,-38.67157,-72.82837,10500,visita,visitor,,,wɪ.ˈʈ͡ʂɐ̝n,,,0
28141004309,Dollinco,-38.67157,-72.82837,10510,telar,loom,,,wɪ.ˈʈ͡ʂɐ̝l,,,0
28141004309,Dollinco,-38.67157,-72.82837,10070,estrujar,wring,,,kɘ̆.ˈʈ͡ʂɘn,,,0
28141004309,Dollinco,-38.67157,-72.82837,10590,verde,green,,,kʰɐ̝.ˈɻɘ,,,0
28141004309,Dollinco,-38.67157,-72.82837,10600,cazuela,soup,,,kö.ˈɻɘ,,,0
28141004509,Vilcún,-38.59695,-72.31239,70,siete,seven,,,ˈɽë.ɡlë,,,0
28141004509,Vilcún,-38.59695,-72.31239,80,ocho,eight,,,ˈpʊ.ɻɐ̝,,,0
28141004509,Vilcún,-38.59695,-72.31239,100,diez,ten,,,ˈmɐ̝.ɻɪ,,,0
28141004509,Vilcún,-38.59695,-72.31239,210,mil,thousand,,,wɐ̝.ˈɻɐ̝ŋ.kʰɐ̝,,,0
28141004509,Vilcún,-38.59695,-72.31239,7010,negro,black,,,kʊ̆.ˈɻɘ,,,0
28141004509,Vilcún,-38.59695,-72.31239,7860,pesado,heavy,,,fɐ̝.ˈnë.lö,,,0
28141004509,Vilcún,-38.59695,-72.31239,7910,caliente,warm,,,ɐ̝.ˈɻë,,,0
28141004509,Vilcún,-38.59695,-72.31239,20680,flaco,skinny,,,ʈöŋ.ˈlɪ.lʊ,,,0
28141004509,Vilcún,-38.59695,-72.31239,20690,gordo,fat,,,mö.ˈʈ͡ʂɪ.lɘ,,,0
28141004509,Vilcún,-38.59695,-72.31239,2240,diente,tooth,,,ˈfö.ɻö,,,0
28141004509,Vilcún,-38.59695,-72.31239,2620,hueso,bone,,,ˈfö.ɻö,,,0
28141004509,Vilcún,-38.59695,-72.31239,2630,piel,skin,,,ˈt̺͡s̺ɐ̝.wɐ̝ɐ̝̥̯,,,0
28141004509,Vilcún,-38.59695,-72.31239,2710,barriga,belly,,,pɘ̆.ˈʈ͡ʂɐ̝,,,0
28141004509,Vilcún,-38.59695,-72.31239,10620,esposa,wife,,,kʊ.ˈɻë,,,0
28141004509,Vilcún,-38.59695,-72.31239,10740,hombre,man,,,ˈwën.ˈʈ͡ʂʊ,,,0
28141004509,Vilcún,-38.59695,-72.31239,21400,duenyo_casa,house_owner,,,ˌɲën.ɽ̥ʊ̆.ˈkɐ̝,,,0
28141004509,Vilcún,-38.59695,-72.31239,3120,perro,dog,,,ˈʈ͡ʂë.wɐ̝,,,0
28141004509,Vilcún,-38.59695,-72.31239,20070,zorro,fox,,,ˈŋɘ.ɻɘ,,,0
28141004509,Vilcún,-38.59695,-72.31239,20030,gato,cat,,,ˈɲɐ̝j.cʰɪ,,,0
28141004509,Vilcún,-38.59695,-72.31239,10200,liebre,hare,,,ˈmɐ̝.ɻɐ̝ɐ̝̥̯,,,0
28141004509,Vilcún,-38.59695,-72.31239,3420,gusano,worm,,,ˈpɪ.ɻö,,,0
28141004509,Vilcún,-38.59695,-72.31239,3430,piojo,louse,,,t̪ɘn,,,0
28141004509,Vilcún,-38.59695,-72.31239,3810,huevo,egg,,,kʊ.ˈʐɐ̝m,,,0
28141004509,Vilcún,-38.59695,-72.31239,10710,neblina,fog,,,ʈ͡ʂʊ̆.ˈkʊɻ,,,0
28141004509,Vilcún,-38.59695,-72.31239,5410,fuego,fire,,,kɘ̆.ˈt̺͡s̺ɐ̝l,,,0
28141004509,Vilcún,-38.59695,-72.31239,5510,piedra,stone,,,kʊ.ˈɻɐ̝,,,0
28141004509,Vilcún,-38.59695,-72.31239,5430,ceniza,ash,,,t͡ɹ̝̥ʊf.ˈcʰën,,,0
28141004509,Vilcún,-38.59695,-72.31239,10120,barro,mud,,,wöʂ.ˈʈ͡ʂɐ̝,,,0
28141004509,Vilcún,-38.59695,-72.31239,5850,viento,wind,,,kɘ.ˈɻɘf,,,0
28141004509,Vilcún,-38.59695,-72.31239,5840,nube,cloud,,,ʈ͡ʂö.ˈmɘ,,,0
28141004509,Vilcún,-38.59695,-72.31239,21530,hace_calor,it_is_hot,,,ɐ̝.ˈɻën,,,0
28141004509,Vilcún,-38.59695,-72.31239,21520,hace_frio,it_is_cold,,,ˌʊ.ˈʈ͡ʂë.lʊ,,,0
28141004509,Vilcún,-38.59695,-72.31239,6120,choclo,cob_of_corn,,,wɐ̝,,,0
28141004509,Vilcún,-38.59695,-72.31239,20550,harina_tostada,toasted_flour,,,ˈmɘɻ.cʰë,,,0
28141004509,Vilcún,-38.59695,-72.31239,6510,casa,house,,,ɻʊ.ˈkʰɐ̝,,,0
28141004509,Vilcún,-38.59695,-72.31239,30500,pueblo,town,,,ˈwɐ̝.ɻɪ.ɐ̝ɐ̝̥̯,,,0
28141004509,Vilcún,-38.59695,-72.31239,20890,arado,plough,,,ɐ̝.ˈɻɐ̝w,,,0
28141004509,Vilcún,-38.59695,-72.31239,6810,camino,road,,,ɻɘ.ˈpɘ,,,0
28141004509,Vilcún,-38.59695,-72.31239,8030,caminar,walk,,,t̺͡s̺ë.ˈkʰɐ̝.lö̥,,,0
28141004509,Vilcún,-38.59695,-72.31239,8110,estar_en_pie,be_standing,,,ˌwɪ.ˈt̺͡s̺ɐ̝.lën,,,0
28141004509,Vilcún,-38.59695,-72.31239,10550,machacar,smash,,,t̺͡s̺ɐ̝.ˈnɐ̝n,,,0
28141004509,Vilcún,-38.59695,-72.31239,8830,empujar,push,,,ɘl.ˈt̺͡s̺ën,,,0
28141004509,Vilcún,-38.59695,-72.31239,20830,solamente,only,,,cɪ.ˈsʊ,,,0
28141004509,Vilcún,-38.59695,-72.31239,10450,solamente,alone,,,n̩.ˈd͡ɹ̝ë,,,0
28141004509,Vilcún,-38.59695,-72.31239,510,anyo,year,,,t̺͡s̺ɪ̆.ˈpɐ̝n̪.t̪ö,,,0
28141004509,Vilcún,-38.59695,-72.31239,20630,tambor,drum,,,kʊl.ˈt̪ɾʊn,,,0
28141004509,Vilcún,-38.59695,-72.31239,10800,cinta,headband,,,ˌʈʰɐ̝.ɻɪ.ˈlöŋ.kʰö,,,0
28141004509,Vilcún,-38.59695,-72.31239,6320,flor,flower,,,ɻɐ̝.ˈjën,,,0
28141004509,Vilcún,-38.59695,-72.31239,10090,plano,spread_out,,,jɪɻ,,,0
28141004509,Vilcún,-38.59695,-72.31239,10500,visita,visitor,,,wɪ.ˈʈʰɐ̝n,,,0
28141004509,Vilcún,-38.59695,-72.31239,10510,telar,loom,,,wɪ.ˈʈʰɐ̝l,,,0
28141004509,Vilcún,-38.59695,-72.31239,10070,estrujar,wring,,,kʰɘ.ˈt̺͡s̺ɘn,,,0
28141004509,Vilcún,-38.59695,-72.31239,10080,atado,tied_up,,,kʰɘ.ˈt̺͡s̺ɘn,,,0
28141004509,Vilcún,-38.59695,-72.31239,10590,verde,green,,,kʰɐ̝.ˈɻɘ,,,0
28141004509,Vilcún,-38.59695,-72.31239,10600,cazuela,soup,,,kö.ˈɻɘ,,,0
28141005109,"Puerto Saavedra",-38.78431,-73.39912,70,siete,seven,,,ˈʐë.ɣlë,,,0
28141005109,"Puerto Saavedra",-38.78431,-73.39912,80,ocho,eight,,,ˈpʊ.ʐɐ̝,,,0
28141005109,"Puerto Saavedra",-38.78431,-73.39912,100,diez,ten,,,ˈmɐ̝.ɻɪ,,,0
28141005109,"Puerto Saavedra",-38.78431,-73.39912,210,mil,thousand,,,wɐ̝.ˈɻɐ̝ŋ.kʰɐ̝,,,0
28141005109,"Puerto Saavedra",-38.78431,-73.39912,7010,negro,black,,,kʊ.ˈʐɘ,,,0
28141005109,"Puerto Saavedra",-38.78431,-73.39912,7860,pesado,heavy,,,fɐ̝.ˈnën,,,0
28141005109,"Puerto Saavedra",-38.78431,-73.39912,7910,caliente,warm,,,ɐ̝.ˈʐë,,,0
28141005109,"Puerto Saavedra",-38.78431,-73.39912,7910,caliente,warm,,,ɐ̝.ˈʐë.lɪ,,,0
28141005109,"Puerto Saavedra",-38.78431,-73.39912,20680,flaco,skinny,,,ʈ͡ʂöŋ.ˈlɪ,,,0
28141005109,"Puerto Saavedra",-38.78431,-73.39912,20690,gordo,fat,,,mö.ˈʈ͡ʂɪn,,,0
28141005109,"Puerto Saavedra",-38.78431,-73.39912,2240,diente,tooth,,,fö.ˈɻö,,,0
28141005109,"Puerto Saavedra",-38.78431,-73.39912,10560,mandibula,jaw,,,ˌt̺͡s̺ɐ̝.ŋɐ̝.ˈt̺͡s̺ɐ̝.ŋɐ̝,,,0
28141005109,"Puerto Saavedra",-38.78431,-73.39912,2620,hueso,bone,,,fö.ˈɻö,,,0
28141005109,"Puerto Saavedra",-38.78431,-73.39912,2630,piel,skin,,,ʈ͡ʂɐ̝.ˈwɐ̝,,,0
28141005109,"Puerto Saavedra",-38.78431,-73.39912,2710,barriga,belly,,,ˈpɘ.t̺͡s̺ɐ̝,,,0
28141005109,"Puerto Saavedra",-38.78431,-73.39912,10620,esposa,wife,,,ˈkʊ.ʐë,,,0
28141005109,"Puerto Saavedra",-38.78431,-73.39912,10740,hombre,man,,,ˈwën.t̺͡s̺ʊ,,,0
28141005109,"Puerto Saavedra",-38.78431,-73.39912,21400,duenyo_casa,house_owner,,,ŋën.ˈʐʊ.kɐ̝,,,0
28141005109,"Puerto Saavedra",-38.78431,-73.39912,3120,perro,dog,,,ˈt̺͡s̺ë.wɐ̝,,,0
28141005109,"Puerto Saavedra",-38.78431,-73.39912,20070,zorro,fox,,,ˈŋɘ.ʐɘ,,,0
28141005109,"Puerto Saavedra",-38.78431,-73.39912,20030,gato,cat,,,ˈɲɐ̝ɻ.cʰɪ,,,0
28141005109,"Puerto Saavedra",-38.78431,-73.39912,10200,liebre,hare,,,ˈmɐ̝.ʐɐ̝,,,0
28141005109,"Puerto Saavedra",-38.78431,-73.39912,3420,gusano,worm,,,ˈpɪ.ʐʊ,,,0
28141005109,"Puerto Saavedra",-38.78431,-73.39912,3430,piojo,louse,,,t̪ɘn̪,,,0
28141005109,"Puerto Saavedra",-38.78431,-73.39912,3810,huevo,egg,,,kʊ.ˈɻɐ̝m,,,0
28141005109,"Puerto Saavedra",-38.78431,-73.39912,10710,neblina,fog,,,t̺͡s̺ʊ.ˈkʊɻ,,,0
28141005109,"Puerto Saavedra",-38.78431,-73.39912,5410,fuego,fire,,,kɘ.ˈt̺͡s̺ɐ̝l,,,0
28141005109,"Puerto Saavedra",-38.78431,-73.39912,5510,piedra,stone,,,ˈkʊ.ʐɐ̝,,,0
28141005109,"Puerto Saavedra",-38.78431,-73.39912,5430,ceniza,ash,,,t̺͡s̺ʊf.ˈkën,,,0
28141005109,"Puerto Saavedra",-38.78431,-73.39912,10120,barro,mud,,,ˈfö.ʈ͡ʂɐ̝,,,0
28141005109,"Puerto Saavedra",-38.78431,-73.39912,10120,barro,mud,,,ˈpë.l̪ë,,,0
28141005109,"Puerto Saavedra",-38.78431,-73.39912,5850,viento,wind,,,kɘ.ˈɻɘf,,,0
28141005109,"Puerto Saavedra",-38.78431,-73.39912,5840,nube,cloud,,,t̺͡s̺ö.mʊ,,,0
28141005109,"Puerto Saavedra",-38.78431,-73.39912,10810,cielo_truenos,thundery_sky,,,ˌt̺͡s̺ɐ̝l.kɐ̝.ˈwë.nʊ,,,0
28141005109,"Puerto Saavedra",-38.78431,-73.39912,21530,hace_calor,it_is_hot,,,ɐ̝.ˌɻɘ.ˈŋëj,,,0
28141005109,"Puerto Saavedra",-38.78431,-73.39912,21520,hace_frio,it_is_cold,,,wɘ.ˌt̺͡s̺ë.ˈŋëj,,,0
28141005109,"Puerto Saavedra",-38.78431,-73.39912,6120,choclo,cob_of_corn,,,ʊ.ˈwɐ̝,,,0
28141005109,"Puerto Saavedra",-38.78431,-73.39912,20550,harina_tostada,toasted_flour,,,ˈmɘɻ.cʰë,,,0
28141005109,"Puerto Saavedra",-38.78431,-73.39912,6510,casa,house,,,ˈɻʊ.kɐ̝,,,0
28141005109,"Puerto Saavedra",-38.78431,-73.39912,30500,pueblo,town,,,ɣwɐ̝.ˈʐɪ.ɐ̝,,,0
28141005109,"Puerto Saavedra",-38.78431,-73.39912,20890,arado,plough,,,ɐ̝.ˈɻɐ̝w,,,0
28141005109,"Puerto Saavedra",-38.78431,-73.39912,6810,camino,road,,,ʐɘ.ˈpɘ,,,0
28141005109,"Puerto Saavedra",-38.78431,-73.39912,8030,caminar,walk,,,t̺͡s̺ë.ˈkɐ̝n,,,0
28141005109,"Puerto Saavedra",-38.78431,-73.39912,8110,estar_en_pie,be_standing,,,wɘ.ˌʈ͡ʂɐ̝.pɘ.ˈɻɐ̝m,,,0
28141005109,"Puerto Saavedra",-38.78431,-73.39912,8110,estar_en_pie,be_standing,,,wɘ.ʈ͡ʂɐ̝.ˈlën,,,0
28141005109,"Puerto Saavedra",-38.78431,-73.39912,10550,machacar,smash,,,t̺͡s̺ɐ̝.ˈnɐ̝n,,,0
28141005109,"Puerto Saavedra",-38.78431,-73.39912,8830,empujar,push,,,ʐʊ.ˈʈ͡ʂën,,,0
28141005109,"Puerto Saavedra",-38.78431,-73.39912,20830,solamente,only,,,ˈcʰɪ.ʃʊ,,,0
28141005109,"Puerto Saavedra",-38.78431,-73.39912,10450,solamente,alone,,,ʐë,,,0
28141005109,"Puerto Saavedra",-38.78431,-73.39912,21050,demasiado,too_much,,,fën.ˈt̺͡s̺ën,,,0
28141005109,"Puerto Saavedra",-38.78431,-73.39912,510,anyo,year,,,t̺͡s̺ɪ.ˈpɐ̝n̪.t̪ɘ,,,0
28141005109,"Puerto Saavedra",-38.78431,-73.39912,20630,tambor,drum,,,kʊl.ˈʈ͡ʂʊŋ,,,0
28141005109,"Puerto Saavedra",-38.78431,-73.39912,10800,cinta,headband,,,ˌʈ͡ʂɐ̝.ɻɪ.ˈlöŋ.kö,,,0
28141005109,"Puerto Saavedra",-38.78431,-73.39912,10340,quebrar,shatter,,,t̺͡s̺ɐ̝.ˈfön,,,0
28141005109,"Puerto Saavedra",-38.78431,-73.39912,10030,basta,enough,,,ˈmɘ.nɐ̝,,,0
28141005109,"Puerto Saavedra",-38.78431,-73.39912,6320,flor,flower,,,ɻɐ̝.ˈjën,,,0
28141005109,"Puerto Saavedra",-38.78431,-73.39912,10430,cascada,waterfall,,,t̺͡s̺ɐ̝.ˈjën,,,0
28141005109,"Puerto Saavedra",-38.78431,-73.39912,10090,plano,spread_out,,,lɐ̝f,,,0
28141005109,"Puerto Saavedra",-38.78431,-73.39912,10310,greda_blanca,clay,,,ˈmɐ̝.ʎö,,,0
28141005109,"Puerto Saavedra",-38.78431,-73.39912,10500,visita,visitor,,,wɪ.ˈt̺͡s̺ɐ̝n,,,0
28141005109,"Puerto Saavedra",-38.78431,-73.39912,10510,telar,loom,,,wɪ.ˈt̺͡s̺ɐ̝l,,,0
28141005109,"Puerto Saavedra",-38.78431,-73.39912,10070,estrujar,wring,,,kɘ.ˈt̺͡s̺ɘn,,,0
28141005109,"Puerto Saavedra",-38.78431,-73.39912,10590,verde,green,,,ˈkɐ̝.ʐɘ,,,0
28141005109,"Puerto Saavedra",-38.78431,-73.39912,10600,cazuela,soup,,,ˈkö.ʐɘ,,,0
28141005409,"Truf Truf",-38.75576,-72.43983,70,siete,seven,,,ˈrë.lë,,,0
28141005409,"Truf Truf",-38.75576,-72.43983,80,ocho,eight,,,ˈpʊ.rɐ̝,,,0
28141005409,"Truf Truf",-38.75576,-72.43983,100,diez,ten,,,ˈmɐ̝.r̝ɪ,,,0
28141005409,"Truf Truf",-38.75576,-72.43983,210,mil,thousand,,,wɐ̝.ˈɾɐ̝ŋ.kʰɐ̝,,,0
28141005409,"Truf Truf",-38.75576,-72.43983,7010,negro,black,,,kʊ.ˈr̝ɘ,,,0
28141005409,"Truf Truf",-38.75576,-72.43983,7860,pesado,heavy,,,fɐ̝.ˈnë,,,0
28141005409,"Truf Truf",-38.75576,-72.43983,7910,caliente,warm,,,ɐ̝.rë.ˈlëj,,,0
28141005409,"Truf Truf",-38.75576,-72.43983,20680,flaco,skinny,,,ˈʈ͡ʂöŋ.lɪ,,,0
28141005409,"Truf Truf",-38.75576,-72.43983,20690,gordo,fat,,,mö.ˈʈ͡ʂɪ,,,0
28141005409,"Truf Truf",-38.75576,-72.43983,2240,diente,tooth,,,fö.ˈrö,,,0
28141005409,"Truf Truf",-38.75576,-72.43983,10560,mandibula,jaw,,,ˌt͡ɹ̝̥ɐ̝.ŋɐ̝.ˈt͡ɹ̝̥ɐ̝.ŋɐ̝,,,0
28141005409,"Truf Truf",-38.75576,-72.43983,2620,hueso,bone,,,ɸö.ˈɻö,,,0
28141005409,"Truf Truf",-38.75576,-72.43983,2630,piel,skin,,,ˈt͡ɹ̝̥ɐ̝.wɐ̝,,,0
28141005409,"Truf Truf",-38.75576,-72.43983,2710,barriga,belly,,,pɘ̆.ˈʂɐ̝ɐ̝̥̆,,,0
28141005409,"Truf Truf",-38.75576,-72.43983,10620,esposa,wife,,,kʊ.ˈr̝ë,,,0
28141005409,"Truf Truf",-38.75576,-72.43983,10740,hombre,man,,,ˈwën.t̺͡s̺ʊ,,,0
28141005409,"Truf Truf",-38.75576,-72.43983,21400,duenyo_casa,house_owner,,,"ˌɲën ˈrʊ.kɐ̝",,,0
28141005409,"Truf Truf",-38.75576,-72.43983,3120,perro,dog,,,ˈt͡ɹ̝̥ë.wɐ̝,,,0
28141005409,"Truf Truf",-38.75576,-72.43983,20070,zorro,fox,,,ŋɘ.ˈʐɘ,,,0
28141005409,"Truf Truf",-38.75576,-72.43983,20030,gato,cat,,,nɐ̝ɻ.ˈkɪ,,,0
28141005409,"Truf Truf",-38.75576,-72.43983,10200,liebre,hare,,,ˈmɐ̝.rɐ̝,,,0
28141005409,"Truf Truf",-38.75576,-72.43983,3420,gusano,worm,,,pɪ.ˈʐʊ,,,0
28141005409,"Truf Truf",-38.75576,-72.43983,3430,piojo,louse,,,t̪ɘn,,,0
28141005409,"Truf Truf",-38.75576,-72.43983,3810,huevo,egg,,,kʊ.ˈrɐ̝m,,,0
28141005409,"Truf Truf",-38.75576,-72.43983,10710,neblina,fog,,,ʈ͡ʂʊ.ˈkʊɻ,,,0
28141005409,"Truf Truf",-38.75576,-72.43983,5410,fuego,fire,,,kɘ.ˈʈ͡ʂɐ̝l,,,0
28141005409,"Truf Truf",-38.75576,-72.43983,5510,piedra,stone,,,kʊ.ˈrɐ̝,,,0
28141005409,"Truf Truf",-38.75576,-72.43983,5430,ceniza,ash,,,t͡ɹ̝̥ʊf.ˈkʰën,,,0
28141005409,"Truf Truf",-38.75576,-72.43983,10120,barro,mud,,,fö.ˈʈ͡ʂɐ̝ɐ̝̥̯,,,0
28141005409,"Truf Truf",-38.75576,-72.43983,5850,viento,wind,,,kɘ.ˈɻɘf,,,0
28141005409,"Truf Truf",-38.75576,-72.43983,5840,nube,cloud,,,ˈʈ͡ʂö.mʊ,,,0
28141005409,"Truf Truf",-38.75576,-72.43983,10810,cielo_truenos,thundery_sky,,,t͡ɹ̝̥ɐ̝.ˌkɐ̝n.wë.ˈnʊ,,,0
28141005409,"Truf Truf",-38.75576,-72.43983,21520,hace_frio,it_is_cold,,,ˌwɘ.ʈ͡ʂë.ˈŋë,,,0
28141005409,"Truf Truf",-38.75576,-72.43983,21520,hace_frio,it_is_cold,,,ˌɐ̝.rë.ˈŋëj,,,0
28141005409,"Truf Truf",-38.75576,-72.43983,6120,choclo,cob_of_corn,,,wɐ̝,,,0
28141005409,"Truf Truf",-38.75576,-72.43983,20550,harina_tostada,toasted_flour,,,ˈmɘʐ.kë,,,0
28141005409,"Truf Truf",-38.75576,-72.43983,6510,casa,house,,,ʐʊ.ˈkɐ̝,,,0
28141005409,"Truf Truf",-38.75576,-72.43983,30500,pueblo,town,,,wɐ̝.ˈrɪ.ɐ̝,,,0
28141005409,"Truf Truf",-38.75576,-72.43983,6810,camino,road,,,ˈr̝ɘ.pɘ,,,0
28141005409,"Truf Truf",-38.75576,-72.43983,8030,caminar,walk,,,ʈ͡ʂë.ˈkɐ̝n,,,0
28141005409,"Truf Truf",-38.75576,-72.43983,8110,estar_en_pie,be_standing,,,wɪ.ˈt͡ɹ̝̥ɐ̝.ˌlën,,,0
28141005409,"Truf Truf",-38.75576,-72.43983,10550,machacar,smash,,,ʂɐ̝.ˈnɐ̝n,,,0
28141005409,"Truf Truf",-38.75576,-72.43983,8830,empujar,push,,,ɘl.ˈt͡ɹ̝̥ën,,,0
28141005409,"Truf Truf",-38.75576,-72.43983,20830,solamente,only,,,kɪ.ˈsʊ,,,0
28141005409,"Truf Truf",-38.75576,-72.43983,10450,solamente,alone,,,ⁿrë,,,0
28141005409,"Truf Truf",-38.75576,-72.43983,21050,demasiado,too_much,,,xën.ˈʈ͡ʂën,,,0
28141005409,"Truf Truf",-38.75576,-72.43983,510,anyo,year,,,t͡ɹ̝̥ɪ.ˈpɐ̝n̪.t̪ʊ̥̆,,,0
28141005409,"Truf Truf",-38.75576,-72.43983,20630,tambor,drum,,,kʊl.ʈ͡ʂʊn,,,0
28141005409,"Truf Truf",-38.75576,-72.43983,10800,cinta,headband,,,ˌt͡ɹ̝̥ɐ̝.ɻɪ.ˈlöŋ.kö,,,0
28141005409,"Truf Truf",-38.75576,-72.43983,10340,quebrar,shatter,,,t̺͡s̺ɐ̝.ˈfön,,,0
28141005409,"Truf Truf",-38.75576,-72.43983,10030,basta,enough,,,ɸën.ˈt͡ɹ̝̥ën,,,0
28141005409,"Truf Truf",-38.75576,-72.43983,6320,flor,flower,,,ɻɐ̝.ˈʒën,,,0
28141005409,"Truf Truf",-38.75576,-72.43983,10430,cascada,waterfall,,,t͡ɹ̝̥ɐ̝.ˈjën,,,0
28141005409,"Truf Truf",-38.75576,-72.43983,10090,plano,spread_out,,,ⁿlɐ̝f,,,0
28141005409,"Truf Truf",-38.75576,-72.43983,10310,greda_blanca,clay,,,ˈmɐ̝.ʒö,,,0
28141005409,"Truf Truf",-38.75576,-72.43983,10500,visita,visitor,,,wɪ.ˈt͡ɹ̝̥ɐ̝n,,,0
28141005409,"Truf Truf",-38.75576,-72.43983,10510,telar,loom,,,wɪ̆.ˈt͡ɹ̝̥ɐ̝l,,,0
28141005409,"Truf Truf",-38.75576,-72.43983,10070,estrujar,wring,,,kɘ.ˈt̺͡s̺ɘn,,,0
28141005409,"Truf Truf",-38.75576,-72.43983,10080,atado,tied_up,,,kɘ̆.ˈʈ͡ʂɘŋ,,,0
28141005409,"Truf Truf",-38.75576,-72.43983,10590,verde,green,,,kɐ̝rː,,,0
28141005409,"Truf Truf",-38.75576,-72.43983,10600,cazuela,soup,,,kö.ˈʐɘ,,,0
28141005909,Icalma,-38.72338,-71.1847,70,siete,seven,,,ɻë.ˈɣlë,,,0
28141005909,Icalma,-38.72338,-71.1847,80,ocho,eight,,,pʊ.ˈɻɐ̝,,,0
28141005909,Icalma,-38.72338,-71.1847,100,diez,ten,,,mɐ̝.ˈɻɪ,,,0
28141005909,Icalma,-38.72338,-71.1847,210,mil,thousand,,,wɐ̝.ˈɻɐ̝ŋ.kʰɐ̝̥,,,0
28141005909,Icalma,-38.72338,-71.1847,7010,negro,black,,,kʊ.ˈɻɘ,,,0
28141005909,Icalma,-38.72338,-71.1847,7860,pesado,heavy,,,pɐ̝.ˈnëj,,,0
28141005909,Icalma,-38.72338,-71.1847,7910,caliente,warm,,,ˌɐ̝.ˈɻë.lëj,,,0
28141005909,Icalma,-38.72338,-71.1847,20680,flaco,skinny,,,ʈ͡ʂöŋ.ˈlɪ,,,0
28141005909,Icalma,-38.72338,-71.1847,20690,gordo,fat,,,mö.ˈʈ͡ʂɪn,,,0
28141005909,Icalma,-38.72338,-71.1847,2240,diente,tooth,,,p͡ɸö.ˈɻö,,,0
28141005909,Icalma,-38.72338,-71.1847,2620,hueso,bone,,,ˈfö.ɻö,,,0
28141005909,Icalma,-38.72338,-71.1847,2630,piel,skin,,,ˈt͡ɹ̝̥ɐ̝.wɐ̝̥,,,0
28141005909,Icalma,-38.72338,-71.1847,2710,barriga,belly,,,ɸɘ.ˈt̺͡s̺ɐ̝,,,0
28141005909,Icalma,-38.72338,-71.1847,10620,esposa,wife,,,kʊ.ˈɻë,,,0
28141005909,Icalma,-38.72338,-71.1847,10740,hombre,man,,,ˈwën.ʈʊ̥,,,0
28141005909,Icalma,-38.72338,-71.1847,21400,duenyo_casa,house_owner,,,ˌŋën.ˈɻʊ.kɐ̝,,,0
28141005909,Icalma,-38.72338,-71.1847,3120,perro,dog,,,t̺͡s̺ë.ˈwɐ̝,,,0
28141005909,Icalma,-38.72338,-71.1847,20070,zorro,fox,,,ŋɘ.ˈɻɘ,,,0
28141005909,Icalma,-38.72338,-71.1847,20030,gato,cat,,,ɲɐ̝j.ˈcɪ,,,0
28141005909,Icalma,-38.72338,-71.1847,10200,liebre,hare,,,mɐ̝.ˈɻɐ̝,,,0
28141005909,Icalma,-38.72338,-71.1847,3420,gusano,worm,,,pɪ.ˈɻʊ,,,0
28141005909,Icalma,-38.72338,-71.1847,3430,piojo,louse,,,t̪ɘn,,,0
28141005909,Icalma,-38.72338,-71.1847,3810,huevo,egg,,,ˈkʊ.ɻɐ̝m,,,0
28141005909,Icalma,-38.72338,-71.1847,10710,neblina,fog,,,ʈö.ˈkɘɻ,,,0
28141005909,Icalma,-38.72338,-71.1847,5410,fuego,fire,,,xɘ.ˈʈ͡ʂɐ̝l,,,0
28141005909,Icalma,-38.72338,-71.1847,5510,piedra,stone,,,kʊ.ˈɻɐ̝,,,0
28141005909,Icalma,-38.72338,-71.1847,5430,ceniza,ash,,,ʈʰʊf.ˈcʰën,,,0
28141005909,Icalma,-38.72338,-71.1847,10120,barro,mud,,,fɘ.ˈʈ͡ʂɐ̝,,,0
28141005909,Icalma,-38.72338,-71.1847,5850,viento,wind,,,kɘ.ˈɻɘf,,,0
28141005909,Icalma,-38.72338,-71.1847,5850,viento,wind,,,ʊ.ˈʈ͡ʂë,,,0
28141005909,Icalma,-38.72338,-71.1847,5840,nube,cloud,,,ʈ͡ʂö.ˈmɘ,,,0
28141005909,Icalma,-38.72338,-71.1847,10810,cielo_truenos,thundery_sky,,,ˈʈʰɐ̝l.kɐ̝n,,,0
28141005909,Icalma,-38.72338,-71.1847,21530,hace_calor,it_is_hot,,,ɐ̝.ˌɻë.ˈŋëj,,,0
28141005909,Icalma,-38.72338,-71.1847,21520,hace_frio,it_is_cold,,,ʊ.ˈʈ͡ʂë.ŋɪ,,,0
28141005909,Icalma,-38.72338,-71.1847,20550,harina_tostada,toasted_flour,,,mɻ̩.ˈcʰë,,,0
28141005909,Icalma,-38.72338,-71.1847,6510,casa,house,,,ˈɻʊ.kɐ̝,,,0
28141005909,Icalma,-38.72338,-71.1847,30500,pueblo,town,,,wɐ̝.ˈɻɪ.ɐ̝,,,0
28141005909,Icalma,-38.72338,-71.1847,20890,arado,plough,,,ɐ̝.ˈʐɐ̝w,,,0
28141005909,Icalma,-38.72338,-71.1847,6810,camino,road,,,ɻɘ.ˈpɘ,,,0
28141005909,Icalma,-38.72338,-71.1847,8030,caminar,walk,,,ˌt̺͡s̺ë.kɐ̝.ˈlëj,,,0
28141005909,Icalma,-38.72338,-71.1847,8110,estar_en_pie,be_standing,,,ˌʊ̆.ʈ͡ʂɐ̝.ˈlën,,,0
28141005909,Icalma,-38.72338,-71.1847,10550,machacar,smash,,,t̺͡s̺ɐ̝.ˈnɐ̝n,,,0
28141005909,Icalma,-38.72338,-71.1847,8830,empujar,push,,,ɐ̝l.ˈʈö.ʔn,,,0
28141005909,Icalma,-38.72338,-71.1847,20830,solamente,only,,,cʰɪ.ˈsʊ,,,0
28141005909,Icalma,-38.72338,-71.1847,21050,demasiado,too_much,,,ɸ̞ën.ˈʈ͡ʂën,,,0
28141005909,Icalma,-38.72338,-71.1847,510,anyo,year,,,t̺͡s̺ɪ.ˈpɐ̝n̪.t̪ʊ̥,,,0
28141005909,Icalma,-38.72338,-71.1847,20630,tambor,drum,,,kʊl.ˈʈ͡ʂʊn,,,0
28141005909,Icalma,-38.72338,-71.1847,10800,cinta,headband,,,ˌt͡ɹ̝̥a.ɻɪ.ˈlöŋ.kö,,,0
28141005909,Icalma,-38.72338,-71.1847,10340,quebrar,shatter,,,ʈ͡ʂɐ̝.ˈfön,,,0
28141005909,Icalma,-38.72338,-71.1847,10030,basta,enough,,,p͡ɸën̪.ˈt̪ën,,,0
28141005909,Icalma,-38.72338,-71.1847,6320,flor,flower,,,ɻɐ̝.ˈjɪn,,,0
28141005909,Icalma,-38.72338,-71.1847,10090,plano,spread_out,,,lɐ̝f,,,0
28141005909,Icalma,-38.72338,-71.1847,10500,visita,visitor,,,ʊ.ˈt͡ɹ̝̥ɐ̝n,,,0
28141005909,Icalma,-38.72338,-71.1847,10510,telar,loom,,,ʊ̆.ˈʂɐ̝l,,,0
28141005909,Icalma,-38.72338,-71.1847,10070,estrujar,wring,,,kʰɘ.ˈʈɘ.fë,,,0
28141005909,Icalma,-38.72338,-71.1847,10080,atado,tied_up,,,kʈ̩̚.ˈʈɘŋ,,,0
28141005909,Icalma,-38.72338,-71.1847,10590,verde,green,,,kɐ̝.ˈɻɘ,,,0
28141005909,Icalma,-38.72338,-71.1847,10600,cazuela,soup,,,ö.ˈɻɘ,,,0
28141006309,Freire,-38.99144,-72.8833,70,siete,seven,,,ˈɻëɣ̞.lë,,,0
28141006309,Freire,-38.99144,-72.8833,80,ocho,eight,,,ˈpʊ.ɻɐ̝,,,0
28141006309,Freire,-38.99144,-72.8833,100,diez,ten,,,ˈmɐ̝.ɻɪ,,,0
28141006309,Freire,-38.99144,-72.8833,210,mil,thousand,,,wɐ̝.ˈɻɐ̝ŋ.kɐ̝,,,0
28141006309,Freire,-38.99144,-72.8833,7010,negro,black,,,kʰʊ.ˈɻɘ,,,0
28141006309,Freire,-38.99144,-72.8833,7860,pesado,heavy,,,fɐ̝.ˈnëj,,,0
28141006309,Freire,-38.99144,-72.8833,7910,caliente,warm,,,ɐ̝.ˈɻë,,,0
28141006309,Freire,-38.99144,-72.8833,20680,flaco,skinny,,,ʈ͡ʂöŋ.ˈlɪ,,,0
28141006309,Freire,-38.99144,-72.8833,20690,gordo,fat,,,mö.ˈt̺͡s̺ɪ,,,0
28141006309,Freire,-38.99144,-72.8833,2240,diente,tooth,,,ˈfö.ɻö,,,0
28141006309,Freire,-38.99144,-72.8833,10560,mandibula,jaw,,,ˌʈ͡ʂɐ̝.ŋɐ̝.ˈʈ͡ʂɐ̝.ŋɐ̝,,,0
28141006309,Freire,-38.99144,-72.8833,2630,piel,skin,,,ʈ͡ʂɐ̝.ˈwɐ̝,,,0
28141006309,Freire,-38.99144,-72.8833,2710,barriga,belly,,,pɘ.ˈʈ͡ʂɐ̝,,,0
28141006309,Freire,-38.99144,-72.8833,10620,esposa,wife,,,ˈkʰʊ.ɻë,,,0
28141006309,Freire,-38.99144,-72.8833,10740,hombre,man,,,ˈwën.ʈ͡ʂʊ,,,0
28141006309,Freire,-38.99144,-72.8833,21400,duenyo_casa,house_owner,,,ˌɲën.ˈɻʊ.kɐ̝,,,0
28141006309,Freire,-38.99144,-72.8833,3120,perro,dog,,,ˈt̺͡s̺ë.ɣ̞wɐ̝,,,0
28141006309,Freire,-38.99144,-72.8833,20070,zorro,fox,,,ˈŋɘ.ɻɘ,,,0
28141006309,Freire,-38.99144,-72.8833,20030,gato,cat,,,nɐ̝ɻ.ˈcɪ,,,0
28141006309,Freire,-38.99144,-72.8833,10200,liebre,hare,,,ˈmɐ̝.ɻɐ̝,,,0
28141006309,Freire,-38.99144,-72.8833,3420,gusano,worm,,,ˈpɪ.ɻʊ,,,0
28141006309,Freire,-38.99144,-72.8833,3430,piojo,louse,,,t̪ɘn,,,0
28141006309,Freire,-38.99144,-72.8833,3810,huevo,egg,,,kʊ.ˈɻɐ̝m,,,0
28141006309,Freire,-38.99144,-72.8833,10710,neblina,fog,,,ʈ͡ʂʊ.ˈkʊɻ,,,0
28141006309,Freire,-38.99144,-72.8833,5410,fuego,fire,,,kɘ.ˈʈ͡ʂɐ̝l,,,0
28141006309,Freire,-38.99144,-72.8833,5510,piedra,stone,,,ˈkʊ.ɻɐ̝,,,0
28141006309,Freire,-38.99144,-72.8833,5430,ceniza,ash,,,ʈ͡ʂʊf.ˈcën,,,0
28141006309,Freire,-38.99144,-72.8833,10120,barro,mud,,,ˈfö.ʈ͡ʂɐ̝,,,0
28141006309,Freire,-38.99144,-72.8833,5850,viento,wind,,,kʰɘ.ˈɻʊf,,,0
28141006309,Freire,-38.99144,-72.8833,5840,nube,cloud,,,ʈ͡ʂö.ˈmɘ,,,0
28141006309,Freire,-38.99144,-72.8833,10810,cielo_truenos,thundery_sky,,,ˌʈ͡ʂɐ̝l.kɐ̝n.ˈwë.nʊ,,,0
28141006309,Freire,-38.99144,-72.8833,21530,hace_calor,it_is_hot,,,ɐ̝.ˌɻë.ˈŋëj,,,0
28141006309,Freire,-38.99144,-72.8833,21520,hace_frio,it_is_cold,,,ʊ.ˌʈ͡ʂë.ˈŋëj,,,0
28141006309,Freire,-38.99144,-72.8833,6120,choclo,cob_of_corn,,,ʊ.ˈwɐ̝,,,0
28141006309,Freire,-38.99144,-72.8833,20550,harina_tostada,toasted_flour,,,ˈmɘɻ.cë,,,0
28141006309,Freire,-38.99144,-72.8833,6510,casa,house,,,ɻʊ.ˈkɐ̝,,,0
28141006309,Freire,-38.99144,-72.8833,30500,pueblo,town,,,wɐ̝.ˈɻɪ.ɐ̝,,,0
28141006309,Freire,-38.99144,-72.8833,6810,camino,road,,,ɻɘ.ˈpɘ,,,0
28141006309,Freire,-38.99144,-72.8833,8030,caminar,walk,,,ʈ͡ʂë.ˈkɐ̝n,,,0
28141006309,Freire,-38.99144,-72.8833,8110,estar_en_pie,be_standing,,,wɪ.ˌt̺͡s̺ɐ̝.ˈlën,,,0
28141006309,Freire,-38.99144,-72.8833,10550,machacar,smash,,,ʈ͡ʂɐ̝.ˈnɐ̝n,,,0
28141006309,Freire,-38.99144,-72.8833,20830,solamente,only,,,cʰɪs.ˈθʊ,,,0
28141006309,Freire,-38.99144,-72.8833,10450,solamente,alone,,,ɻë,,,0
28141006309,Freire,-38.99144,-72.8833,21050,demasiado,too_much,,,fën.ˈt̺͡s̺ën,,,0
28141006309,Freire,-38.99144,-72.8833,510,anyo,year,,,t̺͡s̺ɪ.ˈpɐ̝n̪.t̪ʊ,,,0
28141006309,Freire,-38.99144,-72.8833,20630,tambor,drum,,,kʊl.ˈʈ͡ʂʊŋ,,,0
28141006309,Freire,-38.99144,-72.8833,10800,cinta,headband,,,ˌʂɐ̝.ɻɪ.ˈlöŋ.kö,,,0
28141006309,Freire,-38.99144,-72.8833,10340,quebrar,shatter,,,ʈ͡ʂɐ̝.ˈfön,,,0
28141006309,Freire,-38.99144,-72.8833,6320,flor,flower,,,ɻɐ̝.ˈjën,,,0
28141006309,Freire,-38.99144,-72.8833,10430,cascada,waterfall,,,ʈ͡ʂɐ̝.ˈjën,,,0
28141006309,Freire,-38.99144,-72.8833,10090,plano,spread_out,,,lɐ̝f,,,0
28141006309,Freire,-38.99144,-72.8833,10310,greda_blanca,clay,,,mɐ̝.ˈʎö,,,0
28141006309,Freire,-38.99144,-72.8833,10500,visita,visitor,,,wɪ.ˈt̺͡s̺ɐ̝n,,,0
28141006309,Freire,-38.99144,-72.8833,10510,telar,loom,,,wɪ.ˈt̺͡s̺ɐ̝l,,,0
28141006309,Freire,-38.99144,-72.8833,10070,estrujar,wring,,,kɘ̆.ˈʈ͡ʂɘn,,,0
28141006309,Freire,-38.99144,-72.8833,10590,verde,green,,,ˈkɐ̝.ɻɘ,,,0
28141006309,Freire,-38.99144,-72.8833,10600,cazuela,soup,,,ˈkö.ɻɘ,,,0
28141006609,Cunco,-38.97601,-72.01425,70,siete,seven,,,ʐë.ˈɡlë,,,0
28141006609,Cunco,-38.97601,-72.01425,80,ocho,eight,,,pʊ.ˈʂɐ̝,,,0
28141006609,Cunco,-38.97601,-72.01425,100,diez,ten,,,mɐ̝.ˈʂɻɪ,,,0
28141006609,Cunco,-38.97601,-72.01425,210,mil,thousand,,,ᵑɡwɐ̝.r̥ɐ̝ŋ.kʰɐ̝,,,0
28141006609,Cunco,-38.97601,-72.01425,7010,negro,black,,,kʊ.ˈʐɘ,,,0
28141006609,Cunco,-38.97601,-72.01425,7860,pesado,heavy,,,fɐ̝.ˈnëj,,,0
28141006609,Cunco,-38.97601,-72.01425,7910,caliente,warm,,,ɐ̝.ˈʐë,,,0
28141006609,Cunco,-38.97601,-72.01425,20680,flaco,skinny,,,ʈ͡ʂöŋ.ˈɡlɪ,,,0
28141006609,Cunco,-38.97601,-72.01425,20690,gordo,fat,,,mö.ˈt̺͡s̺ɪ,,,0
28141006609,Cunco,-38.97601,-72.01425,2240,diente,tooth,,,ˈp͡ɸö.ʂö,,,0
28141006609,Cunco,-38.97601,-72.01425,10560,mandibula,jaw,,,ˌt̺͡s̺ɐ̝.ŋɐ̝.ˈt̺͡s̺ɐ̝.ŋɐ̝ɐ̝̥̯,,,0
28141006609,Cunco,-38.97601,-72.01425,2620,hueso,bone,,,föʐ.ˈʂö,,,0
28141006609,Cunco,-38.97601,-72.01425,2630,piel,skin,,,ʈ͡ʂɐ̝.ˈwɐ̝,,,0
28141006609,Cunco,-38.97601,-72.01425,2710,barriga,belly,,,bɘ.ˈt̺͡s̺ɐ̝,,,0
28141006609,Cunco,-38.97601,-72.01425,10620,esposa,wife,,,kʊ.ˈʂë,,,0
28141006609,Cunco,-38.97601,-72.01425,10740,hombre,man,,,wën.ˈt̺͡s̺ʊ,,,0
28141006609,Cunco,-38.97601,-72.01425,21400,duenyo_casa,house_owner,,,ˈɲën.ˌɖ͡ʐʊ.kɐ̝,,,0
28141006609,Cunco,-38.97601,-72.01425,3120,perro,dog,,,t̺͡s̺ë.ˈwɐ̝,,,0
28141006609,Cunco,-38.97601,-72.01425,20070,zorro,fox,,,ŋɘ.ˈʐʊ,,,0
28141006609,Cunco,-38.97601,-72.01425,20030,gato,cat,,,nɐ̝ʂ.ˈkʰɪ,,,0
28141006609,Cunco,-38.97601,-72.01425,10200,liebre,hare,,,mɐ̝.ˈʂɐ̝,,,0
28141006609,Cunco,-38.97601,-72.01425,3420,gusano,worm,,,pɪ.ˈʂʊ,,,0
28141006609,Cunco,-38.97601,-72.01425,3430,piojo,louse,,,t̪ɘn,,,0
28141006609,Cunco,-38.97601,-72.01425,3810,huevo,egg,,,kʊ.ˈʂɐ̝m,,,0
28141006609,Cunco,-38.97601,-72.01425,10710,neblina,fog,,,t̺͡s̺ʊ.ˈkʊʂ,,,0
28141006609,Cunco,-38.97601,-72.01425,5410,fuego,fire,,,kɘ̆.ˈt̺͡s̺ɐ̝l,,,0
28141006609,Cunco,-38.97601,-72.01425,5510,piedra,stone,,,kʊ.ˈʐɐ̝,,,0
28141006609,Cunco,-38.97601,-72.01425,5430,ceniza,ash,,,ʈ͡ʂʊf.ˈkën,,,0
28141006609,Cunco,-38.97601,-72.01425,10120,barro,mud,,,fö.ˈt̺͡s̺ɐ̝,,,0
28141006609,Cunco,-38.97601,-72.01425,5850,viento,wind,,,kɘ.ˈʐɘf,,,0
28141006609,Cunco,-38.97601,-72.01425,10810,cielo_truenos,thundery_sky,,,wë.ˌnʊ.t͡ɹ̝̥ɐ̝l.ˈkɐ̝n,,,0
28141006609,Cunco,-38.97601,-72.01425,21530,hace_calor,it_is_hot,,,ɐ̝.ˌʐë.ˈŋëj,,,0
28141006609,Cunco,-38.97601,-72.01425,21520,hace_frio,it_is_cold,,,ʊ.t̺͡s̺ë.ŋëj,,,0
28141006609,Cunco,-38.97601,-72.01425,6120,choclo,cob_of_corn,,,wɐ̝,,,0
28141006609,Cunco,-38.97601,-72.01425,20550,harina_tostada,toasted_flour,,,mɘʐ.ˈkʰë,,,0
28141006609,Cunco,-38.97601,-72.01425,6510,casa,house,,,ɳ̩.ˌɖ͡ʐʊ.ˈkɐ̝,,,0
28141006609,Cunco,-38.97601,-72.01425,30500,pueblo,town,,,wɐ̝.ˈʐɪ.ɐ̝,,,0
28141006609,Cunco,-38.97601,-72.01425,20890,arado,plough,,,ɐ̝.ˈɾɐ̝w,,,0
28141006609,Cunco,-38.97601,-72.01425,6810,camino,road,,,ʐʊ.ˈpʊ,,,0
28141006609,Cunco,-38.97601,-72.01425,8030,caminar,walk,,,ˌt̺͡s̺ë.kɐ̝.ˈjɐ̝n,,,0
28141006609,Cunco,-38.97601,-72.01425,8110,estar_en_pie,be_standing,,,wɪ.ˌt̺͡s̺ɐ̝.ˈlën,,,0
28141006609,Cunco,-38.97601,-72.01425,10550,machacar,smash,,,ʈ͡ʂɐ̝.ˈnɐ̝n,,,0
28141006609,Cunco,-38.97601,-72.01425,8830,empujar,push,,,ʐɘn.ˈʈ͡ʂën,,,0
28141006609,Cunco,-38.97601,-72.01425,20830,solamente,only,,,kɪ.ˈsʊ,,,0
28141006609,Cunco,-38.97601,-72.01425,21050,demasiado,too_much,,,fɘn.ˈʈ͡ʂën,,,0
28141006609,Cunco,-38.97601,-72.01425,510,anyo,year,,,t̺͡s̺ɪ̥.ˈpɐ̝n̪.t̪ʊ̥,,,0
28141006609,Cunco,-38.97601,-72.01425,20630,tambor,drum,,,kʊɻ.ˈt̺͡s̺ʊn,,,0
28141006609,Cunco,-38.97601,-72.01425,10800,cinta,headband,,,ˌʈ͡ʂɐ̝.ʐɪ.ˈlöŋ.kö,,,0
28141006609,Cunco,-38.97601,-72.01425,10340,quebrar,shatter,,,ʈ͡ʂɐ̝.ˈfön,,,0
28141006609,Cunco,-38.97601,-72.01425,6320,flor,flower,,,ʐɐ̝.ˈʒën,,,0
28141006609,Cunco,-38.97601,-72.01425,10090,plano,spread_out,,,lɐ̝f,,,0
28141006609,Cunco,-38.97601,-72.01425,10310,greda_blanca,clay,,,ʐɐ̝x,,,0
28141006609,Cunco,-38.97601,-72.01425,10500,visita,visitor,,,wɪ.ˈt̺͡s̺ɐ̝n,,,0
28141006609,Cunco,-38.97601,-72.01425,10510,telar,loom,,,wɪ.ˈt̺͡s̺ɐ̝l,,,0
28141006609,Cunco,-38.97601,-72.01425,10070,estrujar,wring,,,ŋɘ.ˈʈ͡ʂɘn,,,0
28141006609,Cunco,-38.97601,-72.01425,10080,atado,tied_up,,,kɘ.ˈʈ͡ʂɘŋ,,,0
28141006609,Cunco,-38.97601,-72.01425,10590,verde,green,,,kɐ̝.ˈʐʊ,,,0
28141006609,Cunco,-38.97601,-72.01425,10600,cazuela,soup,,,kö.ˈʐʊ,,,0
28141007209,"Nueva Toltén",-39.20931,-73.1312,70,siete,seven,,,ˈɻëɘ̯.lë,,,0
28141007209,"Nueva Toltén",-39.20931,-73.1312,80,ocho,eight,,,βʊ.ˈɻɐ̝,,,0
28141007209,"Nueva Toltén",-39.20931,-73.1312,100,diez,ten,,,ˈmɐ̝.ɻɪ,,,0
28141007209,"Nueva Toltén",-39.20931,-73.1312,210,mil,thousand,,,wɐ̝.ˈɻɐ̝ŋ.kɐ̝,,,0
28141007209,"Nueva Toltén",-39.20931,-73.1312,7010,negro,black,,,ˈhʊ.ɻɘ,,,0
28141007209,"Nueva Toltén",-39.20931,-73.1312,7860,pesado,heavy,,,ˈfɐ̝.në,,,0
28141007209,"Nueva Toltén",-39.20931,-73.1312,7910,caliente,warm,,,ˈɐ̝.ɻë,,,0
28141007209,"Nueva Toltén",-39.20931,-73.1312,20680,flaco,skinny,,,ˈt̺͡s̺öŋ.lɪ,,,0
28141007209,"Nueva Toltén",-39.20931,-73.1312,20690,gordo,fat,,,mö.ˈt̺͡s̺ɪn,,,0
28141007209,"Nueva Toltén",-39.20931,-73.1312,2240,diente,tooth,,,ˈfö.ɻö,,,0
28141007209,"Nueva Toltén",-39.20931,-73.1312,10560,mandibula,jaw,,,ˌʈ͡ʂɐ̝.ŋɐ̝.ˈʈ͡ʂɐ̝.ŋɐ̝,,,0
28141007209,"Nueva Toltén",-39.20931,-73.1312,2620,hueso,bone,,,ˈfö.ɻö,,,0
28141007209,"Nueva Toltén",-39.20931,-73.1312,2630,piel,skin,,,ʈ͡ʂɐ̝.ˈwɐ̝,,,0
28141007209,"Nueva Toltén",-39.20931,-73.1312,2710,barriga,belly,,,bɘ̆.ˈʈʰɐ̝,,,0
28141007209,"Nueva Toltén",-39.20931,-73.1312,10620,esposa,wife,,,kʊ.ˈɻë,,,0
28141007209,"Nueva Toltén",-39.20931,-73.1312,10740,hombre,man,,,ˈwën.ʈ͡ʂʊ,,,0
28141007209,"Nueva Toltén",-39.20931,-73.1312,21400,duenyo_casa,house_owner,,,ˈɲën.ˌɖ͡ʐʊ.kɐ̝̥,,,0
28141007209,"Nueva Toltén",-39.20931,-73.1312,3120,perro,dog,,,ˈʈ͡ʂë.wɐ̝,,,0
28141007209,"Nueva Toltén",-39.20931,-73.1312,20070,zorro,fox,,,ˈŋɘ.ɻɘ,,,0
28141007209,"Nueva Toltén",-39.20931,-73.1312,20030,gato,cat,,,ˈnɐ̝ɻ.cɪ,,,0
28141007209,"Nueva Toltén",-39.20931,-73.1312,10200,liebre,hare,,,ˈmɐ̝.ɻɐ̝,,,0
28141007209,"Nueva Toltén",-39.20931,-73.1312,3420,gusano,worm,,,ˈpɪ.ɻʊ,,,0
28141007209,"Nueva Toltén",-39.20931,-73.1312,3430,piojo,louse,,,d̪ɘn,,,0
28141007209,"Nueva Toltén",-39.20931,-73.1312,3810,huevo,egg,,,ʊ.ˈɻɐ̝m,,,0
28141007209,"Nueva Toltén",-39.20931,-73.1312,10710,neblina,fog,,,ʈ͡ʂʊ.ˈkʊɻ,,,0
28141007209,"Nueva Toltén",-39.20931,-73.1312,5410,fuego,fire,,,ˈkɘ.t̺͡s̺ɐ̝l,,,0
28141007209,"Nueva Toltén",-39.20931,-73.1312,5510,piedra,stone,,,ˈhʊ.ɻɐ̝,,,0
28141007209,"Nueva Toltén",-39.20931,-73.1312,5430,ceniza,ash,,,ʈ͡ʂʊf.ˈkën,,,0
28141007209,"Nueva Toltén",-39.20931,-73.1312,10120,barro,mud,,,ˈfö.ʈ͡ʂɐ̝,,,0
28141007209,"Nueva Toltén",-39.20931,-73.1312,5850,viento,wind,,,kɘ.ˈɻɘf,,,0
28141007209,"Nueva Toltén",-39.20931,-73.1312,5840,nube,cloud,,,ˈʈ͡ʂö.mɘ,,,0
28141007209,"Nueva Toltén",-39.20931,-73.1312,10810,cielo_truenos,thundery_sky,,,ʈ͡ʂɐ̝l.ˌkɐ̝n.ˈwë.nʊ,,,0
28141007209,"Nueva Toltén",-39.20931,-73.1312,21530,hace_calor,it_is_hot,,,ɐ̝ː.ˌɻë.ˈŋëj,,,0
28141007209,"Nueva Toltén",-39.20931,-73.1312,21520,hace_frio,it_is_cold,,,wɘ̆.ˌʈ͡ʂë.ˈŋë,,,0
28141007209,"Nueva Toltén",-39.20931,-73.1312,6120,choclo,cob_of_corn,,,ˈʊ.wɐ̝,,,0
28141007209,"Nueva Toltén",-39.20931,-73.1312,20550,harina_tostada,toasted_flour,,,ˈmɘɻ.cʰë,,,0
28141007209,"Nueva Toltén",-39.20931,-73.1312,6510,casa,house,,,ˈɻʊ.kɐ̝ɐ̝̥,,,0
28141007209,"Nueva Toltén",-39.20931,-73.1312,30500,pueblo,town,,,ˈwɐ̝.ɻɪ.ɐ̝,,,0
28141007209,"Nueva Toltén",-39.20931,-73.1312,20890,arado,plough,,,ëɻ.ˈŋɐ̝n,,,0
28141007209,"Nueva Toltén",-39.20931,-73.1312,6810,camino,road,,,ˈɻɘ.pɘ,,,0
28141007209,"Nueva Toltén",-39.20931,-73.1312,8030,caminar,walk,,,t̺͡s̺ë.ˈkɐ̝n,,,0
28141007209,"Nueva Toltén",-39.20931,-73.1312,8110,estar_en_pie,be_standing,,,wɪ.ˌt̺͡s̺ɐ̝.bɘ.ˈɻɐ̝n,,,0
28141007209,"Nueva Toltén",-39.20931,-73.1312,10550,machacar,smash,,,ʈ͡ʂɐ̝.ˈnɐ̝n,,,0
28141007209,"Nueva Toltén",-39.20931,-73.1312,8830,empujar,push,,,ɘl.ˈt̺͡s̺ën,,,0
28141007209,"Nueva Toltén",-39.20931,-73.1312,20830,solamente,only,,,ˈcɪ.ʃʊ,,,0
28141007209,"Nueva Toltén",-39.20931,-73.1312,10450,solamente,alone,,,ɻë,,,0
28141007209,"Nueva Toltén",-39.20931,-73.1312,21050,demasiado,too_much,,,fën̪.ˈt̺͡s̺ën,,,0
28141007209,"Nueva Toltén",-39.20931,-73.1312,510,anyo,year,,,t̺͡s̺ɪ.ˈbɐ̝n̪.d̪ʊ,,,0
28141007209,"Nueva Toltén",-39.20931,-73.1312,20630,tambor,drum,,,ʊl.ˈʈ͡ʂʊn,,,0
28141007209,"Nueva Toltén",-39.20931,-73.1312,10800,cinta,headband,,,t̺͡s̺ɐ̝.ɻɪ.ˈlöŋ.kö,,,0
28141007209,"Nueva Toltén",-39.20931,-73.1312,10340,quebrar,shatter,,,ʈ͡ʂɐ̝.ˈfön,,,0
28141007209,"Nueva Toltén",-39.20931,-73.1312,10030,basta,enough,,,ˈfën̪.t̪ë̥,,,0
28141007209,"Nueva Toltén",-39.20931,-73.1312,6320,flor,flower,,,ɻɐ̝.ˈjën,,,0
28141007209,"Nueva Toltén",-39.20931,-73.1312,10430,cascada,waterfall,,,t̺͡s̺ɐ̝.ˈjën,,,0
28141007209,"Nueva Toltén",-39.20931,-73.1312,10090,plano,spread_out,,,lɐ̝f,,,0
28141007209,"Nueva Toltén",-39.20931,-73.1312,10310,greda_blanca,clay,,,ˈmɐ̝.jö,,,0
28141007209,"Nueva Toltén",-39.20931,-73.1312,10500,visita,visitor,,,wɪ.ˈt̺͡s̺ɐ̝n,,,0
28141007209,"Nueva Toltén",-39.20931,-73.1312,10510,telar,loom,,,wɪ.ˈt̺͡s̺ɐ̝l,,,0
28141007209,"Nueva Toltén",-39.20931,-73.1312,10070,estrujar,wring,,,kɘ.ˈʈ͡ʂɘn,,,0
28141007209,"Nueva Toltén",-39.20931,-73.1312,10590,verde,green,,,ˈkɐ̝.ɻɘ,,,0
28141007209,"Nueva Toltén",-39.20931,-73.1312,10600,cazuela,soup,,,ˈkö.ɻɘ,,,0
28141008509,Villarrica,-39.48612,-72.3038,70,siete,seven,,,ɻë.ˈɡlë,,,0
28141008509,Villarrica,-39.48612,-72.3038,80,ocho,eight,,,pʰʊ.ˈɻɐ̝,,,0
28141008509,Villarrica,-39.48612,-72.3038,100,diez,ten,,,mɐ̝.ˈɻɪ,,,0
28141008509,Villarrica,-39.48612,-72.3038,210,mil,thousand,,,wɐ̝.ˈɻɐ̝ŋ.kɐ̝,,,0
28141008509,Villarrica,-39.48612,-72.3038,7010,negro,black,,,kʊ.ˈɻɘ,,,0
28141008509,Villarrica,-39.48612,-72.3038,7860,pesado,heavy,,,fɐ̝.ˈnëj,,,0
28141008509,Villarrica,-39.48612,-72.3038,7910,caliente,warm,,,ɐ̝.ˈɻë,,,0
28141008509,Villarrica,-39.48612,-72.3038,20680,flaco,skinny,,,ʈ͡ʂöŋ.lɪ,,,0
28141008509,Villarrica,-39.48612,-72.3038,20690,gordo,fat,,,mö.ˈʈ͡ʂɪn,,,0
28141008509,Villarrica,-39.48612,-72.3038,2240,diente,tooth,,,fö.ˈɻö,,,0
28141008509,Villarrica,-39.48612,-72.3038,10560,mandibula,jaw,,,ˌʂɐ̝.ŋɐ̝.ˈʈ͡ʂɐ̝.ŋɐ̝,,,0
28141008509,Villarrica,-39.48612,-72.3038,2620,hueso,bone,,,fö.ˈɻö,,,0
28141008509,Villarrica,-39.48612,-72.3038,2630,piel,skin,,,ʂɐ̝.ˈwɐ̝,,,0
28141008509,Villarrica,-39.48612,-72.3038,2710,barriga,belly,,,pɘ̆.ˈʈ͡ʂɐ̝,,,0
28141008509,Villarrica,-39.48612,-72.3038,10620,esposa,wife,,,kʊ.ˈɻë,,,0
28141008509,Villarrica,-39.48612,-72.3038,10740,hombre,man,,,wën.ˈʈ͡ʂʊ,,,0
28141008509,Villarrica,-39.48612,-72.3038,21400,duenyo_casa,house_owner,,,ˌɲën.ˈɻʊ.kɐ̝,,,0
28141008509,Villarrica,-39.48612,-72.3038,3120,perro,dog,,,ʂë.ˈwɐ̝,,,0
28141008509,Villarrica,-39.48612,-72.3038,20070,zorro,fox,,,ŋɘ.ˈɻɘ,,,0
28141008509,Villarrica,-39.48612,-72.3038,20030,gato,cat,,,nɐ̝ɻ.ˈcʰɪ,,,0
28141008509,Villarrica,-39.48612,-72.3038,10200,liebre,hare,,,mɐ̝.ˈɻɐ̝,,,0
28141008509,Villarrica,-39.48612,-72.3038,3420,gusano,worm,,,pɪ.ˈʐʊ,,,0
28141008509,Villarrica,-39.48612,-72.3038,3430,piojo,louse,,,t̪ɘn,,,0
28141008509,Villarrica,-39.48612,-72.3038,3430,piojo,louse,,,pʈ̩̚.ˈʈɐ̝ɻ,,,0
28141008509,Villarrica,-39.48612,-72.3038,3810,huevo,egg,,,kʊ.ˈɻɐ̝m,,,0
28141008509,Villarrica,-39.48612,-72.3038,10710,neblina,fog,,,ʈʊ̆.ˈkʊɻː,,,0
28141008509,Villarrica,-39.48612,-72.3038,5410,fuego,fire,,,kɘ.ˈʈ͡ʂɐ̝l,,,0
28141008509,Villarrica,-39.48612,-72.3038,5510,piedra,stone,,,kʊ.ˈɻɐ̝,,,0
28141008509,Villarrica,-39.48612,-72.3038,5430,ceniza,ash,,,ʐʊ̆f.ˈkën,,,0
28141008509,Villarrica,-39.48612,-72.3038,5850,viento,wind,,,kʰɘː.ˈɻɘf,,,0
28141008509,Villarrica,-39.48612,-72.3038,5840,nube,cloud,,,ʐö.ˈmɘ,,,0
28141008509,Villarrica,-39.48612,-72.3038,10810,cielo_truenos,thundery_sky,,,ʈ͡ʂɐ̝l.ˌkɐ̝n.wë.ˈnʊ,,,0
28141008509,Villarrica,-39.48612,-72.3038,21530,hace_calor,it_is_hot,,,ˌɐ̝.ɻë.ˈŋëj,,,0
28141008509,Villarrica,-39.48612,-72.3038,21520,hace_frio,it_is_cold,,,ˌwɘ.ʈ͡ʂë.ˈŋë,,,0
28141008509,Villarrica,-39.48612,-72.3038,6120,choclo,cob_of_corn,,,ʊ.ˈwɐ̝,,,0
28141008509,Villarrica,-39.48612,-72.3038,20550,harina_tostada,toasted_flour,,,mɘɻ.ˈcë,,,0
28141008509,Villarrica,-39.48612,-72.3038,6510,casa,house,,,ɻʊ.ˈkɐ̝,,,0
28141008509,Villarrica,-39.48612,-72.3038,30500,pueblo,town,,,wɐ̝.ˈɻɪ.ɐ̝,,,0
28141008509,Villarrica,-39.48612,-72.3038,6810,camino,road,,,ɻɘ.ˈpɘ,,,0
28141008509,Villarrica,-39.48612,-72.3038,8030,caminar,walk,,,ʈ͡ʂë.kɐ̝.ˈt̪ʊn,,,0
28141008509,Villarrica,-39.48612,-72.3038,8110,estar_en_pie,be_standing,,,ˌʊ.ʈ͡ʂɐ̝.ˈlën,,,0
28141008509,Villarrica,-39.48612,-72.3038,10550,machacar,smash,,,ˌʂɐ̝.nɐ̝.ˈt̪ʊn,,,0
28141008509,Villarrica,-39.48612,-72.3038,8830,empujar,push,,,ɐ̝l.ˈʈ͡ʂön,,,0
28141008509,Villarrica,-39.48612,-72.3038,20830,solamente,only,,,kʰɪ.ˈsʊ,,,0
28141008509,Villarrica,-39.48612,-72.3038,21050,demasiado,too_much,,,fën.ˈʈ͡ʂën,,,0
28141008509,Villarrica,-39.48612,-72.3038,510,anyo,year,,,ˌʂɪ.ˈpɐ̝n̪.t̪ʊ,,,0
28141008509,Villarrica,-39.48612,-72.3038,20630,tambor,drum,,,kʊl.ˈʈ͡ʂʊŋ,,,0
28141008509,Villarrica,-39.48612,-72.3038,10800,cinta,headband,,,ˌʈ͡ʂɐ̝.ɻɪ.ˈlöŋ.kö,,,0
28141008509,Villarrica,-39.48612,-72.3038,6320,flor,flower,,,ɻɐ̝.ˈʝën,,,0
28141008509,Villarrica,-39.48612,-72.3038,10430,cascada,waterfall,,,ʂɐ̝.ˈjën,,,0
28141008509,Villarrica,-39.48612,-72.3038,10090,plano,spread_out,,,lɐ̝f,,,0
28141008509,Villarrica,-39.48612,-72.3038,10310,greda_blanca,clay,,,mɐ̝.ˈʎö,,,0
28141008509,Villarrica,-39.48612,-72.3038,10500,visita,visitor,,,wɪ̆.ˈʈ͡ʂɐ̝n,,,0
28141008509,Villarrica,-39.48612,-72.3038,10510,telar,loom,,,wɪ.ˈʈ͡ʂɐ̝l,,,0
28141008509,Villarrica,-39.48612,-72.3038,10070,estrujar,wring,,,kɘ̆.ʂɘn,,,0
28141008509,Villarrica,-39.48612,-72.3038,10590,verde,green,,,kʰɐ̝.ˈʐɘ,,,0
28141008509,Villarrica,-39.48612,-72.3038,10600,cazuela,soup,,,kʰö.ˈɻɘ,,,0
28141008909,Curarrehue,-39.46788,-71.55193,70,siete,seven,,,ˈɭëj.lë,,,0
28141008909,Curarrehue,-39.46788,-71.55193,80,ocho,eight,,,ˈpʊ.ɻɐ̝,,,0
28141008909,Curarrehue,-39.46788,-71.55193,100,diez,ten,,,ˈmɐ̝.ɭɪ,,,0
28141008909,Curarrehue,-39.46788,-71.55193,210,mil,thousand,,,wɐ̝.ˈɻɐ̝ŋ.kɐ̝,,,0
28141008909,Curarrehue,-39.46788,-71.55193,7010,negro,black,,,kʊ.ˈɻɘ,,,0
28141008909,Curarrehue,-39.46788,-71.55193,7860,pesado,heavy,,,fɐ̝.ˈnëj,,,0
28141008909,Curarrehue,-39.46788,-71.55193,7910,caliente,warm,,,ɐ̝.ˈɻë.lɪ,,,0
28141008909,Curarrehue,-39.46788,-71.55193,20680,flaco,skinny,,,ˈʈ͡ʂöŋ.lɪ,,,0
28141008909,Curarrehue,-39.46788,-71.55193,20690,gordo,fat,,,mö.ˈʈʰɪn,,,0
28141008909,Curarrehue,-39.46788,-71.55193,2240,diente,tooth,,,fö.ˈɻö,,,0
28141008909,Curarrehue,-39.46788,-71.55193,10560,mandibula,jaw,,,ˌʈ͡ʂɐ̝.ŋɐ̝.ˈʈ͡ʂɐ̝.ŋɐ̝,,,0
28141008909,Curarrehue,-39.46788,-71.55193,2620,hueso,bone,,,fö.ˈɻö,,,0
28141008909,Curarrehue,-39.46788,-71.55193,2630,piel,skin,,,ʈ͡ʂɐ̝.ˈwɐ̝,,,0
28141008909,Curarrehue,-39.46788,-71.55193,2710,barriga,belly,,,pɘ̆.ˈʈ͡ʂɐ̝,,,0
28141008909,Curarrehue,-39.46788,-71.55193,10620,esposa,wife,,,kʊ.ˈɻë,,,0
28141008909,Curarrehue,-39.46788,-71.55193,10740,hombre,man,,,wën.ˈʈ͡ʂʊ,,,0
28141008909,Curarrehue,-39.46788,-71.55193,21400,duenyo_casa,house_owner,,,ˌɲën.ˈɻʊ.kɐ̝,,,0
28141008909,Curarrehue,-39.46788,-71.55193,3120,perro,dog,,,ʈ͡ʂë.ˈwɐ̝,,,0
28141008909,Curarrehue,-39.46788,-71.55193,20070,zorro,fox,,,ŋɘ.ˈɻɘ,,,0
28141008909,Curarrehue,-39.46788,-71.55193,20030,gato,cat,,,ˈnɐ̝ɻ.kë,,,0
28141008909,Curarrehue,-39.46788,-71.55193,10200,liebre,hare,,,mɐ̝.ˈɭɐ̝,,,0
28141008909,Curarrehue,-39.46788,-71.55193,3420,gusano,worm,,,pɪ.ˈɻʊ,,,0
28141008909,Curarrehue,-39.46788,-71.55193,3430,piojo,louse,,,t̪ʊn,,,0
28141008909,Curarrehue,-39.46788,-71.55193,3810,huevo,egg,,,kʊ.ˈɻɐ̝m,,,0
28141008909,Curarrehue,-39.46788,-71.55193,10710,neblina,fog,,,ʈ͡ʂk̩̚.ˈkʊɻ,,,0
28141008909,Curarrehue,-39.46788,-71.55193,5410,fuego,fire,,,kʰʈ̩̚.ˈʈ͡ʂɐ̝l,,,0
28141008909,Curarrehue,-39.46788,-71.55193,5510,piedra,stone,,,kʊ.ˈɻɐ̝,,,0
28141008909,Curarrehue,-39.46788,-71.55193,5430,ceniza,ash,,,ʈ͡ʂʊf.ˈkën,,,0
28141008909,Curarrehue,-39.46788,-71.55193,5850,viento,wind,,,kɘ.ˈɻɘf,,,0
28141008909,Curarrehue,-39.46788,-71.55193,5850,viento,wind,,,wɪ.ˈʈ͡ʂë,,,0
28141008909,Curarrehue,-39.46788,-71.55193,5840,nube,cloud,,,ʈ͡ʂɐ̝w.ˈmɘ,,,0
28141008909,Curarrehue,-39.46788,-71.55193,10810,cielo_truenos,thundery_sky,,,ʈ͡ʂɐ̝l.ˌkɐ̝n.wë.ˈnʊ,,,0
28141008909,Curarrehue,-39.46788,-71.55193,21530,hace_calor,it_is_hot,,,ɐ̝.ˈɻë.ŋɪ,,,0
28141008909,Curarrehue,-39.46788,-71.55193,21520,hace_frio,it_is_cold,,,ʊ.ˈʈ͡ʂë.ŋɪ,,,0
28141008909,Curarrehue,-39.46788,-71.55193,6120,choclo,cob_of_corn,,,ʊ.ˈwɐ̝,,,0
28141008909,Curarrehue,-39.46788,-71.55193,20550,harina_tostada,toasted_flour,,,mɘɻ.ˈkʰë,,,0
28141008909,Curarrehue,-39.46788,-71.55193,6510,casa,house,,,ˈɻʊ.kɐ̝,,,0
28141008909,Curarrehue,-39.46788,-71.55193,30500,pueblo,town,,,ˌwɐ̝.ɻɪ.ˈɐ̝,,,0
28141008909,Curarrehue,-39.46788,-71.55193,20890,arado,plough,,,ɐ̝.ˈɻɐ̝.ɻö,,,0
28141008909,Curarrehue,-39.46788,-71.55193,6810,camino,road,,,ɻɘ.ˈpɘ,,,0
28141008909,Curarrehue,-39.46788,-71.55193,8030,caminar,walk,,,ʈ͡ʂë.ˈkɐ̝.t̪ʊn,,,0
28141008909,Curarrehue,-39.46788,-71.55193,8110,estar_en_pie,be_standing,,,ˌʊ.ʈ͡ʂɐ̝.ˈlën,,,0
28141008909,Curarrehue,-39.46788,-71.55193,10550,machacar,smash,,,ˈʈ͡ʂɐ̝.nɐ̝n,,,0
28141008909,Curarrehue,-39.46788,-71.55193,21050,demasiado,too_much,,,fën.ˈʈ͡ʂë,,,0
28141008909,Curarrehue,-39.46788,-71.55193,510,anyo,year,,,ˌʈ͡ʂɪ.ˈpɐ̝n̪.t̪ö,,,0
28141008909,Curarrehue,-39.46788,-71.55193,20630,tambor,drum,,,kʊl.ˈʈ͡ʂʊŋ,,,0
28141008909,Curarrehue,-39.46788,-71.55193,10800,cinta,headband,,,ˌʈ͡ʂɐ̝.ɻɪ.ˈlöŋ.kö,,,0
28141008909,Curarrehue,-39.46788,-71.55193,10340,quebrar,shatter,,,ʈ͡ʂɐ̝.ˈfön,,,0
28141008909,Curarrehue,-39.46788,-71.55193,10030,basta,enough,,,mn̩.ˈnɐ̝,,,0
28141008909,Curarrehue,-39.46788,-71.55193,6320,flor,flower,,,ɻɐ̝.ˈjën,,,0
28141008909,Curarrehue,-39.46788,-71.55193,10430,cascada,waterfall,,,ʈ͡ʂɐ̝.ˈjën,,,0
28141008909,Curarrehue,-39.46788,-71.55193,10090,plano,spread_out,,,lɐ̝f,,,0
28141008909,Curarrehue,-39.46788,-71.55193,10310,greda_blanca,clay,,,mɐ̝.ˈjö,,,0
28141008909,Curarrehue,-39.46788,-71.55193,10500,visita,visitor,,,ʊ.ˈʈ͡ʂɐ̝n,,,0
28141008909,Curarrehue,-39.46788,-71.55193,10510,telar,loom,,,ʊ.ˈʈ͡ʂɐ̝l,,,0
28141008909,Curarrehue,-39.46788,-71.55193,10070,estrujar,wring,,,kʰʈ̩̚.ˈʈ͡ʂɐ̝.ɦɪn,,,0
28141008909,Curarrehue,-39.46788,-71.55193,10080,atado,tied_up,,,kʰʈ̩̚.ˈʈ͡ʂɘŋ,,,0
28141008909,Curarrehue,-39.46788,-71.55193,10590,verde,green,,,kʰɐ̝.ˈɻɘ,,,0
28141008909,Curarrehue,-39.46788,-71.55193,10600,cazuela,soup,,,ˈkö.ɻɘ,,,0
28151000109,Mariquina,-39.45147,-73.26457,70,siete,seven,,,ˈɽël.ɣ̞ë,,,0
28151000109,Mariquina,-39.45147,-73.26457,80,ocho,eight,,,ˈkʊ.ɻɐ̝,,,0
28151000109,Mariquina,-39.45147,-73.26457,100,diez,ten,,,ˈmɐ̝.ɻɪ,,,0
28151000109,Mariquina,-39.45147,-73.26457,210,mil,thousand,,,wɐ̝.ˈɻɐ̝ŋ.kʰɐ̝̥,,,0
28151000109,Mariquina,-39.45147,-73.26457,7010,negro,black,,,kʊɻ,,,0
28151000109,Mariquina,-39.45147,-73.26457,7860,pesado,heavy,,,fɐ̝.ˈnëj,,,0
28151000109,Mariquina,-39.45147,-73.26457,7910,caliente,warm,,,ˈɐ̝.ɻë,,,0
28151000109,Mariquina,-39.45147,-73.26457,20680,flaco,skinny,,,ˈt͡ɹ̝̥öŋ.ɡl̥ɪ̥,,,0
28151000109,Mariquina,-39.45147,-73.26457,20690,gordo,fat,,,mö.ˈt̺͡s̺ɪn,,,0
28151000109,Mariquina,-39.45147,-73.26457,2240,diente,tooth,,,ˈp͡ɸö.ɻö,,,0
28151000109,Mariquina,-39.45147,-73.26457,10560,mandibula,jaw,,,ˌʈ͡ʂɐ̝.ŋɐ̝.ˈʂɐ̝.ŋɐ̝,,,0
28151000109,Mariquina,-39.45147,-73.26457,2620,hueso,bone,,,ˈfö.ɻö,,,0
28151000109,Mariquina,-39.45147,-73.26457,2630,piel,skin,,,ˈʈ͡ʂɐ̝.wɐ̝,,,0
28151000109,Mariquina,-39.45147,-73.26457,2710,barriga,belly,,,ˈpɘ.ʈ͡ʂɐ̝̥,,,0
28151000109,Mariquina,-39.45147,-73.26457,2710,barriga,belly,,,ˈɐ̝ŋ.kʰɐ̝,,,0
28151000109,Mariquina,-39.45147,-73.26457,10620,esposa,wife,,,ˈkʊ.ɻë,,,0
28151000109,Mariquina,-39.45147,-73.26457,10740,hombre,man,,,ˈwën.ʈ͡ʂʊ̥,,,0
28151000109,Mariquina,-39.45147,-73.26457,21400,duenyo_casa,house_owner,,,ˌɲën.ˈɻʊ.kɐ̝,,,0
28151000109,Mariquina,-39.45147,-73.26457,3120,perro,dog,,,ˈdɾë.wɐ̝,,,0
28151000109,Mariquina,-39.45147,-73.26457,20070,zorro,fox,,,ˈŋɘ.ɻɘ,,,0
28151000109,Mariquina,-39.45147,-73.26457,20030,gato,cat,,,ˈnɐ̝r.cʰɪ̥,,,0
28151000109,Mariquina,-39.45147,-73.26457,10200,liebre,hare,,,ˈmɐ̝.ɻɐ̝,,,0
28151000109,Mariquina,-39.45147,-73.26457,3420,gusano,worm,,,ˈpɪ.ɻʊ,,,0
28151000109,Mariquina,-39.45147,-73.26457,3430,piojo,louse,,,t̪ʊm,,,0
28151000109,Mariquina,-39.45147,-73.26457,3810,huevo,egg,,,kʊ.ˈɻɐ̝m,,,0
28151000109,Mariquina,-39.45147,-73.26457,10710,neblina,fog,,,t͡ɹ̝̥ʊ.ˈkɐ̝n,,,0
28151000109,Mariquina,-39.45147,-73.26457,5410,fuego,fire,,,kɘ̆.ˈt͡ɹ̝̥ɐ̝l,,,0
28151000109,Mariquina,-39.45147,-73.26457,5510,piedra,stone,,,ˈkʊ.ɻɐ̝,,,0
28151000109,Mariquina,-39.45147,-73.26457,5430,ceniza,ash,,,ʈ͡ʂʊf.ˈcʰën,,,0
28151000109,Mariquina,-39.45147,-73.26457,10120,barro,mud,,,ˈföʈ̚.ʂɐ̝,,,0
28151000109,Mariquina,-39.45147,-73.26457,10120,barro,mud,,,ˈpë.lë,,,0
28151000109,Mariquina,-39.45147,-73.26457,5850,viento,wind,,,ˈkɘ.ɻɘf,,,0
28151000109,Mariquina,-39.45147,-73.26457,5850,viento,wind,,,ˈwɘ.t͡ɹ̝̥ë,,,0
28151000109,Mariquina,-39.45147,-73.26457,5840,nube,cloud,,,ˈt͡ɹ̝̥ö.mö,,,0
28151000109,Mariquina,-39.45147,-73.26457,10810,cielo_truenos,thundery_sky,,,ʂɐ̝l.ˌkɐ̝.ˈwë.nʊ,,,0
28151000109,Mariquina,-39.45147,-73.26457,21530,hace_calor,it_is_hot,,,ˌɐ̝.ɻë.ˈŋëj,,,0
28151000109,Mariquina,-39.45147,-73.26457,21520,hace_frio,it_is_cold,,,ˌwɘ.t̺͡s̺ë.ˈŋë,,,0
28151000109,Mariquina,-39.45147,-73.26457,6120,choclo,cob_of_corn,,,ˈʊ.wɐ̝,,,0
28151000109,Mariquina,-39.45147,-73.26457,6120,choclo,cob_of_corn,,,ˌkɐ̝.ˈɻʊ.ɐ̝,,,0
28151000109,Mariquina,-39.45147,-73.26457,20550,harina_tostada,toasted_flour,,,ˈmɘɻ.kʰë̥,,,0
28151000109,Mariquina,-39.45147,-73.26457,6510,casa,house,,,ˈɻʊ.kʰɐ̝,,,0
28151000109,Mariquina,-39.45147,-73.26457,30500,pueblo,town,,,wɐ̝.ˈɻɪ.ɐ̝,,,0
28151000109,Mariquina,-39.45147,-73.26457,20890,arado,plough,,,ɐ̝.ˈɻɐ̝w,,,0
28151000109,Mariquina,-39.45147,-73.26457,6810,camino,road,,,ˈɻɘ.pɪ,,,0
28151000109,Mariquina,-39.45147,-73.26457,8030,caminar,walk,,,ʂë.ˈkɐ̝j,,,0
28151000109,Mariquina,-39.45147,-73.26457,8110,estar_en_pie,be_standing,,,wɘ.ˌt͡ɹ̝̥ɐ̝.ˈlëj,,,0
28151000109,Mariquina,-39.45147,-73.26457,10550,machacar,smash,,,ʈ͡ʂɐ̝.ˈnɐ̝n,,,0
28151000109,Mariquina,-39.45147,-73.26457,8830,empujar,push,,,ɻʊ.ˈt̪ʊn,,,0
28151000109,Mariquina,-39.45147,-73.26457,20830,solamente,only,,,ˈkʰɪ.jʊ,,,0
28151000109,Mariquina,-39.45147,-73.26457,10450,solamente,alone,,,rë,,,0
28151000109,Mariquina,-39.45147,-73.26457,21050,demasiado,too_much,,,fën̪.ˈt̪ën,,,0
28151000109,Mariquina,-39.45147,-73.26457,510,anyo,year,,,ˌd̪ɾɪ.ˈpɐ̝n̪.t̪ö,,,0
28151000109,Mariquina,-39.45147,-73.26457,20630,tambor,drum,,,kʊl.ˈtɾʊn,,,0
28151000109,Mariquina,-39.45147,-73.26457,10800,cinta,headband,,,ˌt͡ɹ̝̥ɐ̝.ɻɪ.ˈlöŋ.kö̥,,,0
28151000109,Mariquina,-39.45147,-73.26457,10340,quebrar,shatter,,,ʂɐ̝.ˈföj,,,0
28151000109,Mariquina,-39.45147,-73.26457,10030,basta,enough,,,ˈfën̪.t̪ë,,,0
28151000109,Mariquina,-39.45147,-73.26457,6320,flor,flower,,,ɻɐ̝.ˈʝɪn,,,0
28151000109,Mariquina,-39.45147,-73.26457,10430,cascada,waterfall,,,tɾɐ̝.ˈjën,,,0
28151000109,Mariquina,-39.45147,-73.26457,10090,plano,spread_out,,,lɐ̝f,,,0
28151000109,Mariquina,-39.45147,-73.26457,10310,greda_blanca,clay,,,ˈmɐ̝.jö,,,0
28151000109,Mariquina,-39.45147,-73.26457,10500,visita,visitor,,,ˌwɪ.ˈʈ͡ʂɐ̝m,,,0
28151000109,Mariquina,-39.45147,-73.26457,10510,telar,loom,,,wɪ.ˈʈ͡ʂɐ̝l,,,0
28151000109,Mariquina,-39.45147,-73.26457,10070,estrujar,wring,,,kɘ̆.ˈʈ͡ʂɘn,,,0
28151000109,Mariquina,-39.45147,-73.26457,10080,atado,tied_up,,,ˌkʊ.ˈʈ͡ʂɘm,,,0
28151000109,Mariquina,-39.45147,-73.26457,10590,verde,green,,,ˈkɐ̝.ɻɘ,,,0
28151000109,Mariquina,-39.45147,-73.26457,10600,cazuela,soup,,,ˈkö.ɻɘ,,,0
28151000409,Lanco,-39.5046,-72.44441,70,siete,seven,,,ˈɽëɣ̞.lë,,,0
28151000409,Lanco,-39.5046,-72.44441,80,ocho,eight,,,ˈpʊ.ɻɐ̝,,,0
28151000409,Lanco,-39.5046,-72.44441,100,diez,ten,,,ˈmɐ̝.ɻɪ,,,0
28151000409,Lanco,-39.5046,-72.44441,210,mil,thousand,,,wɐ̝.ˈɻɐ̝ŋ.kʰɐ̝,,,0
28151000409,Lanco,-39.5046,-72.44441,7010,negro,black,,,ˈkʰʊ.ʐʊ,,,0
28151000409,Lanco,-39.5046,-72.44441,7860,pesado,heavy,,,fɐ̝.ˈnëj,,,0
28151000409,Lanco,-39.5046,-72.44441,7910,caliente,warm,,,ˌɐ̝.ɻël.ˈëjç,,,0
28151000409,Lanco,-39.5046,-72.44441,20680,flaco,skinny,,,ˈʈ͡ʂöŋ.ɡlɪ,,,0
28151000409,Lanco,-39.5046,-72.44441,20690,gordo,fat,,,mö.ˈt̺͡s̺ɪn,,,0
28151000409,Lanco,-39.5046,-72.44441,2240,diente,tooth,,,ɸ̞ö.ˈɻö,,,0
28151000409,Lanco,-39.5046,-72.44441,10560,mandibula,jaw,,,ˌt̺͡s̺ɐ̝.ŋɐ̝.ˈt̺͡s̺ɐ̝.ŋɐ̝,,,0
28151000409,Lanco,-39.5046,-72.44441,2620,hueso,bone,,,ɸö.ˈɻö,,,0
28151000409,Lanco,-39.5046,-72.44441,2630,piel,skin,,,ˈt̺͡s̺ɐ̝.wɐ̝,,,0
28151000409,Lanco,-39.5046,-72.44441,2710,barriga,belly,,,ˈpɘ.ʈ͡ʂɐ̝̥,,,0
28151000409,Lanco,-39.5046,-72.44441,2710,barriga,belly,,,ˈɐ̝ŋ.kɐ̝̥,,,0
28151000409,Lanco,-39.5046,-72.44441,10620,esposa,wife,,,ˈkʊ.ʐë,,,0
28151000409,Lanco,-39.5046,-72.44441,10740,hombre,man,,,ˈwën.tɾʊ,,,0
28151000409,Lanco,-39.5046,-72.44441,21400,duenyo_casa,house_owner,,,ˌɲën.ˈɽʊ.kɐ̝,,,0
28151000409,Lanco,-39.5046,-72.44441,3120,perro,dog,,,ʈ͡ʂë.ˈwɐ̝,,,0
28151000409,Lanco,-39.5046,-72.44441,20070,zorro,fox,,,ŋɘ.ˈɻɘ,,,0
28151000409,Lanco,-39.5046,-72.44441,20030,gato,cat,,,nɐ̝ɻ.ˈcʰɪ,,,0
28151000409,Lanco,-39.5046,-72.44441,10200,liebre,hare,,,mɐ̝.ˈɻɐ̝,,,0
28151000409,Lanco,-39.5046,-72.44441,3420,gusano,worm,,,ˈpɪ.ɻʊ,,,0
28151000409,Lanco,-39.5046,-72.44441,3430,piojo,louse,,,pɘ.ˈʈ͡ʂɐ̝ɻʂ,,,0
28151000409,Lanco,-39.5046,-72.44441,3810,huevo,egg,,,kʊ.ˈʐɐ̝m,,,0
28151000409,Lanco,-39.5046,-72.44441,10710,neblina,fog,,,ʈ͡ʂʊ̥.ˈkʊʂ,,,0
28151000409,Lanco,-39.5046,-72.44441,5410,fuego,fire,,,kʰɘ.ˈʈ͡ʂɐ̝l,,,0
28151000409,Lanco,-39.5046,-72.44441,5510,piedra,stone,,,kʊ.ˈɻɐ̝,,,0
28151000409,Lanco,-39.5046,-72.44441,5430,ceniza,ash,,,t̺͡s̺ʊf.ˈkën,,,0
28151000409,Lanco,-39.5046,-72.44441,5430,ceniza,ash,,,t͡ʃɘl.ˈpën,,,0
28151000409,Lanco,-39.5046,-72.44441,10120,barro,mud,,,ˈwö.t̺͡s̺ɐ̝,,,0
28151000409,Lanco,-39.5046,-72.44441,5850,viento,wind,,,kɘ.ˈʐɘf,,,0
28151000409,Lanco,-39.5046,-72.44441,5840,nube,cloud,,,ˈʈ͡ʂö.mɘ,,,0
28151000409,Lanco,-39.5046,-72.44441,10810,cielo_truenos,thundery_sky,,,ˌt̺͡s̺ɐ̝l.kʰɐ̝n.ˈwë.nʊ,,,0
28151000409,Lanco,-39.5046,-72.44441,21530,hace_calor,it_is_hot,,,ɐ̝.ɻë.ˈŋëj,,,0
28151000409,Lanco,-39.5046,-72.44441,21520,hace_frio,it_is_cold,,,ˌʊ.ʈ͡ʂë.ˈŋë,,,0
28151000409,Lanco,-39.5046,-72.44441,6120,choclo,cob_of_corn,,,ˈʊ.wɐ̝,,,0
28151000409,Lanco,-39.5046,-72.44441,6120,choclo,cob_of_corn,,,kʰɐ̝.ˈʐʊ.wɐ̝,,,0
28151000409,Lanco,-39.5046,-72.44441,20550,harina_tostada,toasted_flour,,,mɘɻ.ˈcʰë,,,0
28151000409,Lanco,-39.5046,-72.44441,6510,casa,house,,,ɳ̩.ˌʐʊ.ˈkɐ̝,,,0
28151000409,Lanco,-39.5046,-72.44441,30500,pueblo,town,,,wɐ̝.ˈɻɪ.ɐ̝,,,0
28151000409,Lanco,-39.5046,-72.44441,6810,camino,road,,,ˈɖ͡ʐɘ.pɘ,,,0
28151000409,Lanco,-39.5046,-72.44441,8030,caminar,walk,,,ʈ͡ʂë.ˈkɐ̝n,,,0
28151000409,Lanco,-39.5046,-72.44441,8110,estar_en_pie,be_standing,,,ˌʊ.ʈ͡ʂɐ̝.ˈlën,,,0
28151000409,Lanco,-39.5046,-72.44441,10550,machacar,smash,,,ˈt̺͡s̺ɐ̝.nɐ̝,,,0
28151000409,Lanco,-39.5046,-72.44441,20830,solamente,only,,,ˈcʰɪ.ʃʊ,,,0
28151000409,Lanco,-39.5046,-72.44441,21050,demasiado,too_much,,,hën.ˈʈ͡ʂën,,,0
28151000409,Lanco,-39.5046,-72.44441,510,anyo,year,,,ʈ͡ʂɪ.ˈpɐ̝n̪.t̪ʊ̥,,,0
28151000409,Lanco,-39.5046,-72.44441,20630,tambor,drum,,,kʊl.ˈʈ͡ʂʊŋ,,,0
28151000409,Lanco,-39.5046,-72.44441,10800,cinta,headband,,,ˌʈ͡ʂɐ̝.ɻɪ.ˈlöŋ.kö,,,0
28151000409,Lanco,-39.5046,-72.44441,10340,quebrar,shatter,,,ʈ͡ʂɐ̝.ˈfön,,,0
28151000409,Lanco,-39.5046,-72.44441,10030,basta,enough,,,ɸ̞ën.ˈʈ͡ʂën,,,0
28151000409,Lanco,-39.5046,-72.44441,10030,basta,enough,,,mɘ.ˈnɐ̝,,,0
28151000409,Lanco,-39.5046,-72.44441,6320,flor,flower,,,n̩.ˌɖ͡ʐɐ̝.ˈjën,,,0
28151000409,Lanco,-39.5046,-72.44441,10430,cascada,waterfall,,,ʈ͡ʂɐ̝j.ˈɣën,,,0
28151000409,Lanco,-39.5046,-72.44441,10090,plano,spread_out,,,lɐ̝f,,,0
28151000409,Lanco,-39.5046,-72.44441,10500,visita,visitor,,,wɪ.ˈt͡ɹ̝̥ɐ̝n,,,0
28151000409,Lanco,-39.5046,-72.44441,10510,telar,loom,,,wɘ.ˈʈ͡ʂɐ̝l,,,0
28151000409,Lanco,-39.5046,-72.44441,10590,verde,green,,,kʰɐ̝.ˈʐɘ,,,0
28151000409,Lanco,-39.5046,-72.44441,10600,cazuela,soup,,,ˈkʰö.ʐɘ,,,0
28151000709,Panguipulli,-39.54399,-72.12614,70,siete,seven,,,ˈʐël.ʝë,,,0
28151000709,Panguipulli,-39.54399,-72.12614,80,ocho,eight,,,ˈbʊ.ɻɐ̝,,,0
28151000709,Panguipulli,-39.54399,-72.12614,100,diez,ten,,,ˈmɐ̝.ɻɪ̥,,,0
28151000709,Panguipulli,-39.54399,-72.12614,210,mil,thousand,,,wɐ̝.ˈɻɐ̝ŋ.kʰɐ̝ɐ̝̥̯,,,0
28151000709,Panguipulli,-39.54399,-72.12614,7010,negro,black,,,ˈkʊ.ʐɘ,,,0
28151000709,Panguipulli,-39.54399,-72.12614,7860,pesado,heavy,,,fɐ̝.ˈnɪ,,,0
28151000709,Panguipulli,-39.54399,-72.12614,7910,caliente,warm,,,ˌɐ̝.ɻë.ˈŋɪ,,,0
28151000709,Panguipulli,-39.54399,-72.12614,20680,flaco,skinny,,,ˈt͡ɹ̝̥öŋ.lɪ,,,0
28151000709,Panguipulli,-39.54399,-72.12614,20690,gordo,fat,,,mö.ˈɹ̝̥ɪn,,,0
28151000709,Panguipulli,-39.54399,-72.12614,2240,diente,tooth,,,ˈfö.ɻö,,,0
28151000709,Panguipulli,-39.54399,-72.12614,10560,mandibula,jaw,,,ˌt͡ɹ̝̥ɐ̝.ŋɐ̝.ˈt͡ɹ̝̥ɐ̝.ŋɐ̝,,,0
28151000709,Panguipulli,-39.54399,-72.12614,2620,hueso,bone,,,ˈfö.ɻö,,,0
28151000709,Panguipulli,-39.54399,-72.12614,2630,piel,skin,,,ˈt̺͡s̺ɐ̝.wɐ̝,,,0
28151000709,Panguipulli,-39.54399,-72.12614,2710,barriga,belly,,,ˈpɘ.t͡ɹ̝̥ɐ̝,,,0
28151000709,Panguipulli,-39.54399,-72.12614,2710,barriga,belly,,,pʊ.ˈwë,,,0
28151000709,Panguipulli,-39.54399,-72.12614,10620,esposa,wife,,,ˈkʊ.ɹ̝ë,,,0
28151000709,Panguipulli,-39.54399,-72.12614,10740,hombre,man,,,ˈwën.t͡ɹ̝̥ö,,,0
28151000709,Panguipulli,-39.54399,-72.12614,21400,duenyo_casa,house_owner,,,ˌɲën.ˈʐʊ.kɐ̝,,,0
28151000709,Panguipulli,-39.54399,-72.12614,3120,perro,dog,,,ˈʂë.wɐ̝,,,0
28151000709,Panguipulli,-39.54399,-72.12614,20070,zorro,fox,,,ŋɘ.ʐɘ,,,0
28151000709,Panguipulli,-39.54399,-72.12614,20030,gato,cat,,,ˈnɐ̝ɻ.cɪ,,,0
28151000709,Panguipulli,-39.54399,-72.12614,10200,liebre,hare,,,ˈmɐ̝.ɻɐ̝ɐ̝̥̯,,,0
28151000709,Panguipulli,-39.54399,-72.12614,3420,gusano,worm,,,ˈpɪ.ʐʊ,,,0
28151000709,Panguipulli,-39.54399,-72.12614,3430,piojo,louse,,,t̪ɘn,,,0
28151000709,Panguipulli,-39.54399,-72.12614,3810,huevo,egg,,,kʊ.ˈɻɐ̝m,,,0
28151000709,Panguipulli,-39.54399,-72.12614,10710,neblina,fog,,,t͡ɹ̝̥ʊ.ˈkʊʐ,,,0
28151000709,Panguipulli,-39.54399,-72.12614,5410,fuego,fire,,,kʰt̩̚.ˈt͡ɹ̝̥ɐ̝l,,,0
28151000709,Panguipulli,-39.54399,-72.12614,5510,piedra,stone,,,kʊ.ˈʐɐ̝,,,0
28151000709,Panguipulli,-39.54399,-72.12614,5430,ceniza,ash,,,t͡ɹ̝̥ʊf.ˈkën,,,0
28151000709,Panguipulli,-39.54399,-72.12614,10120,barro,mud,,,ˈfö.t͡ɹ̝̥ɐ̝̥,,,0
28151000709,Panguipulli,-39.54399,-72.12614,5850,viento,wind,,,kɘ.ˈɻɘf,,,0
28151000709,Panguipulli,-39.54399,-72.12614,5840,nube,cloud,,,ˈt͡ɹ̝̥ö.mɘ,,,0
28151000709,Panguipulli,-39.54399,-72.12614,10810,cielo_truenos,thundery_sky,,,ˌt͡ɹ̝̥ɐ̝l.kɐ̝n.ˈwë.nö,,,0
28151000709,Panguipulli,-39.54399,-72.12614,21530,hace_calor,it_is_hot,,,ˌɐ̝.ɻë.ˈŋɪ,,,0
28151000709,Panguipulli,-39.54399,-72.12614,21520,hace_frio,it_is_cold,,,wɘ.ˈt͡ɹ̝̥ën,,,0
28151000709,Panguipulli,-39.54399,-72.12614,6120,choclo,cob_of_corn,,,ˈɘʊ̯.wɐ̝,,,0
28151000709,Panguipulli,-39.54399,-72.12614,20550,harina_tostada,toasted_flour,,,ˈmɘʃ.kë,,,0
28151000709,Panguipulli,-39.54399,-72.12614,6510,casa,house,,,ˈɻʊ.kɐ̝ɐ̝̥̯,,,0
28151000709,Panguipulli,-39.54399,-72.12614,30500,pueblo,town,,,wɐ̝.ˈʐɪ.ɐ̝,,,0
28151000709,Panguipulli,-39.54399,-72.12614,20890,arado,plough,,,ɻɘ.ˈŋɐ̝n,,,0
28151000709,Panguipulli,-39.54399,-72.12614,6810,camino,road,,,ˈɻɘ.pɘ,,,0
28151000709,Panguipulli,-39.54399,-72.12614,8030,caminar,walk,,,t͡ɹ̝̥ë.ˈkɐ̝n,,,0
28151000709,Panguipulli,-39.54399,-72.12614,8110,estar_en_pie,be_standing,,,ˌwɪ.t͡ɹ̝̥ɐ̝.ˈlën,,,0
28151000709,Panguipulli,-39.54399,-72.12614,10550,machacar,smash,,,t͡ɹ̝̥ɐ̝.ˈnɐ̝n,,,0
28151000709,Panguipulli,-39.54399,-72.12614,8830,empujar,push,,,ɐ̝l.ˈt͡ɹ̝̥ön,,,0
28151000709,Panguipulli,-39.54399,-72.12614,20830,solamente,only,,,ˈcʰɪ.sö,,,0
28151000709,Panguipulli,-39.54399,-72.12614,10450,solamente,alone,,,ʐë,,,0
28151000709,Panguipulli,-39.54399,-72.12614,21050,demasiado,too_much,,,fën.ˈt̺͡s̺ën,,,0
28151000709,Panguipulli,-39.54399,-72.12614,510,anyo,year,,,sɪ.ˈpɐ̝n̪.t̪ö,,,0
28151000709,Panguipulli,-39.54399,-72.12614,20630,tambor,drum,,,kʊl.ˈt͡ɹ̝̥ʊn,,,0
28151000709,Panguipulli,-39.54399,-72.12614,10800,cinta,headband,,,ˌʈ͡ʂɐ̝.ɻɪ.ˈlöŋ.kö,,,0
28151000709,Panguipulli,-39.54399,-72.12614,10340,quebrar,shatter,,,t͡ɹ̝̥ɐ̝.ˈfön,,,0
28151000709,Panguipulli,-39.54399,-72.12614,10030,basta,enough,,,fën.ˈt͡ɹ̝̥ën,,,0
28151000709,Panguipulli,-39.54399,-72.12614,10030,basta,enough,,,ˈmɘ.nɐ̝,,,0
28151000709,Panguipulli,-39.54399,-72.12614,6320,flor,flower,,,ʃɐ̝.ˈjëɲ,,,0
28151000709,Panguipulli,-39.54399,-72.12614,10430,cascada,waterfall,,,t̺͡s̺ɐ̝.ˈjën,,,0
28151000709,Panguipulli,-39.54399,-72.12614,10090,plano,spread_out,,,lɐ̝f,,,0
28151000709,Panguipulli,-39.54399,-72.12614,10310,greda_blanca,clay,,,ˈmɐ̝.jö,,,0
28151000709,Panguipulli,-39.54399,-72.12614,10500,visita,visitor,,,wɪ.ˈt͡ɹ̝̥ɐ̝n,,,0
28151000709,Panguipulli,-39.54399,-72.12614,10510,telar,loom,,,wɪ.ˈt͡ɹ̝̥ɐ̝lɬ,,,0
28151000709,Panguipulli,-39.54399,-72.12614,10070,estrujar,wring,,,ˈkɘ.t͡ɹ̝̥ɘ̥,,,0
28151000709,Panguipulli,-39.54399,-72.12614,10080,atado,tied_up,,,kt̩̚.ˈt͡ɹ̝̥ɘŋ,,,0
28151000709,Panguipulli,-39.54399,-72.12614,10590,verde,green,,,kɐ̝.ˈɻɘ,,,0
28151000709,Panguipulli,-39.54399,-72.12614,10600,cazuela,soup,,,ˈkö.ʃɘ,,,0
28151002309,Valdivia,-39.81291,-72.95438,70,siete,seven,,,ˈɻël.jë,,,0
28151002309,Valdivia,-39.81291,-72.95438,80,ocho,eight,,,ˈpʰʊ.ɻɐ̝,,,0
28151002309,Valdivia,-39.81291,-72.95438,100,diez,ten,,,ˈmɐ̝.ɻɪ,,,0
28151002309,Valdivia,-39.81291,-72.95438,210,mil,thousand,,,wɐ̝.ˈɻɐ̝ŋ.kʰɐ̝,,,0
28151002309,Valdivia,-39.81291,-72.95438,7010,negro,black,,,ˈkʊ.ɻɪ,,,0
28151002309,Valdivia,-39.81291,-72.95438,7860,pesado,heavy,,,fɐ̝.ˈnën,,,0
28151002309,Valdivia,-39.81291,-72.95438,7910,caliente,warm,,,ɐ̝.ˈɻë,,,0
28151002309,Valdivia,-39.81291,-72.95438,20680,flaco,skinny,,,ˈʈ͡ʂöŋ.lɪ,,,0
28151002309,Valdivia,-39.81291,-72.95438,20690,gordo,fat,,,mö.ˈt̺͡s̺ɪn,,,0
28151002309,Valdivia,-39.81291,-72.95438,2240,diente,tooth,,,ˈfö.ɻö,,,0
28151002309,Valdivia,-39.81291,-72.95438,10560,mandibula,jaw,,,ˌʈ͡ʂɐ̝.ŋɐ̝.ˈʈ͡ʂɐ̝.ŋɐ̝,,,0
28151002309,Valdivia,-39.81291,-72.95438,2620,hueso,bone,,,ˈfö.ɻö,,,0
28151002309,Valdivia,-39.81291,-72.95438,2630,piel,skin,,,ˈʈ͡ʂɐ̝.wɐ̝,,,0
28151002309,Valdivia,-39.81291,-72.95438,2710,barriga,belly,,,ˈpɘ.ʈ͡ʂɐ̝,,,0
28151002309,Valdivia,-39.81291,-72.95438,2710,barriga,belly,,,ˈɐ̝ŋ.kʰɐ̝,,,0
28151002309,Valdivia,-39.81291,-72.95438,10620,esposa,wife,,,ˈkʰʊ.ɻë,,,0
28151002309,Valdivia,-39.81291,-72.95438,10740,hombre,man,,,ˈwën.ʈ͡ʂʊ,,,0
28151002309,Valdivia,-39.81291,-72.95438,21400,duenyo_casa,house_owner,,,ˌɲën.ˈɻʊ.kɐ̝,,,0
28151002309,Valdivia,-39.81291,-72.95438,3120,perro,dog,,,ˈʈ͡ʂë.wɐ̝,,,0
28151002309,Valdivia,-39.81291,-72.95438,20070,zorro,fox,,,ˈŋɘ.ɻɘ,,,0
28151002309,Valdivia,-39.81291,-72.95438,20030,gato,cat,,,ˈɲɐ̝ɻ.cʰɪ,,,0
28151002309,Valdivia,-39.81291,-72.95438,10200,liebre,hare,,,ˈmɐ̝.ɻɐ̝,,,0
28151002309,Valdivia,-39.81291,-72.95438,3420,gusano,worm,,,ˈbɪ.ɻʊ,,,0
28151002309,Valdivia,-39.81291,-72.95438,3430,piojo,louse,,,t̪ɘn,,,0
28151002309,Valdivia,-39.81291,-72.95438,3810,huevo,egg,,,kʊ.ˈɻɐ̝m,,,0
28151002309,Valdivia,-39.81291,-72.95438,10710,neblina,fog,,,ʈ͡ʂʊ.ˈkʊɻ,,,0
28151002309,Valdivia,-39.81291,-72.95438,5410,fuego,fire,,,kɘ.ˈʈ͡ʂɐ̝l,,,0
28151002309,Valdivia,-39.81291,-72.95438,5510,piedra,stone,,,ˈkʊ.ɻɐ̝,,,0
28151002309,Valdivia,-39.81291,-72.95438,5430,ceniza,ash,,,t̺͡s̺ʊf.ˈkën,,,0
28151002309,Valdivia,-39.81291,-72.95438,10120,barro,mud,,,ˈfö.ʈ͡ʂɐ̝̥,,,0
28151002309,Valdivia,-39.81291,-72.95438,5850,viento,wind,,,kɘ.ˈɻɘf,,,0
28151002309,Valdivia,-39.81291,-72.95438,5840,nube,cloud,,,ʈ͡ʂö.mʊ,,,0
28151002309,Valdivia,-39.81291,-72.95438,10810,cielo_truenos,thundery_sky,,,ʈ͡ʂɐ̝l.ˌkɐ̝n.wë.ˈnʊ,,,0
28151002309,Valdivia,-39.81291,-72.95438,21530,hace_calor,it_is_hot,,,ɐ̝.ˌɻë.ˈj̃ëj,,,0
28151002309,Valdivia,-39.81291,-72.95438,21520,hace_frio,it_is_cold,,,ˌö.ʈ͡ʂë.ˈɲëj,,,0
28151002309,Valdivia,-39.81291,-72.95438,6120,choclo,cob_of_corn,,,ˈʏ.wɐ̝,,,0
28151002309,Valdivia,-39.81291,-72.95438,20550,harina_tostada,toasted_flour,,,ˈmɘɻ.cʰë,,,0
28151002309,Valdivia,-39.81291,-72.95438,6510,casa,house,,,ˈɻʊ.kɐ̝,,,0
28151002309,Valdivia,-39.81291,-72.95438,30500,pueblo,town,,,wɐ̝.ˈɻɪ.ɐ̝,,,0
28151002309,Valdivia,-39.81291,-72.95438,20890,arado,plough,,,ɐ̝.ˈɻɐ̝w,,,0
28151002309,Valdivia,-39.81291,-72.95438,6810,camino,road,,,ˈɻɘ.pɘ,,,0
28151002309,Valdivia,-39.81291,-72.95438,8030,caminar,walk,,,ʈ͡ʂë.ˈkɐ̝n,,,0
28151002309,Valdivia,-39.81291,-72.95438,8110,estar_en_pie,be_standing,,,wë.ˈʈ͡ʂɐ̝n.pɘ.ˌɻɐ̝n,,,0
28151002309,Valdivia,-39.81291,-72.95438,8110,estar_en_pie,be_standing,,,wë.ˌʈ͡ʂɐ̝.ˈlën,,,0
28151002309,Valdivia,-39.81291,-72.95438,10550,machacar,smash,,,ʈ͡ʂɐ̝.ˈnɐ̝n,,,0
28151002309,Valdivia,-39.81291,-72.95438,8830,empujar,push,,,ɻʊ.ˈʈ͡ʂën,,,0
28151002309,Valdivia,-39.81291,-72.95438,20830,solamente,only,,,çɪ.ˈʃʊ,,,0
28151002309,Valdivia,-39.81291,-72.95438,10450,solamente,alone,,,ɻë,,,0
28151002309,Valdivia,-39.81291,-72.95438,21050,demasiado,too_much,,,fën.ˈʈ͡ʂën,,,0
28151002309,Valdivia,-39.81291,-72.95438,510,anyo,year,,,ʂɪ.ˈpɐ̝n̪.t̪ɘ,,,0
28151002309,Valdivia,-39.81291,-72.95438,20630,tambor,drum,,,kʊl.ˈʈ͡ʂʊn,,,0
28151002309,Valdivia,-39.81291,-72.95438,10800,cinta,headband,,,ˌʈ͡ʂɐ̝.ɻɪ.ˈlöŋ.kö,,,0
28151002309,Valdivia,-39.81291,-72.95438,10340,quebrar,shatter,,,ʈ͡ʂɐ̝.ˈfön,,,0
28151002309,Valdivia,-39.81291,-72.95438,10030,basta,enough,,,fën.ˈʈ͡ʂɘn,,,0
28151002309,Valdivia,-39.81291,-72.95438,10030,basta,enough,,,mn̩.ˈnɐ̝,,,0
28151002309,Valdivia,-39.81291,-72.95438,6320,flor,flower,,,ɻɐ̝.ˈjën,,,0
28151002309,Valdivia,-39.81291,-72.95438,10430,cascada,waterfall,,,ʈ͡ʂɐ̝.ˈjën,,,0
28151002309,Valdivia,-39.81291,-72.95438,10090,plano,spread_out,,,lɐ̝f,,,0
28151002309,Valdivia,-39.81291,-72.95438,10310,greda_blanca,clay,,,ˈmɐ̝.ʎö,,,0
28151002309,Valdivia,-39.81291,-72.95438,10500,visita,visitor,,,wë.ˈʈ͡ʂɐ̝n,,,0
28151002309,Valdivia,-39.81291,-72.95438,10510,telar,loom,,,wë.ˈʈ͡ʂɐ̝l,,,0
28151002309,Valdivia,-39.81291,-72.95438,10070,estrujar,wring,,,kʰɘ̆.ˈt̺͡s̺ɘn,,,0
28151002309,Valdivia,-39.81291,-72.95438,10080,atado,tied_up,,,kʰɘ̆.ˈʈʰɘŋ,,,0
28151002309,Valdivia,-39.81291,-72.95438,10590,verde,green,,,ˈkʰɐ̝.ɻɘ,,,0
28151002309,Valdivia,-39.81291,-72.95438,10600,cazuela,soup,,,ˈkʰö.ɻɘ,,,0
28161000309,"San Pablo",-40.38308,-73.34988,70,siete,seven,,,ˈʂël.ɟ͡ʝë,,,0
28161000309,"San Pablo",-40.38308,-73.34988,80,ocho,eight,,,ˈbʊ.ʂɐ̝,,,0
28161000309,"San Pablo",-40.38308,-73.34988,100,diez,ten,,,ˈmɐ̝.ʂɪ̥,,,0
28161000309,"San Pablo",-40.38308,-73.34988,210,mil,thousand,,,wɐ̝.ˈɻɐ̝ŋ.kʰɐ̝,,,0
28161000309,"San Pablo",-40.38308,-73.34988,7010,negro,black,,,ˈkʉ.ʂɘ,,,0
28161000309,"San Pablo",-40.38308,-73.34988,7860,pesado,heavy,,,ˈfɐ̝.nëj,,,0
28161000309,"San Pablo",-40.38308,-73.34988,7910,caliente,warm,,,ˈɐ̝.ʂë,,,0
28161000309,"San Pablo",-40.38308,-73.34988,20680,flaco,skinny,,,ˈt̺͡s̺öŋ.kʰlë,,,0
28161000309,"San Pablo",-40.38308,-73.34988,20690,gordo,fat,,,mö.ˈʈʰɪn,,,0
28161000309,"San Pablo",-40.38308,-73.34988,2240,diente,tooth,,,ˈfö.ʂʊ,,,0
28161000309,"San Pablo",-40.38308,-73.34988,2620,hueso,bone,,,fö.rr̥ʊ,,,0
28161000309,"San Pablo",-40.38308,-73.34988,2630,piel,skin,,,t͡ɹ̝̥ɐ̝.wɐ̝,,,0
28161000309,"San Pablo",-40.38308,-73.34988,2710,barriga,belly,,,ˈpʊ.wë,,,0
28161000309,"San Pablo",-40.38308,-73.34988,10740,hombre,man,,,ˈwën.ʈ͡ʂʊ,,,0
28161000309,"San Pablo",-40.38308,-73.34988,21400,duenyo_casa,house_owner,,,"ɲën ˈʂʊ.kɐ̝",,,0
28161000309,"San Pablo",-40.38308,-73.34988,3120,perro,dog,,,ˈt̺͡s̺ë.wɐ̝,,,0
28161000309,"San Pablo",-40.38308,-73.34988,20070,zorro,fox,,,ˈŋɘ.rɘ,,,0
28161000309,"San Pablo",-40.38308,-73.34988,20030,gato,cat,,,ˈnɐ̝ʂ.cʰɪ,,,0
28161000309,"San Pablo",-40.38308,-73.34988,10200,liebre,hare,,,mɐ̝.ˈʐɐ̝n,,,0
28161000309,"San Pablo",-40.38308,-73.34988,3420,gusano,worm,,,ˈbɪ.ʂʊ,,,0
28161000309,"San Pablo",-40.38308,-73.34988,3430,piojo,louse,,,pɘ.ˈtɐ̝ʂ,,,0
28161000309,"San Pablo",-40.38308,-73.34988,3810,huevo,egg,,,kʊ.ˈʂɐ̝m,,,0
28161000309,"San Pablo",-40.38308,-73.34988,5410,fuego,fire,,,kɘ.ˈt̺͡s̺ɐ̝l,,,0
28161000309,"San Pablo",-40.38308,-73.34988,5430,ceniza,ash,,,tʊʃ.ˈcʰën,,,0
28161000309,"San Pablo",-40.38308,-73.34988,10120,barro,mud,,,ˈbël̪.d̪ë,,,0
28161000309,"San Pablo",-40.38308,-73.34988,5850,viento,wind,,,kɘ.ˈʂɘf,,,0
28161000309,"San Pablo",-40.38308,-73.34988,5840,nube,cloud,,,t͡ɹ̝̥öː.ˈmɘɲ,,,0
28161000309,"San Pablo",-40.38308,-73.34988,21520,hace_frio,it_is_cold,,,ˈʊ.t͡ɹ̝̥ëj,,,0
28161000309,"San Pablo",-40.38308,-73.34988,6120,choclo,cob_of_corn,,,ˈwɘ.ɣɐ̝,,,0
28161000309,"San Pablo",-40.38308,-73.34988,20550,harina_tostada,toasted_flour,,,ˈmɘʂ.cʰḛ̈,,,0
28161000309,"San Pablo",-40.38308,-73.34988,6510,casa,house,,,ˈʂʊ.kɐ̝,,,0
28161000309,"San Pablo",-40.38308,-73.34988,6810,camino,road,,,ˈʂʊ.bö,,,0
28161000309,"San Pablo",-40.38308,-73.34988,8110,estar_en_pie,be_standing,,,wɘ.ˈt̺͡s̺ɐ̝,,,0
28161000309,"San Pablo",-40.38308,-73.34988,20830,solamente,only,,,ˈcʰɪ.s̪ʊ,,,0
28161000309,"San Pablo",-40.38308,-73.34988,510,anyo,year,,,t̺͡s̺ɪ.ˈpɐ̝n,,,0
28161000309,"San Pablo",-40.38308,-73.34988,20630,tambor,drum,,,kʊll̥.ˈt͡ɹ̝̥ʊn,,,0
28161000309,"San Pablo",-40.38308,-73.34988,10800,cinta,headband,,,ˌt̺͡s̺ɐ̝.ɾɪ.ˈlöŋ.kö,,,0
28161000309,"San Pablo",-40.38308,-73.34988,10030,basta,enough,,,fën̪.t̪ë.ˈnɐ̝j,,,0
28161000309,"San Pablo",-40.38308,-73.34988,6320,flor,flower,,,ʂɐ̝.ˈçʝën,,,0
28161000309,"San Pablo",-40.38308,-73.34988,10430,cascada,waterfall,,,t̺͡s̺ɐ̝.ˈʝën,,,0
28161000309,"San Pablo",-40.38308,-73.34988,10310,greda_blanca,clay,,,ˈmɐ̝.ʝö,,,0
28161000309,"San Pablo",-40.38308,-73.34988,10500,visita,visitor,,,ʊ.ˈt̺͡s̺ɐ̝n,,,0
28161000309,"San Pablo",-40.38308,-73.34988,10510,telar,loom,,,wɪ.ˈθɐ̝n,,,0
28161000309,"San Pablo",-40.38308,-73.34988,10070,estrujar,wring,,,kɘ.ˈt̺͡s̺ɘn,,,0
28161000309,"San Pablo",-40.38308,-73.34988,10590,verde,green,,,ˈkʰɐ̝.ʂɘ,,,0
28161001209,"S. Juan de la Costa",-40.51004,-73.52129,80,ocho,eight,,,ˈpʊ.ʂɐ̝,,,0
28161001209,"S. Juan de la Costa",-40.51004,-73.52129,100,diez,ten,,,ˈmɐ̝.ʂɪ,,,0
28161001209,"S. Juan de la Costa",-40.51004,-73.52129,210,mil,thousand,,,wɐ̝.ˈɾɐ̝ŋ.xə,,,0
28161001209,"S. Juan de la Costa",-40.51004,-73.52129,7010,negro,black,,,ˈkʊ.ʂɘ,,,0
28161001209,"S. Juan de la Costa",-40.51004,-73.52129,7860,pesado,heavy,,,ˈfɐ̝.nëj,,,0
28161001209,"S. Juan de la Costa",-40.51004,-73.52129,7910,caliente,warm,,,ˈɐ̝.ʂë,,,0
28161001209,"S. Juan de la Costa",-40.51004,-73.52129,20690,gordo,fat,,,mö.ˈʂɪn,,,0
28161001209,"S. Juan de la Costa",-40.51004,-73.52129,2240,diente,tooth,,,ˈɸö.ʂö,,,0
28161001209,"S. Juan de la Costa",-40.51004,-73.52129,2620,hueso,bone,,,ˈɸö.ʂö,,,0
28161001209,"S. Juan de la Costa",-40.51004,-73.52129,2630,piel,skin,,,ˈʈ͡ʂɐ̝.wɐ̝,,,0
28161001209,"S. Juan de la Costa",-40.51004,-73.52129,2710,barriga,belly,,,ˈpɘ.ʈ͡ʂə,,,0
28161001209,"S. Juan de la Costa",-40.51004,-73.52129,2710,barriga,belly,,,ˈpʰʊ.wë,,,0
28161001209,"S. Juan de la Costa",-40.51004,-73.52129,10740,hombre,man,,,ˈwën.ʈ͡ʂʊ,,,0
28161001209,"S. Juan de la Costa",-40.51004,-73.52129,21400,duenyo_casa,house_owner,,,"ɲën ˈʂʊ.kɐ̝",,,0
28161001209,"S. Juan de la Costa",-40.51004,-73.52129,3120,perro,dog,,,ˈʈ͡ʂë.wɐ̝,,,0
28161001209,"S. Juan de la Costa",-40.51004,-73.52129,20070,zorro,fox,,,ˈŋɘ.ʂɘ,,,0
28161001209,"S. Juan de la Costa",-40.51004,-73.52129,20030,gato,cat,,,nɐ̝ʂ.cʰɪ,,,0
28161001209,"S. Juan de la Costa",-40.51004,-73.52129,3420,gusano,worm,,,ˈpɪ.ʂʊ̥,,,0
28161001209,"S. Juan de la Costa",-40.51004,-73.52129,3430,piojo,louse,,,pɘ̆.ˈʈ͡ʂɐ̝ʂ,,,0
28161001209,"S. Juan de la Costa",-40.51004,-73.52129,3810,huevo,egg,,,kʊ.ˈʂɐ̝m,,,0
28161001209,"S. Juan de la Costa",-40.51004,-73.52129,5410,fuego,fire,,,kɘ̆.ˈʈ͡ʂɐ̝ɭ̝̥,,,0
28161001209,"S. Juan de la Costa",-40.51004,-73.52129,5510,piedra,stone,,,ˈkʊ.ʂɐ̝,,,0
28161001209,"S. Juan de la Costa",-40.51004,-73.52129,5430,ceniza,ash,,,ʂʊf.ˈkën,,,0
28161001209,"S. Juan de la Costa",-40.51004,-73.52129,10120,barro,mud,,,ˈpëɬ.ɬë,,,0
28161001209,"S. Juan de la Costa",-40.51004,-73.52129,5850,viento,wind,,,kɘ.ˈʂɘf,,,0
28161001209,"S. Juan de la Costa",-40.51004,-73.52129,5840,nube,cloud,,,ʈ͡ʂö.mɘ,,,0
28161001209,"S. Juan de la Costa",-40.51004,-73.52129,10810,cielo_truenos,thundery_sky,,,t̺͡s̺ɐ̝l.ˌkɐ̝n.ˈwë.nʊ,,,0
28161001209,"S. Juan de la Costa",-40.51004,-73.52129,21530,hace_calor,it_is_hot,,,ˌɐ̝.ˈʂë.ŋɪ,,,0
28161001209,"S. Juan de la Costa",-40.51004,-73.52129,21520,hace_frio,it_is_cold,,,ʊ.ˈʈ͡ʂën,,,0
28161001209,"S. Juan de la Costa",-40.51004,-73.52129,6120,choclo,cob_of_corn,,,ˈwɘ.ɣɐ̝,,,0
28161001209,"S. Juan de la Costa",-40.51004,-73.52129,20550,harina_tostada,toasted_flour,,,ˈmɘʂ.xë,,,0
28161001209,"S. Juan de la Costa",-40.51004,-73.52129,6510,casa,house,,,ˈʂʊ.kʰɐ̝,,,0
28161001209,"S. Juan de la Costa",-40.51004,-73.52129,30500,pueblo,town,,,wɐ̝.ˈʂɪ.ɐ̝,,,0
28161001209,"S. Juan de la Costa",-40.51004,-73.52129,20890,arado,plough,,,ɐ̝.ˈʂɐ̝.ʂö,,,0
28161001209,"S. Juan de la Costa",-40.51004,-73.52129,6810,camino,road,,,ˈʂɘ.pɘ,,,0
28161001209,"S. Juan de la Costa",-40.51004,-73.52129,8030,caminar,walk,,,ʂë.ˈkɐ̝n,,,0
28161001209,"S. Juan de la Costa",-40.51004,-73.52129,8110,estar_en_pie,be_standing,,,ˌwɘ.ʈ͡ʂɐ̝.ˈlën,,,0
28161001209,"S. Juan de la Costa",-40.51004,-73.52129,8830,empujar,push,,,wʊ.ˈʈ͡ʂën,,,0
28161001209,"S. Juan de la Costa",-40.51004,-73.52129,21050,demasiado,too_much,,,fën̪.ˈt̪ën,,,0
28161001209,"S. Juan de la Costa",-40.51004,-73.52129,510,anyo,year,,,t̺͡s̺ɪ.ˈpɐ̝n,,,0
28161001209,"S. Juan de la Costa",-40.51004,-73.52129,20630,tambor,drum,,,kʊl.ˈʈ͡ʂʊn,,,0
28161001209,"S. Juan de la Costa",-40.51004,-73.52129,10800,cinta,headband,,,ʈ͡ʂɐ̝.ʂɪ.ˈlöŋ.kö,,,0
28161001209,"S. Juan de la Costa",-40.51004,-73.52129,10340,quebrar,shatter,,,ʈ͡ʂɐ̝.ˈfʊn,,,0
28161001209,"S. Juan de la Costa",-40.51004,-73.52129,6320,flor,flower,,,ʂɐ̝.ˈjɪn,,,0
28161001209,"S. Juan de la Costa",-40.51004,-73.52129,10430,cascada,waterfall,,,ʈ͡ʂɐ̝.ˈjëŋ,,,0
28161001209,"S. Juan de la Costa",-40.51004,-73.52129,10090,plano,spread_out,,,lɐ̝f,,,0
28161001209,"S. Juan de la Costa",-40.51004,-73.52129,10500,visita,visitor,,,wɘ̆.ˈʈ͡ʂɐ̝n,,,0
28161001209,"S. Juan de la Costa",-40.51004,-73.52129,10510,telar,loom,,,wɘ.ˈʈ͡ʂɐ̝l,,,0
28161001209,"S. Juan de la Costa",-40.51004,-73.52129,10590,verde,green,,,ˈkɐ̝.ʂɘ,,,0
28161001209,"S. Juan de la Costa",-40.51004,-73.52129,10600,cazuela,soup,,,ˈkö.ʂɘ,,,0
28221005509,Chalileo,-36.42252,-66.47321,70,siete,seven,,,ʐë.ˈɣlë,,,0
28221005509,Chalileo,-36.42252,-66.47321,80,ocho,eight,,,pʰʊ.ˈɻɐ̝,,,0
28221005509,Chalileo,-36.42252,-66.47321,100,diez,ten,,,mɐ̝.ˈɻɪ,,,0
28221005509,Chalileo,-36.42252,-66.47321,210,mil,thousand,,,wɐ̝.ˈɻɐ̝ŋ.kɐ̝,,,0
28221005509,Chalileo,-36.42252,-66.47321,7010,negro,black,,,kʊ.ˈɻɘ,,,0
28221005509,Chalileo,-36.42252,-66.47321,7860,pesado,heavy,,,vɐ̝.ˈnɪ,,,0
28221005509,Chalileo,-36.42252,-66.47321,7910,caliente,warm,,,ɐ̝.ˈɻë,,,0
28221005509,Chalileo,-36.42252,-66.47321,20680,flaco,skinny,,,ʈ͡ʂöŋ.ˈlɪ,,,0
28221005509,Chalileo,-36.42252,-66.47321,20690,gordo,fat,,,mö.ˈt͡sɪ,,,0
28221005509,Chalileo,-36.42252,-66.47321,2620,hueso,bone,,,ᵐvö.ˈɻö,,,0
28221005509,Chalileo,-36.42252,-66.47321,2630,piel,skin,,,t̺͡s̺ɐ̝.ˈwɐ̝,,,0
28221005509,Chalileo,-36.42252,-66.47321,2710,barriga,belly,,,pɘ.ˈtʰɐ̝,,,0
28221005509,Chalileo,-36.42252,-66.47321,10620,esposa,wife,,,kʊ.ˈɻë,,,0
28221005509,Chalileo,-36.42252,-66.47321,10740,hombre,man,,,wën.ˈt̺͡s̺ʊ,,,0
28221005509,Chalileo,-36.42252,-66.47321,21400,duenyo_casa,house_owner,,,ˌŋën.ɻʊ.ˈkɐ̝,,,0
28221005509,Chalileo,-36.42252,-66.47321,3120,perro,dog,,,t̺͡s̺ë.ˈwɐ̝,,,0
28221005509,Chalileo,-36.42252,-66.47321,20070,zorro,fox,,,ŋɘ.ˈɻɘ,,,0
28221005509,Chalileo,-36.42252,-66.47321,20030,gato,cat,,,ɲɐ̝j.ˈcʰɪ,,,0
28221005509,Chalileo,-36.42252,-66.47321,10200,liebre,hare,,,mɐ̝.ˈɻɐ̝,,,0
28221005509,Chalileo,-36.42252,-66.47321,3420,gusano,worm,,,pɪ.ˈɻʊ,,,0
28221005509,Chalileo,-36.42252,-66.47321,3430,piojo,louse,,,ɸɘ.ˈt̺͡s̺ɐ̝ɻ,,,0
28221005509,Chalileo,-36.42252,-66.47321,3810,huevo,egg,,,kʰʊ.ˈɻɐ̝m,,,0
28221005509,Chalileo,-36.42252,-66.47321,5410,fuego,fire,,,kɘ.ˈtɐ̝l,,,0
28221005509,Chalileo,-36.42252,-66.47321,5510,piedra,stone,,,kʊ.ˈɻɐ̝,,,0
28221005509,Chalileo,-36.42252,-66.47321,10120,barro,mud,,,wö.ˈt̺͡s̺ɐ̝,,,0
28221005509,Chalileo,-36.42252,-66.47321,5850,viento,wind,,,kʰɘ.ɻɘv,,,0
28221005509,Chalileo,-36.42252,-66.47321,5840,nube,cloud,,,t̺͡s̺ö.ˈmɘ,,,0
28221005509,Chalileo,-36.42252,-66.47321,21520,hace_frio,it_is_cold,,,wɘ.ˈt̺͡s̺ë,,,0
28221005509,Chalileo,-36.42252,-66.47321,6510,casa,house,,,ɻʊ.ˈkʰɐ̝,,,0
28221005509,Chalileo,-36.42252,-66.47321,30500,pueblo,town,,,wɐ̝.ɻɪ.ˈɐ̝,,,0
28221005509,Chalileo,-36.42252,-66.47321,20890,arado,plough,,,ɐ̝.ˈɻɐ̝w,,,0
28221005509,Chalileo,-36.42252,-66.47321,6810,camino,road,,,ɻɘ.ˈpɘ,,,0
28221005509,Chalileo,-36.42252,-66.47321,8030,caminar,walk,,,t̺͡s̺ë.ˈkɐ̝,,,0
28221005509,Chalileo,-36.42252,-66.47321,8110,estar_en_pie,be_standing,,,ˌwɘ.t̺͡s̺ɐ̝.ˈlën,,,0
28221005509,Chalileo,-36.42252,-66.47321,10550,machacar,smash,,,t̺͡s̺ɐ̝.ˈnɐ̝n,,,0
28221005509,Chalileo,-36.42252,-66.47321,8830,empujar,push,,,ɐ̝l.ˈʈ͡ʂö,,,0
28221005509,Chalileo,-36.42252,-66.47321,510,anyo,year,,,t͡ʃɪ.ˈpɐ̝n̪.t̪ʊ,,,0
28221005509,Chalileo,-36.42252,-66.47321,20630,tambor,drum,,,kʊl.ˈt̺͡s̺ʊŋ,,,0
28221005509,Chalileo,-36.42252,-66.47321,10800,cinta,headband,,,t̺͡s̺ɐ̝.ɻɪ.löŋ.ˈkö,,,0
28221005509,Chalileo,-36.42252,-66.47321,6320,flor,flower,,,ɻɐ̝.ˈjën,,,0
28221005509,Chalileo,-36.42252,-66.47321,10500,visita,visitor,,,wɘ.ˈt̺͡s̺ɐ̝n,,,0
28221005509,Chalileo,-36.42252,-66.47321,10510,telar,loom,,,wɘ.ˈt̺͡s̺ɐ̝l,,,0
28221005509,Chalileo,-36.42252,-66.47321,10070,estrujar,wring,,,kʰʊj.ˈt͡ʃɘn,,,0
28221005509,Chalileo,-36.42252,-66.47321,10590,verde,green,,,kɐ̝.ˈɻɘ,,,0
28221005509,Chalileo,-36.42252,-66.47321,10600,cazuela,soup,,,kö.ˈɻɘ,,,0
28261005309,Picunches,-38.78279,-70.22884,70,siete,seven,,,ɻë.ˈɣ̞l̝ë,,,0
28261005309,Picunches,-38.78279,-70.22884,80,ocho,eight,,,p͡ɸʊ.ˈɻɐ̝,,,0
28261005309,Picunches,-38.78279,-70.22884,100,diez,ten,,,mɐ̝.ˈɻɪ,,,0
28261005309,Picunches,-38.78279,-70.22884,210,mil,thousand,,,wɐ̝.ˈɻɐ̝ŋ.ɡɐ̝,,,0
28261005309,Picunches,-38.78279,-70.22884,7010,negro,black,,,xʊ.ˈɻɘ,,,0
28261005309,Picunches,-38.78279,-70.22884,7860,pesado,heavy,,,ˈf̞ɐ̝.në,,,0
28261005309,Picunches,-38.78279,-70.22884,20680,flaco,skinny,,,ʈ͡ʂöŋ.ˈlɪ,,,0
28261005309,Picunches,-38.78279,-70.22884,20690,gordo,fat,,,mö.ˈʈ͡ʂɪl,,,0
28261005309,Picunches,-38.78279,-70.22884,2240,diente,tooth,,,fö.ˈɻö,,,0
28261005309,Picunches,-38.78279,-70.22884,10560,mandibula,jaw,,,ˌʈ͡ʂɐ̝.ŋɐ̝.ˈʈ͡ʂɐ̝.ŋɐ̝,,,0
28261005309,Picunches,-38.78279,-70.22884,2620,hueso,bone,,,fö.ˈɻö,,,0
28261005309,Picunches,-38.78279,-70.22884,2710,barriga,belly,,,ɸɘ.ˈt̺͡s̺ɐ̝,,,0
28261005309,Picunches,-38.78279,-70.22884,10740,hombre,man,,,wën.ˈʈ͡ʂʊ,,,0
28261005309,Picunches,-38.78279,-70.22884,21400,duenyo_casa,house_owner,,,ˌɲën.ɻʊ.ˈkɐ̝,,,0
28261005309,Picunches,-38.78279,-70.22884,3120,perro,dog,,,ˈʈ͡ʂë.wɐ̝,,,0
28261005309,Picunches,-38.78279,-70.22884,20070,zorro,fox,,,ŋɘ.ˈɻɘ,,,0
28261005309,Picunches,-38.78279,-70.22884,20030,gato,cat,,,ɲɐ̝j.ˈçɪ,,,0
28261005309,Picunches,-38.78279,-70.22884,10200,liebre,hare,,,mɐ̝.ˈɻɐ̝,,,0
28261005309,Picunches,-38.78279,-70.22884,3420,gusano,worm,,,ˈpɪ.ɻʊ,,,0
28261005309,Picunches,-38.78279,-70.22884,3430,piojo,louse,,,t̪ɘn,,,0
28261005309,Picunches,-38.78279,-70.22884,3810,huevo,egg,,,kʊ.ˈɻɐ̝m,,,0
28261005309,Picunches,-38.78279,-70.22884,10710,neblina,fog,,,ʈ͡ʂʊ.ˈkʊɻ,,,0
28261005309,Picunches,-38.78279,-70.22884,5410,fuego,fire,,,kʰɘ.ˈʂɐ̝l,,,0
28261005309,Picunches,-38.78279,-70.22884,5510,piedra,stone,,,ʊ.ˈɻɐ̝,,,0
28261005309,Picunches,-38.78279,-70.22884,5430,ceniza,ash,,,ʃɪl.ˈpën,,,0
28261005309,Picunches,-38.78279,-70.22884,10120,barro,mud,,,fö.ˈʈ͡ʂɐ̝,,,0
28261005309,Picunches,-38.78279,-70.22884,5850,viento,wind,,,kɘ.ˈɻɘf,,,0
28261005309,Picunches,-38.78279,-70.22884,5840,nube,cloud,,,ʈ͡ʂö.ˈmɘ,,,0
28261005309,Picunches,-38.78279,-70.22884,21530,hace_calor,it_is_hot,,,ɐ̝.ˌɻë.ˈŋɘ,,,0
28261005309,Picunches,-38.78279,-70.22884,21520,hace_frio,it_is_cold,,,ˌwɘ.ʈ͡ʂë.ˈŋɪ,,,0
28261005309,Picunches,-38.78279,-70.22884,6120,choclo,cob_of_corn,,,wɐ̝,,,0
28261005309,Picunches,-38.78279,-70.22884,6510,casa,house,,,ɻʊ.ˈkʰɐ̝,,,0
28261005309,Picunches,-38.78279,-70.22884,30500,pueblo,town,,,wɐ̝.ɻɪ.ˈɐ̝,,,0
28261005309,Picunches,-38.78279,-70.22884,6810,camino,road,,,ɻɘ.ˈɸɘ,,,0
28261005309,Picunches,-38.78279,-70.22884,10550,machacar,smash,,,ʈ͡ʂɐ̝.ˈnɐ̝n,,,0
28261005309,Picunches,-38.78279,-70.22884,8830,empujar,push,,,ɐ̝ɭ.ˈʈ͡ʂɘj,,,0
28261005309,Picunches,-38.78279,-70.22884,20830,solamente,only,,,çɪ.ˈsʊ,,,0
28261005309,Picunches,-38.78279,-70.22884,510,anyo,year,,,ʂɪ.ˈpɐ̝n̪.t̪ʊ,,,0
28261005309,Picunches,-38.78279,-70.22884,20630,tambor,drum,,,xʊl.ˈʈ͡ʂʊŋ,,,0
28261005309,Picunches,-38.78279,-70.22884,10800,cinta,headband,,,ˌʈ͡ʂɐ̝.ɻɪ.löŋ.ˈɣö,,,0
28261005309,Picunches,-38.78279,-70.22884,6320,flor,flower,,,ɻɐ̝.ˈjën,,,0
28261005309,Picunches,-38.78279,-70.22884,10510,telar,loom,,,wɪ.ˈʈ͡ʂɐ̝l,,,0
28261005309,Picunches,-38.78279,-70.22884,10070,estrujar,wring,,,kʰɘ.ˈʈ͡ʂɘn,,,0
28261005309,Picunches,-38.78279,-70.22884,10590,verde,green,,,ö.ˈɻɘ,,,0
28261005509,Zapala,-38.85047,-69.74997,70,siete,seven,,,ʐëj.ˈlë,,,0
28261005509,Zapala,-38.85047,-69.74997,80,ocho,eight,,,pʰʊ.ˈɻɐ̝,,,0
28261005509,Zapala,-38.85047,-69.74997,100,diez,ten,,,ˈmɐ̝.ʐɪ,,,0
28261005509,Zapala,-38.85047,-69.74997,210,mil,thousand,,,wɐ̝.ˈʐɐ̝ŋ.kʰɐ̝,,,0
28261005509,Zapala,-38.85047,-69.74997,7010,negro,black,,,kʊ.ˈʐɘ,,,0
28261005509,Zapala,-38.85047,-69.74997,7860,pesado,heavy,,,fɐ̝.ˈlɪ,,,0
28261005509,Zapala,-38.85047,-69.74997,7910,caliente,warm,,,ɐ̝.ˈʐë,,,0
28261005509,Zapala,-38.85047,-69.74997,20680,flaco,skinny,,,ʈ͡ʂöŋ.ˈlɪ,,,0
28261005509,Zapala,-38.85047,-69.74997,20690,gordo,fat,,,mö.ˈʈ͡ʂɪ,,,0
28261005509,Zapala,-38.85047,-69.74997,2240,diente,tooth,,,ɸ̞ö.ˈɻö,,,0
28261005509,Zapala,-38.85047,-69.74997,2620,hueso,bone,,,fö.ˈɻö,,,0
28261005509,Zapala,-38.85047,-69.74997,2710,barriga,belly,,,pɘʈ̚.ˈʂɐ̝,,,0
28261005509,Zapala,-38.85047,-69.74997,10620,esposa,wife,,,kʊ.ˈʐë,,,0
28261005509,Zapala,-38.85047,-69.74997,10740,hombre,man,,,wën.ˈt͡ɹ̝̥ʊ,,,0
28261005509,Zapala,-38.85047,-69.74997,3120,perro,dog,,,ˈʂë.wɐ̝,,,0
28261005509,Zapala,-38.85047,-69.74997,20070,zorro,fox,,,ŋɘ.ˈʐɘ,,,0
28261005509,Zapala,-38.85047,-69.74997,20030,gato,cat,,,ɲɐ̝ɻ.ˈcʰɪ,,,0
28261005509,Zapala,-38.85047,-69.74997,10200,liebre,hare,,,mɐ̝.ˈrɐ̝,,,0
28261005509,Zapala,-38.85047,-69.74997,3420,gusano,worm,,,pɪ.ˈʐʊ,,,0
28261005509,Zapala,-38.85047,-69.74997,3430,piojo,louse,,,t̪ɘn,,,0
28261005509,Zapala,-38.85047,-69.74997,3430,piojo,louse,,,pɘ.ˈʈ͡ʂɐ̝ɻ,,,0
28261005509,Zapala,-38.85047,-69.74997,3810,huevo,egg,,,kʊ.ˈʐɐ̝m,,,0
28261005509,Zapala,-38.85047,-69.74997,5410,fuego,fire,,,kʰɘ.ˈʈ͡ʂɐ̝l,,,0
28261005509,Zapala,-38.85047,-69.74997,5510,piedra,stone,,,kʊ.ˈʐɐ̝,,,0
28261005509,Zapala,-38.85047,-69.74997,5430,ceniza,ash,,,ʈ͡ʂʊf.kën,,,0
28261005509,Zapala,-38.85047,-69.74997,10120,barro,mud,,,ˌfö.ˈʈɐ̝,,,0
28261005509,Zapala,-38.85047,-69.74997,5850,viento,wind,,,kʰɘ.ˈʐɘf,,,0
28261005509,Zapala,-38.85047,-69.74997,5840,nube,cloud,,,ʈ͡ʂö.ˈmɘ,,,0
28261005509,Zapala,-38.85047,-69.74997,21530,hace_calor,it_is_hot,,,ɐ̝.ʐë.ˈlɪ,,,0
28261005509,Zapala,-38.85047,-69.74997,21520,hace_frio,it_is_cold,,,ˈt̪ëw.ʈ͡ʂë.ˌŋɪ,,,0
28261005509,Zapala,-38.85047,-69.74997,6120,choclo,cob_of_corn,,,wɐ̝,,,0
28261005509,Zapala,-38.85047,-69.74997,20550,harina_tostada,toasted_flour,,,mɘɻ.ˈkë,,,0
28261005509,Zapala,-38.85047,-69.74997,6510,casa,house,,,ɻʊ.ˈkʰɐ̝,,,0
28261005509,Zapala,-38.85047,-69.74997,30500,pueblo,town,,,ˈwɐ̝.rɪ.ɐ̝,,,0
28261005509,Zapala,-38.85047,-69.74997,20890,arado,plough,,,ɐ̝.ˈɻɐ̝w,,,0
28261005509,Zapala,-38.85047,-69.74997,20890,arado,plough,,,ɻʊ.ˈɣɐ̝n,,,0
28261005509,Zapala,-38.85047,-69.74997,6810,camino,road,,,ʐɘ.ˈpɘ,,,0
28261005509,Zapala,-38.85047,-69.74997,8110,estar_en_pie,be_standing,,,wɪ.ˌʈ͡ʂɐ̝.ˈlɪ,,,0
28261005509,Zapala,-38.85047,-69.74997,8830,empujar,push,,,ɐ̝l̪.ˈt̪ön,,,0
28261005509,Zapala,-38.85047,-69.74997,20830,solamente,only,,,cʰɪ.ˈsʊ,,,0
28261005509,Zapala,-38.85047,-69.74997,510,anyo,year,,,ʈ͡ʂɪ.ˈpɐ̝n̪.t̪ö,,,0
28261005509,Zapala,-38.85047,-69.74997,20630,tambor,drum,,,kʊl.ˈʈʊn,,,0
28261005509,Zapala,-38.85047,-69.74997,6320,flor,flower,,,ʐɐ̝.ˈɪn,,,0
28261005509,Zapala,-38.85047,-69.74997,10430,cascada,waterfall,,,ʈʰɐ̝.ˈʒën,,,0
28261005509,Zapala,-38.85047,-69.74997,10090,plano,spread_out,,,lɐ̝p̚,,,0
28261005509,Zapala,-38.85047,-69.74997,10500,visita,visitor,,,wɪ.ˈʈ͡ʂɐ̝n,,,0
28261005509,Zapala,-38.85047,-69.74997,10070,estrujar,wring,,,kɘ.ˈt̪ɘn,,,0
28261005509,Zapala,-38.85047,-69.74997,10080,atado,tied_up,,,kɘ.ˈt̪ɘn,,,0
28261005509,Zapala,-38.85047,-69.74997,10590,verde,green,,,kʰɐ̝.ˈʐɘ,,,0
28261005509,Zapala,-38.85047,-69.74997,10600,cazuela,soup,,,kʰö.ˈʐɘ,,,0
28261006109,Aluminé,-39.19681,-71.05406,70,siete,seven,,,ʂʐëj.ˈlë,,,0
28261006109,Aluminé,-39.19681,-71.05406,80,ocho,eight,,,ɸʊ.ˈʐɐ̝,,,0
28261006109,Aluminé,-39.19681,-71.05406,100,diez,ten,,,mɐ̝.ˈɻɪ,,,0
28261006109,Aluminé,-39.19681,-71.05406,210,mil,thousand,,,wɐ̝.ˈɻɐ̝ŋ.kʰɐ̝,,,0
28261006109,Aluminé,-39.19681,-71.05406,7010,negro,black,,,kʊ.ˈʐʊ,,,0
28261006109,Aluminé,-39.19681,-71.05406,7860,pesado,heavy,,,ɸɐ̝.ˈnëj,,,0
28261006109,Aluminé,-39.19681,-71.05406,7910,caliente,warm,,,ɐ̝.ˈɻëj,,,0
28261006109,Aluminé,-39.19681,-71.05406,20680,flaco,skinny,,,ʈ͡ʂöŋ.ˈlɪ,,,0
28261006109,Aluminé,-39.19681,-71.05406,20690,gordo,fat,,,mö.ˈt̺͡s̺ɪn,,,0
28261006109,Aluminé,-39.19681,-71.05406,2240,diente,tooth,,,ɸ̞ö.ˈɻö,,,0
28261006109,Aluminé,-39.19681,-71.05406,2620,hueso,bone,,,ɸö.ˈɻö,,,0
28261006109,Aluminé,-39.19681,-71.05406,2630,piel,skin,,,ʂɐ̝.ˈwɐ̝,,,0
28261006109,Aluminé,-39.19681,-71.05406,2710,barriga,belly,,,pɘʂ̚.ˈʂɐ̝,,,0
28261006109,Aluminé,-39.19681,-71.05406,10740,hombre,man,,,wën.ˈʂʊ,,,0
28261006109,Aluminé,-39.19681,-71.05406,21400,duenyo_casa,house_owner,,,ˌɲën.ʐʊ.ˈkɐ̝,,,0
28261006109,Aluminé,-39.19681,-71.05406,3120,perro,dog,,,ʈ͡ʂë.ˈwɐ̝,,,0
28261006109,Aluminé,-39.19681,-71.05406,20070,zorro,fox,,,ŋɘ.ˈʐɘ,,,0
28261006109,Aluminé,-39.19681,-71.05406,20030,gato,cat,,,nɐ̝ɻ.ˈcʰɪ,,,0
28261006109,Aluminé,-39.19681,-71.05406,10200,liebre,hare,,,mɐ̝.ˈɻɐ̝,,,0
28261006109,Aluminé,-39.19681,-71.05406,3420,gusano,worm,,,ɸɪ.ˈʐʊ,,,0
28261006109,Aluminé,-39.19681,-71.05406,3430,piojo,louse,,,t̪ɘn,,,0
28261006109,Aluminé,-39.19681,-71.05406,3810,huevo,egg,,,kʊ.ˈʐɐ̝m,,,0
28261006109,Aluminé,-39.19681,-71.05406,10710,neblina,fog,,,ʈ͡ʂʊ.ˈkʊɻ,,,0
28261006109,Aluminé,-39.19681,-71.05406,5410,fuego,fire,,,kʰɘ.ˈʈ͡ʂɐ̝l,,,0
28261006109,Aluminé,-39.19681,-71.05406,5510,piedra,stone,,,kʊ.ˈʐɐ̝,,,0
28261006109,Aluminé,-39.19681,-71.05406,5430,ceniza,ash,,,ʈ͡ʂʊf.ˈcʰën,,,0
28261006109,Aluminé,-39.19681,-71.05406,10120,barro,mud,,,ɸ̞ö.ˈʈ͡ʂɐ̝,,,0
28261006109,Aluminé,-39.19681,-71.05406,5850,viento,wind,,,kʊ.ˈʐʊf,,,0
28261006109,Aluminé,-39.19681,-71.05406,5840,nube,cloud,,,ʈ͡ʂö.ˈmɘ,,,0
28261006109,Aluminé,-39.19681,-71.05406,21530,hace_calor,it_is_hot,,,ˌɐ̝.ɻë.ˈŋëj,,,0
28261006109,Aluminé,-39.19681,-71.05406,21520,hace_frio,it_is_cold,,,wɘ̆.ˌʈ͡ʂë.ˈŋë,,,0
28261006109,Aluminé,-39.19681,-71.05406,6120,choclo,cob_of_corn,,,wɐ̝,,,0
28261006109,Aluminé,-39.19681,-71.05406,20550,harina_tostada,toasted_flour,,,mɘɻ.ˈcʰë,,,0
28261006109,Aluminé,-39.19681,-71.05406,6510,casa,house,,,ʐʊ.ˈkʰɐ̝,,,0
28261006109,Aluminé,-39.19681,-71.05406,30500,pueblo,town,,,wɐ̝ɻ.ˈjɐ̝,,,0
28261006109,Aluminé,-39.19681,-71.05406,6810,camino,road,,,ʐɘ.ˈpɘ,,,0
28261006109,Aluminé,-39.19681,-71.05406,8030,caminar,walk,,,ˌʈ͡ʂë.ˈkɐ̝.t̪ʊn,,,0
28261006109,Aluminé,-39.19681,-71.05406,8110,estar_en_pie,be_standing,,,wɪ.ˌʈ͡ʂɐ̝.ˈlën,,,0
28261006109,Aluminé,-39.19681,-71.05406,10550,machacar,smash,,,ʈ͡ʂɐ̝.ˈnɐ̝n,,,0
28261006109,Aluminé,-39.19681,-71.05406,8830,empujar,push,,,ɐ̝l.ˌʈ͡ʂö.ɐ̝.ˈθɪn,,,0
28261006109,Aluminé,-39.19681,-71.05406,510,anyo,year,,,ʃ̩.ˈbɐ̝n̪.t̪ö,,,0
28261006109,Aluminé,-39.19681,-71.05406,20630,tambor,drum,,,kʊl.ˈʈ͡ʂʊŋ,,,0
28261006109,Aluminé,-39.19681,-71.05406,10800,cinta,headband,,,ˌʈ͡ʂɐ̝.ɻɪ.ˈlöŋ.kö,,,0
28261006109,Aluminé,-39.19681,-71.05406,10340,quebrar,shatter,,,ʈ͡ʂʊ.ˈfön,,,0
28261006109,Aluminé,-39.19681,-71.05406,6320,flor,flower,,,ʐɐ̝.ˈʝën,,,0
28261006109,Aluminé,-39.19681,-71.05406,10500,visita,visitor,,,wɪ.ˈʈ͡ʂɐ̝n,,,0
28261006109,Aluminé,-39.19681,-71.05406,10510,telar,loom,,,wɪ.ˈʈ͡ʂɐ̝l,,,0
28261006109,Aluminé,-39.19681,-71.05406,10070,estrujar,wring,,,kɘ.ˈʈ͡ʂöɻn,,,0
28261006109,Aluminé,-39.19681,-71.05406,10590,verde,green,,,kʰɐ̝.ˈɻʊ,,,0
28261006109,Aluminé,-39.19681,-71.05406,10600,cazuela,soup,,,kʰö.ˈʐʊ,,,0
28261007109,"Junín de los Andes",-39.82386,-71.28742,70,siete,seven,,,ɻëj.ˈɡlë,,,0
28261007109,"Junín de los Andes",-39.82386,-71.28742,80,ocho,eight,,,pʰʊ.ˈɻɐ̝,,,0
28261007109,"Junín de los Andes",-39.82386,-71.28742,100,diez,ten,,,mɐ̝.ˈɻɪ,,,0
28261007109,"Junín de los Andes",-39.82386,-71.28742,210,mil,thousand,,,wɐ̝.ˈɻɐ̝ŋ.kɐ̝,,,0
28261007109,"Junín de los Andes",-39.82386,-71.28742,7010,negro,black,,,x̞ʊ.ˈɻɘ,,,0
28261007109,"Junín de los Andes",-39.82386,-71.28742,7860,pesado,heavy,,,ɻʊ.ˈpɐ̝w.jɪ,,,0
28261007109,"Junín de los Andes",-39.82386,-71.28742,7910,caliente,warm,,,ɐ̝.ˈɻë.lɪ,,,0
28261007109,"Junín de los Andes",-39.82386,-71.28742,20680,flaco,skinny,,,ʈ͡ʂöŋ.ˈɡlɪ,,,0
28261007109,"Junín de los Andes",-39.82386,-71.28742,20690,gordo,fat,,,mö.ˈʈ͡ʂɪn,,,0
28261007109,"Junín de los Andes",-39.82386,-71.28742,2240,diente,tooth,,,ɸ̞ö.ˈɻö,,,0
28261007109,"Junín de los Andes",-39.82386,-71.28742,10560,mandibula,jaw,,,ˌʈ͡ʂɐ̝.ŋɐ̝.ˈʈ͡ʂɐ̝.ŋɐ̝,,,0
28261007109,"Junín de los Andes",-39.82386,-71.28742,2620,hueso,bone,,,ɸö.ˈɻö,,,0
28261007109,"Junín de los Andes",-39.82386,-71.28742,2630,piel,skin,,,ʈ͡ʂɐ̝.ˈwɐ̝,,,0
28261007109,"Junín de los Andes",-39.82386,-71.28742,2710,barriga,belly,,,ɐ̝n.ˈkɐ̝,,,0
28261007109,"Junín de los Andes",-39.82386,-71.28742,10620,esposa,wife,,,kʊ.ˈɻë,,,0
28261007109,"Junín de los Andes",-39.82386,-71.28742,10740,hombre,man,,,wën.ˈʈ͡ʂʊ,,,0
28261007109,"Junín de los Andes",-39.82386,-71.28742,21400,duenyo_casa,house_owner,,,ˌɲën.ɻʊ.ˈkɐ̝,,,0
28261007109,"Junín de los Andes",-39.82386,-71.28742,3120,perro,dog,,,ʈ͡ʂë.ˈwɐ̝,,,0
28261007109,"Junín de los Andes",-39.82386,-71.28742,20070,zorro,fox,,,ŋɘ.ˈɻɘ,,,0
28261007109,"Junín de los Andes",-39.82386,-71.28742,20030,gato,cat,,,nɐ̝ɻ.ˈɟɪ,,,0
28261007109,"Junín de los Andes",-39.82386,-71.28742,10200,liebre,hare,,,mɐ̝.ˈɻɐ̝,,,0
28261007109,"Junín de los Andes",-39.82386,-71.28742,3420,gusano,worm,,,pɪ.ˈɻʊ,,,0
28261007109,"Junín de los Andes",-39.82386,-71.28742,3430,piojo,louse,,,t̪ɘn,,,0
28261007109,"Junín de los Andes",-39.82386,-71.28742,3810,huevo,egg,,,kʊ.ˈɻɐ̝m,,,0
28261007109,"Junín de los Andes",-39.82386,-71.28742,10710,neblina,fog,,,ʈ͡ʂʊ.ˈkʊɻ,,,0
28261007109,"Junín de los Andes",-39.82386,-71.28742,5410,fuego,fire,,,kʈ̩̚.ˈʈ͡ʂɐ̝l,,,0
28261007109,"Junín de los Andes",-39.82386,-71.28742,5510,piedra,stone,,,kʊ.ˈɻɐ̝,,,0
28261007109,"Junín de los Andes",-39.82386,-71.28742,5430,ceniza,ash,,,ɐ̝.t͡ʃɪʎ.ˈpëɲ,,,0
28261007109,"Junín de los Andes",-39.82386,-71.28742,10120,barro,mud,,,fö.ˈʈ͡ʂɐ̝,,,0
28261007109,"Junín de los Andes",-39.82386,-71.28742,5850,viento,wind,,,kɘ.ˈɻɘf,,,0
28261007109,"Junín de los Andes",-39.82386,-71.28742,5840,nube,cloud,,,ʈ͡ʂö.ˈmɘ,,,0
28261007109,"Junín de los Andes",-39.82386,-71.28742,10810,cielo_truenos,thundery_sky,,,ʈ͡ʂɐ̝l.ˌkɐ̝n.wë.ˈnʊ,,,0
28261007109,"Junín de los Andes",-39.82386,-71.28742,21530,hace_calor,it_is_hot,,,ɐ̝.ˌɻë.ˈŋɪ,,,0
28261007109,"Junín de los Andes",-39.82386,-71.28742,21520,hace_frio,it_is_cold,,,ʊ.ˌʈ͡ʂë.ˈŋɪ,,,0
28261007109,"Junín de los Andes",-39.82386,-71.28742,20550,harina_tostada,toasted_flour,,,mɘɻ.ˈcë,,,0
28261007109,"Junín de los Andes",-39.82386,-71.28742,6510,casa,house,,,ɻʊ.ˈkɐ̝,,,0
28261007109,"Junín de los Andes",-39.82386,-71.28742,30500,pueblo,town,,,ˌwɐ̝.ɻɪ.ˈɐ̝,,,0
28261007109,"Junín de los Andes",-39.82386,-71.28742,20890,arado,plough,,,ɻɘ.ˈŋɐ̝n,,,0
28261007109,"Junín de los Andes",-39.82386,-71.28742,6810,camino,road,,,ɻɘ.ˈɸɘ,,,0
28261007109,"Junín de los Andes",-39.82386,-71.28742,8030,caminar,walk,,,ʈ͡ʂë.ˈkɐ̝n,,,0
28261007109,"Junín de los Andes",-39.82386,-71.28742,8110,estar_en_pie,be_standing,,,ʊ.ˈʈ͡ʂɐ̝.ˌlën,,,0
28261007109,"Junín de los Andes",-39.82386,-71.28742,10550,machacar,smash,,,ʈ͡ʂɐ̝.ˈnɐ̝n,,,0
28261007109,"Junín de los Andes",-39.82386,-71.28742,8830,empujar,push,,,ɐ̝l.ˈʈ͡ʂön,,,0
28261007109,"Junín de los Andes",-39.82386,-71.28742,10450,solamente,alone,,,ɻë,,,0
28261007109,"Junín de los Andes",-39.82386,-71.28742,21050,demasiado,too_much,,,hën.ˈt̪ën,,,0
28261007109,"Junín de los Andes",-39.82386,-71.28742,510,anyo,year,,,t͡ʃɪ.ˈpɐ̝n̪.t̪ɘ,,,0
28261007109,"Junín de los Andes",-39.82386,-71.28742,20630,tambor,drum,,,kʊɭ.ˈʈ͡ʂʊn,,,0
28261007109,"Junín de los Andes",-39.82386,-71.28742,10800,cinta,headband,,,ˌʈ͡ʂɐ̝.ɻɪ.ˈlöŋ.kö,,,0
28261007109,"Junín de los Andes",-39.82386,-71.28742,10340,quebrar,shatter,,,ʈ͡ʂɐ̝.ˈfön,,,0
28261007109,"Junín de los Andes",-39.82386,-71.28742,10030,basta,enough,,,fën̪.ˈt̪ën,,,0
28261007109,"Junín de los Andes",-39.82386,-71.28742,6320,flor,flower,,,ɻɐ̝.ˈjën,,,0
28261007109,"Junín de los Andes",-39.82386,-71.28742,10430,cascada,waterfall,,,ʂɐ̝.ˈjën,,,0
28261007109,"Junín de los Andes",-39.82386,-71.28742,10090,plano,spread_out,,,lɐ̝f,,,0
28261007109,"Junín de los Andes",-39.82386,-71.28742,10090,plano,spread_out,,,lɘɻ,,,0
28261007109,"Junín de los Andes",-39.82386,-71.28742,10310,greda_blanca,clay,,,mɐ̝.ˈʎö,,,0
28261007109,"Junín de los Andes",-39.82386,-71.28742,10500,visita,visitor,,,ʊ.ˈʈ͡ʂɐ̝n,,,0
28261007109,"Junín de los Andes",-39.82386,-71.28742,10510,telar,loom,,,ʊ.ˈʈ͡ʂɐ̝l,,,0
28261007109,"Junín de los Andes",-39.82386,-71.28742,10070,estrujar,wring,,,ɡɘ.ˈʈ͡ʂɘn,,,0
28261007109,"Junín de los Andes",-39.82386,-71.28742,10080,atado,tied_up,,,kɘ̆.ˈʈ͡ʂɘn,,,0
28261007109,"Junín de los Andes",-39.82386,-71.28742,10590,verde,green,,,kɐ̝.ˈɻɘ,,,0
28261007109,"Junín de los Andes",-39.82386,-71.28742,10600,cazuela,soup,,,kö.ˈɻɘ,,,0
28261007209,Huiliches,-39.63992,-71.18686,70,siete,seven,,,ɻëɣ.ˈɺë,,,0
28261007209,Huiliches,-39.63992,-71.18686,80,ocho,eight,,,ɸʊ.ˈɻɐ̝,,,0
28261007209,Huiliches,-39.63992,-71.18686,100,diez,ten,,,mɐ̝.ˈɻɪ,,,0
28261007209,Huiliches,-39.63992,-71.18686,210,mil,thousand,,,wɐ̝.ˈɻɐ̝ŋ.kʰɐ̝̥,,,0
28261007209,Huiliches,-39.63992,-71.18686,7010,negro,black,,,kʊ.ˈɻɘ,,,0
28261007209,Huiliches,-39.63992,-71.18686,7860,pesado,heavy,,,hɐ̝.ˈnëj,,,0
28261007209,Huiliches,-39.63992,-71.18686,7910,caliente,warm,,,ɐ̝.ˈɻë,,,0
28261007209,Huiliches,-39.63992,-71.18686,20680,flaco,skinny,,,ʈ͡ʂöŋ.ɟɪ,,,0
28261007209,Huiliches,-39.63992,-71.18686,20690,gordo,fat,,,mö.ˈt̺͡s̺ɪn,,,0
28261007209,Huiliches,-39.63992,-71.18686,2240,diente,tooth,,,hö.ˈɻö,,,0
28261007209,Huiliches,-39.63992,-71.18686,10560,mandibula,jaw,,,ˌʈ͡ʂɐ̝.ŋɐ̝.ˈʈ͡ʂɐ̝.ŋɐ̝,,,0
28261007209,Huiliches,-39.63992,-71.18686,2620,hueso,bone,,,ɸ̞ö.ˈɻö,,,0
28261007209,Huiliches,-39.63992,-71.18686,2630,piel,skin,,,ʈ͡ʂɐ̝.ˈwɐ̝,,,0
28261007209,Huiliches,-39.63992,-71.18686,2710,barriga,belly,,,pɘ̆.ˈʈ͡ʂɐ̝,,,0
28261007209,Huiliches,-39.63992,-71.18686,10620,esposa,wife,,,kʊ.ˈʐë,,,0
28261007209,Huiliches,-39.63992,-71.18686,10740,hombre,man,,,wën.ˈʈʰɻʊ,,,0
28261007209,Huiliches,-39.63992,-71.18686,21400,duenyo_casa,house_owner,,,ˌɲën.ɽʊ.ˈkɐ̝,,,0
28261007209,Huiliches,-39.63992,-71.18686,3120,perro,dog,,,t̺͡s̺ë.ˈwɐ̝,,,0
28261007209,Huiliches,-39.63992,-71.18686,20070,zorro,fox,,,ŋɘ.ˈɻɘ,,,0
28261007209,Huiliches,-39.63992,-71.18686,20030,gato,cat,,,ŋɐ̝ɻ.ˈcʰɪ,,,0
28261007209,Huiliches,-39.63992,-71.18686,10200,liebre,hare,,,mɐ̝.ˈɻɐ̝,,,0
28261007209,Huiliches,-39.63992,-71.18686,3420,gusano,worm,,,ɪ.ˈɻʊ,,,0
28261007209,Huiliches,-39.63992,-71.18686,3430,piojo,louse,,,t̪ɘn,,,0
28261007209,Huiliches,-39.63992,-71.18686,3810,huevo,egg,,,kʊ.ˈɻɐ̝m,,,0
28261007209,Huiliches,-39.63992,-71.18686,10710,neblina,fog,,,ʈ͡ʂʊ.ˈkʊɻ,,,0
28261007209,Huiliches,-39.63992,-71.18686,5410,fuego,fire,,,kʈ̩̚.ˈʈ͡ʂɐ̝l,,,0
28261007209,Huiliches,-39.63992,-71.18686,5510,piedra,stone,,,kʊ.ˈɻɐ̝,,,0
28261007209,Huiliches,-39.63992,-71.18686,5430,ceniza,ash,,,ʈʊf.ˈcën,,,0
28261007209,Huiliches,-39.63992,-71.18686,5850,viento,wind,,,kɘ.ˈɻɘ,,,0
28261007209,Huiliches,-39.63992,-71.18686,5840,nube,cloud,,,ʈ͡ʂö.ˈmɘ,,,0
28261007209,Huiliches,-39.63992,-71.18686,10810,cielo_truenos,thundery_sky,,,ʈ͡ʂɐ̝l.ˌkɐ̝ŋ.wë.ˈnʊ,,,0
28261007209,Huiliches,-39.63992,-71.18686,21520,hace_frio,it_is_cold,,,ʊx.ˈt̺͡s̺ën,,,0
28261007209,Huiliches,-39.63992,-71.18686,6120,choclo,cob_of_corn,,,ʊ.ˈwɐ̝,,,0
28261007209,Huiliches,-39.63992,-71.18686,6510,casa,house,,,ʊ̆.ˈkɐ̝,,,0
28261007209,Huiliches,-39.63992,-71.18686,30500,pueblo,town,,,wɐ̝.ɻɪ.ˈɐ̝,,,0
28261007209,Huiliches,-39.63992,-71.18686,6810,camino,road,,,ɻɘ.ˈpɘ,,,0
28261007209,Huiliches,-39.63992,-71.18686,8030,caminar,walk,,,ˌʂ̩.kɐ̝.ˈt̪ʊ.në,,,0
28261007209,Huiliches,-39.63992,-71.18686,8110,estar_en_pie,be_standing,,,ˌʊ.ʂɐ̝.ˈlën,,,0
28261007209,Huiliches,-39.63992,-71.18686,10550,machacar,smash,,,ʈ͡ʂɐ̝.ˈnɐ̝n,,,0
28261007209,Huiliches,-39.63992,-71.18686,21050,demasiado,too_much,,,ɸën.ˈʈ͡ʂën,,,0
28261007209,Huiliches,-39.63992,-71.18686,510,anyo,year,,,t̺͡s̺p̩̚.ˈpɐ̝n̪.t̪ʊ̥,,,0
28261007209,Huiliches,-39.63992,-71.18686,20630,tambor,drum,,,xʊl.ˈʈ͡ʂʊŋ,,,0
28261007209,Huiliches,-39.63992,-71.18686,10800,cinta,headband,,,ˌʂɐ̝.ɻɪ.ˈlöŋ.kö̥,,,0
28261007209,Huiliches,-39.63992,-71.18686,6320,flor,flower,,,ɻɐ̝.ˈjën,,,0
28261007209,Huiliches,-39.63992,-71.18686,10430,cascada,waterfall,,,t̺͡s̺ɐ̝.ˈjën,,,0
28261007209,Huiliches,-39.63992,-71.18686,10310,greda_blanca,clay,,,mɐ̝.ˈdjö,,,0
28261007209,Huiliches,-39.63992,-71.18686,10500,visita,visitor,,,ʊ.ˈʈ͡ʂɐ̝n,,,0
28261007209,Huiliches,-39.63992,-71.18686,10510,telar,loom,,,ʊ.ˈt̺͡s̺ɐ̝l,,,0
28261007209,Huiliches,-39.63992,-71.18686,10070,estrujar,wring,,,kɘ.ˈʈ͡ʂɘn,,,0
28261007209,Huiliches,-39.63992,-71.18686,10080,atado,tied_up,,,hl̩.ˈʈʰɘŋ,,,0
28261007209,Huiliches,-39.63992,-71.18686,10590,verde,green,,,kʰɐ̝.ˈɻɘ,,,0
28261007209,Huiliches,-39.63992,-71.18686,10600,cazuela,soup,,,kö.ɻɘ,,,0
28281003209,"Lago Rosario",-43.24408,-71.32581,70,siete,seven,,,ɖ͡ʐëɣ̞.ˈlë,,,0
28281003209,"Lago Rosario",-43.24408,-71.32581,80,ocho,eight,,,ʊ.ˈɻɐ̝,,,0
28281003209,"Lago Rosario",-43.24408,-71.32581,100,diez,ten,,,mɐ̝.ˈɽɪ,,,0
28281003209,"Lago Rosario",-43.24408,-71.32581,210,mil,thousand,,,wɐ̝.ˈɻɐ̝ŋ.kʰɐ̝̥,,,0
28281003209,"Lago Rosario",-43.24408,-71.32581,7010,negro,black,,,kʊ.ˈɻɘ,,,0
28281003209,"Lago Rosario",-43.24408,-71.32581,7860,pesado,heavy,,,pʰɐ̝.ˈnë,,,0
28281003209,"Lago Rosario",-43.24408,-71.32581,20680,flaco,skinny,,,ʂöŋ.ˈlɪ,,,0
28281003209,"Lago Rosario",-43.24408,-71.32581,20690,gordo,fat,,,mö.ˈt͡ʃ̟ɪn,,,0
28281003209,"Lago Rosario",-43.24408,-71.32581,2240,diente,tooth,,,ɸ̞ö.ˈɻö,,,0
28281003209,"Lago Rosario",-43.24408,-71.32581,10560,mandibula,jaw,,,ˌʈ͡ʂɐ̝.ŋɐ̝.ˈʈ͡ʂɐ̝.ŋɐ̝,,,0
28281003209,"Lago Rosario",-43.24408,-71.32581,2620,hueso,bone,,,ɸ̞ö.ˈɻö,,,0
28281003209,"Lago Rosario",-43.24408,-71.32581,2630,piel,skin,,,ʈ͡ʂɐ̝.ˈwɐ̝,,,0
28281003209,"Lago Rosario",-43.24408,-71.32581,2710,barriga,belly,,,bɘ.ˈt̺͡s̺ɐ̝,,,0
28281003209,"Lago Rosario",-43.24408,-71.32581,10620,esposa,wife,,,kʊ.ˈɻë,,,0
28281003209,"Lago Rosario",-43.24408,-71.32581,10620,esposa,wife,,,θö.ˈmö.t͡ʃë,,,0
28281003209,"Lago Rosario",-43.24408,-71.32581,10740,hombre,man,,,wën.ˈʈʰʊ,,,0
28281003209,"Lago Rosario",-43.24408,-71.32581,3120,perro,dog,,,ʈ͡ʂë.ˈwɐ̝,,,0
28281003209,"Lago Rosario",-43.24408,-71.32581,20070,zorro,fox,,,ŋɘ.ˈɻɘ,,,0
28281003209,"Lago Rosario",-43.24408,-71.32581,20030,gato,cat,,,nɐ̝ɻ.ˈcɪ,,,0
28281003209,"Lago Rosario",-43.24408,-71.32581,10200,liebre,hare,,,mɐ̝.ˈɻɐ̝,,,0
28281003209,"Lago Rosario",-43.24408,-71.32581,3430,piojo,louse,,,t̪ɘn,,,0
28281003209,"Lago Rosario",-43.24408,-71.32581,3810,huevo,egg,,,kʊ.ˈɻɐ̝m,,,0
28281003209,"Lago Rosario",-43.24408,-71.32581,10710,neblina,fog,,,t͡ʃʊ.ˈkʊɻʂ,,,0
28281003209,"Lago Rosario",-43.24408,-71.32581,5410,fuego,fire,,,kʰɘ.ˈt̺͡s̺ɐ̝l,,,0
28281003209,"Lago Rosario",-43.24408,-71.32581,5510,piedra,stone,,,kʊ.ˈɻɐ̝,,,0
28281003209,"Lago Rosario",-43.24408,-71.32581,5430,ceniza,ash,,,ʈ͡ʂʊf.ˈkën,,,0
28281003209,"Lago Rosario",-43.24408,-71.32581,5850,viento,wind,,,ɡɘ.ˈɻʊf,,,0
28281003209,"Lago Rosario",-43.24408,-71.32581,5840,nube,cloud,,,ʈ͡ʂö.ˈmɘ,,,0
28281003209,"Lago Rosario",-43.24408,-71.32581,21530,hace_calor,it_is_hot,,,ˌɐ̝.ɻë.ˈŋɪ,,,0
28281003209,"Lago Rosario",-43.24408,-71.32581,21520,hace_frio,it_is_cold,,,ˌwʊ.t̺͡s̺ë.ˈŋëj,,,0
28281003209,"Lago Rosario",-43.24408,-71.32581,6120,choclo,cob_of_corn,,,ʊ.ˈwɐ̝,,,0
28281003209,"Lago Rosario",-43.24408,-71.32581,20550,harina_tostada,toasted_flour,,,mɘɻ.ˈcʰë,,,0
28281003209,"Lago Rosario",-43.24408,-71.32581,6510,casa,house,,,ɻʊ.ˈkɐ̝,,,0
28281003209,"Lago Rosario",-43.24408,-71.32581,30500,pueblo,town,,,wɐ̝.ˈɻɪ.ɐ̝,,,0
28281003209,"Lago Rosario",-43.24408,-71.32581,6810,camino,road,,,ɻɘ.ˈpɘ,,,0
28281003209,"Lago Rosario",-43.24408,-71.32581,8030,caminar,walk,,,ˌʈ͡ʂë.kɐ̝.ˈt̪ʊn,,,0
28281003209,"Lago Rosario",-43.24408,-71.32581,8110,estar_en_pie,be_standing,,,ʊ.ˌʈ͡ʂɐ̝.ˈlɪj,,,0
28281003209,"Lago Rosario",-43.24408,-71.32581,10550,machacar,smash,,,ʂɐ̝.ˈnɐ̝n,,,0
28281003209,"Lago Rosario",-43.24408,-71.32581,510,anyo,year,,,ˌt͡ʃɪ.ˈpɐ̝n̪.t̪ö,,,0
28281003209,"Lago Rosario",-43.24408,-71.32581,20630,tambor,drum,,,kʊɭ.ˈʈ͡ʂʊŋ,,,0
28281003209,"Lago Rosario",-43.24408,-71.32581,10800,cinta,headband,,,ˌt̺͡s̺ɐ̝.ɻɪ.ˈlöŋ.kö,,,0
28281003209,"Lago Rosario",-43.24408,-71.32581,10030,basta,enough,,,vën.ˈt̺͡s̺ën,,,0
28281003209,"Lago Rosario",-43.24408,-71.32581,6320,flor,flower,,,ʐɐ̝.ˈjën,,,0
28281003209,"Lago Rosario",-43.24408,-71.32581,10430,cascada,waterfall,,,ʈ͡ʂɐ̝.ˈjën,,,0
28281003209,"Lago Rosario",-43.24408,-71.32581,10090,plano,spread_out,,,lɐ̝f,,,0
28281003209,"Lago Rosario",-43.24408,-71.32581,10310,greda_blanca,clay,,,mɐ̝.ˈjö,,,0
28281003209,"Lago Rosario",-43.24408,-71.32581,10500,visita,visitor,,,wɘ.ˈʈ͡ʂɐ̝n,,,0
28281003209,"Lago Rosario",-43.24408,-71.32581,10510,telar,loom,,,wɘ.ˈʈ͡ʂɐ̝l,,,0
28281003209,"Lago Rosario",-43.24408,-71.32581,10070,estrujar,wring,,,kʰɘ.ˈt͡ʃɘn,,,0
28281003209,"Lago Rosario",-43.24408,-71.32581,10590,verde,green,,,kɐ̝.ˈɻɘ,,,0
28281003209,"Lago Rosario",-43.24408,-71.32581,10600,cazuela,soup,,,kö.ˈɻɘ,,,0
28271006509,Jacobacci,-41.28813,-69.55719,70,siete,seven,,,ʐëɣ.ˈʐë,,,0
28271006509,Jacobacci,-41.28813,-69.55719,80,ocho,eight,,,pʰʊ.ˈɻɐ̝,,,0
28271006509,Jacobacci,-41.28813,-69.55719,100,diez,ten,,,mɐ̝.ˈɻɪ,,,0
28271006509,Jacobacci,-41.28813,-69.55719,7010,negro,black,,,kʊ.ˈʐɘ,,,0
28271006509,Jacobacci,-41.28813,-69.55719,7860,pesado,heavy,,,fɐ̝.ˈnëj,,,0
28271006509,Jacobacci,-41.28813,-69.55719,7910,caliente,warm,,,ɐ̝.ˈɻëj,,,0
28271006509,Jacobacci,-41.28813,-69.55719,20680,flaco,skinny,,,ʈ͡ʂöŋ.ˈɡlɪ,,,0
28271006509,Jacobacci,-41.28813,-69.55719,20690,gordo,fat,,,mö.ˈt̺͡s̺ɪ,,,0
28271006509,Jacobacci,-41.28813,-69.55719,2240,diente,tooth,,,fö.ˈɻö,,,0
28271006509,Jacobacci,-41.28813,-69.55719,2620,hueso,bone,,,fö.ˈɻö,,,0
28271006509,Jacobacci,-41.28813,-69.55719,2630,piel,skin,,,ʈ͡ʂɐ̝.ˈwɐ̝,,,0
28271006509,Jacobacci,-41.28813,-69.55719,2710,barriga,belly,,,pɘ.ˈʈ͡ʂɐ̝,,,0
28271006509,Jacobacci,-41.28813,-69.55719,10620,esposa,wife,,,kʊ.ˈɻë,,,0
28271006509,Jacobacci,-41.28813,-69.55719,10740,hombre,man,,,wën.ˈt̺͡s̺ʊ,,,0
28271006509,Jacobacci,-41.28813,-69.55719,3120,perro,dog,,,t̺͡s̺ë.ˈwɐ̝,,,0
28271006509,Jacobacci,-41.28813,-69.55719,20070,zorro,fox,,,ŋɘ.ˈɻɘ,,,0
28271006509,Jacobacci,-41.28813,-69.55719,20030,gato,cat,,,ɲɐ̝ɻ.ˈcʰɪ,,,0
28271006509,Jacobacci,-41.28813,-69.55719,10200,liebre,hare,,,mɐ̝.ˈɻɐ̝,,,0
28271006509,Jacobacci,-41.28813,-69.55719,3420,gusano,worm,,,pʰɪ.ˈɻʊ,,,0
28271006509,Jacobacci,-41.28813,-69.55719,3810,huevo,egg,,,kʰʊ.ˈɻɐ̝m,,,0
28271006509,Jacobacci,-41.28813,-69.55719,10710,neblina,fog,,,ʈ͡ʂʊ.ˈkʊʂ,,,0
28271006509,Jacobacci,-41.28813,-69.55719,5410,fuego,fire,,,kʰɘ.ˈʈ͡ʂɐ̝l,,,0
28271006509,Jacobacci,-41.28813,-69.55719,5510,piedra,stone,,,kʊ.ˈɻɐ̝,,,0
28271006509,Jacobacci,-41.28813,-69.55719,5850,viento,wind,,,kɘ.ˈɻɘf,,,0
28271006509,Jacobacci,-41.28813,-69.55719,5840,nube,cloud,,,ʈ͡ʂö.ˈmɘʎ,,,0
28271006509,Jacobacci,-41.28813,-69.55719,10810,cielo_truenos,thundery_sky,,,ʈ͡ʂɐ̝l.ˌkɐ̝n.wë.ˈnʊ,,,0
28271006509,Jacobacci,-41.28813,-69.55719,21530,hace_calor,it_is_hot,,,ɐ̝.ˌɻë.ˈŋɪ,,,0
28271006509,Jacobacci,-41.28813,-69.55719,21520,hace_frio,it_is_cold,,,wɘ.ˈʈ͡ʂëj,,,0
28271006509,Jacobacci,-41.28813,-69.55719,20550,harina_tostada,toasted_flour,,,mɘɻ.ˈkʰë,,,0
28271006509,Jacobacci,-41.28813,-69.55719,6510,casa,house,,,ɻʊ.ˈkɐ̝,,,0
28271006509,Jacobacci,-41.28813,-69.55719,30500,pueblo,town,,,wɐ̝.ˈɻɪ,,,0
28271006509,Jacobacci,-41.28813,-69.55719,6810,camino,road,,,ʐɘ.ˈpɘ,,,0
28271006509,Jacobacci,-41.28813,-69.55719,8030,caminar,walk,,,t̺͡s̺ë.ˈkɐ̝n,,,0
28271006509,Jacobacci,-41.28813,-69.55719,8110,estar_en_pie,be_standing,,,wʊ.ˌʈ͡ʂɐ̝.ˈlën,,,0
28271006509,Jacobacci,-41.28813,-69.55719,510,anyo,year,,,t͡sɪ.ˈpɐ̝n̪.t̪ʰö,,,0
28271006509,Jacobacci,-41.28813,-69.55719,20630,tambor,drum,,,kʊl.ˈʈ͡ʂʊn,,,0
28271006509,Jacobacci,-41.28813,-69.55719,10800,cinta,headband,,,ˌʈ͡ʂɐ̝.ɻɪ.löŋ.ˈɡö,,,0
28271006509,Jacobacci,-41.28813,-69.55719,10340,quebrar,shatter,,,t̺͡s̺ɐ̝.ˈfön,,,0
28271006509,Jacobacci,-41.28813,-69.55719,10030,basta,enough,,,p͡ɸën.ˈt̺͡s̺ën,,,0
28271006509,Jacobacci,-41.28813,-69.55719,6320,flor,flower,,,ʐɐ̝.ˈjën,,,0
28271006509,Jacobacci,-41.28813,-69.55719,10430,cascada,waterfall,,,ʂɐ̝.ˈjën,,,0
28271006509,Jacobacci,-41.28813,-69.55719,10090,plano,spread_out,,,ɮɐ̝f,,,0
28271006509,Jacobacci,-41.28813,-69.55719,10310,greda_blanca,clay,,,mɐ̝.ˈʒö,,,0
28271006509,Jacobacci,-41.28813,-69.55719,10500,visita,visitor,,,wɪ.ˈt̺͡s̺ɐ̝,,,0
28271006509,Jacobacci,-41.28813,-69.55719,10510,telar,loom,,,ʊ.ˈt͡ʂɐ̝ɬ,,,0
28271006509,Jacobacci,-41.28813,-69.55719,10070,estrujar,wring,,,kʰɮ̩.ˈʈ͡ʂɘn,,,0
28271006509,Jacobacci,-41.28813,-69.55719,10590,verde,green,,,kʰɐ̝.ˈɻɘ,,,0
28271006509,Jacobacci,-41.28813,-69.55719,10600,cazuela,soup,,,kʰö.ˈɻɘ,,,0
28281000209,Cushamen,-42.23392,-71.34994,70,siete,seven,,,ʐëj.ˈlë,,,0
28281000209,Cushamen,-42.23392,-71.34994,80,ocho,eight,,,pʰʊ.ˈʐɐ̝,,,0
28281000209,Cushamen,-42.23392,-71.34994,100,diez,ten,,,mɐ̝.ˈʐɪ,,,0
28281000209,Cushamen,-42.23392,-71.34994,210,mil,thousand,,,wɐ̝.ˈʐɐ̝ŋ.kʰɐ̝,,,0
28281000209,Cushamen,-42.23392,-71.34994,7010,negro,black,,,kʊ.ˈʐɘ,,,0
28281000209,Cushamen,-42.23392,-71.34994,7860,pesado,heavy,,,fɐ̝.ˈnëj,,,0
28281000209,Cushamen,-42.23392,-71.34994,7910,caliente,warm,,,ɐ̝.ˈʐë,,,0
28281000209,Cushamen,-42.23392,-71.34994,20680,flaco,skinny,,,ʈ͡ʂöŋ.ˈɡlɪ,,,0
28281000209,Cushamen,-42.23392,-71.34994,20690,gordo,fat,,,mö.ˈʈ͡ʂɪ,,,0
28281000209,Cushamen,-42.23392,-71.34994,2240,diente,tooth,,,fö.ˈʐö,,,0
28281000209,Cushamen,-42.23392,-71.34994,10560,mandibula,jaw,,,ˌʈ͡ʂɐ̝.ŋɐ̝.ˈʈ͡ʂɐ̝.ŋɐ̝,,,0
28281000209,Cushamen,-42.23392,-71.34994,2620,hueso,bone,,,fö.ˈʐö,,,0
28281000209,Cushamen,-42.23392,-71.34994,2710,barriga,belly,,,pʰɘ.ˈʈ͡ʂɐ̝,,,0
28281000209,Cushamen,-42.23392,-71.34994,10740,hombre,man,,,wën.ˈʈ͡ʂʊ,,,0
28281000209,Cushamen,-42.23392,-71.34994,21400,duenyo_casa,house_owner,,,ˌŋën.ʐʊ.ˈkɐ̝,,,0
28281000209,Cushamen,-42.23392,-71.34994,3120,perro,dog,,,t͡ɹ̝̥ë.ˈwɐ̝,,,0
28281000209,Cushamen,-42.23392,-71.34994,20070,zorro,fox,,,ŋɘ.ˈʐɘ,,,0
28281000209,Cushamen,-42.23392,-71.34994,20030,gato,cat,,,nɐ̝ɻ.ˈcʰɪ,,,0
28281000209,Cushamen,-42.23392,-71.34994,10200,liebre,hare,,,mɐ̝.ˈʐɐ̝,,,0
28281000209,Cushamen,-42.23392,-71.34994,3420,gusano,worm,,,pɪ.ˈʐʊ,,,0
28281000209,Cushamen,-42.23392,-71.34994,3430,piojo,louse,,,pɘ̆.ˈʈ͡ʂɐ̝ɻ,,,0
28281000209,Cushamen,-42.23392,-71.34994,3810,huevo,egg,,,kʊ.ˈʐɐ̝m,,,0
28281000209,Cushamen,-42.23392,-71.34994,10710,neblina,fog,,,ʈ͡ʂʊ.ˈkʊɻ,,,0
28281000209,Cushamen,-42.23392,-71.34994,5410,fuego,fire,,,kʰɘ̆.ˈʈ͡ʂɐ̝l,,,0
28281000209,Cushamen,-42.23392,-71.34994,5510,piedra,stone,,,kʊ.ˈʐɐ̝,,,0
28281000209,Cushamen,-42.23392,-71.34994,5430,ceniza,ash,,,ʈ͡ʂʊf.ˈkën,,,0
28281000209,Cushamen,-42.23392,-71.34994,10120,barro,mud,,,fʊ.ˈt̺͡s̺ɐ̝,,,0
28281000209,Cushamen,-42.23392,-71.34994,5850,viento,wind,,,kʰɘ.ˈʐɘf,,,0
28281000209,Cushamen,-42.23392,-71.34994,5840,nube,cloud,,,ʈ͡ʂö.ˈmɘɻ,,,0
28281000209,Cushamen,-42.23392,-71.34994,21530,hace_calor,it_is_hot,,,ɐ̝.ˌʐë.ˈŋëj,,,0
28281000209,Cushamen,-42.23392,-71.34994,21520,hace_frio,it_is_cold,,,ʊ.ˌʈ͡ʂë.ˈnë,,,0
28281000209,Cushamen,-42.23392,-71.34994,6120,choclo,cob_of_corn,,,wɐ̝,,,0
28281000209,Cushamen,-42.23392,-71.34994,6510,casa,house,,,ʐʊ.ˈkʰɐ̝,,,0
28281000209,Cushamen,-42.23392,-71.34994,30500,pueblo,town,,,wɐ̝.ˈʐɪ.ɐ̝,,,0
28281000209,Cushamen,-42.23392,-71.34994,20890,arado,plough,,,ʂɘ.ˈŋɐ̝l,,,0
28281000209,Cushamen,-42.23392,-71.34994,6810,camino,road,,,ʐʊ.ˈpɘ,,,0
28281000209,Cushamen,-42.23392,-71.34994,8030,caminar,walk,,,ʂë.ˈkɐ̝j,,,0
28281000209,Cushamen,-42.23392,-71.34994,8110,estar_en_pie,be_standing,,,wɪ.ˌʈ͡ʂɐ̝.ˈlëj,,,0
28281000209,Cushamen,-42.23392,-71.34994,10550,machacar,smash,,,ʈ͡ʂɐ̝.ˈnɐ̝n,,,0
28281000209,Cushamen,-42.23392,-71.34994,21050,demasiado,too_much,,,fën.ˈʈ͡ʂën,,,0
28281000209,Cushamen,-42.23392,-71.34994,20630,tambor,drum,,,kʊl.ˈʈ͡ʂʊn,,,0
28281000209,Cushamen,-42.23392,-71.34994,10800,cinta,headband,,,ˌʂɐ̝.ɻɪ.ˈlöŋ.kö,,,0
28281000209,Cushamen,-42.23392,-71.34994,6320,flor,flower,,,ʂɐ̝.ˈjën,,,0
28281000209,Cushamen,-42.23392,-71.34994,10430,cascada,waterfall,,,ʈ͡ʂɐ̝.ˈjën,,,0
28281000209,Cushamen,-42.23392,-71.34994,10090,plano,spread_out,,,nɘɻ,,,0
28281000209,Cushamen,-42.23392,-71.34994,10310,greda_blanca,clay,,,mɐ̝.ˈʒʊ,,,0
28281000209,Cushamen,-42.23392,-71.34994,10500,visita,visitor,,,wɪ.ˈʈ͡ʂɐ̝n,,,0
28281000209,Cushamen,-42.23392,-71.34994,10510,telar,loom,,,wɪ.ˈʈ͡ʂɐ̝l,,,0
28281000209,Cushamen,-42.23392,-71.34994,10070,estrujar,wring,,,kʰɘ.ˈʈ͡ʂɘn,,,0
28281000209,Cushamen,-42.23392,-71.34994,10590,verde,green,,,kɐ̝.ˈʐɘ,,,0
28281000209,Cushamen,-42.23392,-71.34994,10600,cazuela,soup,,,kö.ˈʐɘ,,,0
28281002209,Futaleufú,-42.95052,-71.18351,70,siete,seven,,,ʐë.ˈɣlë,,,0
28281002209,Futaleufú,-42.95052,-71.18351,80,ocho,eight,,,hʊ.ˈɻɐ̝,,,0
28281002209,Futaleufú,-42.95052,-71.18351,7010,negro,black,,,kʰʊ.ˈʐʊ,,,0
28281002209,Futaleufú,-42.95052,-71.18351,7910,caliente,warm,,,ɐ̝.ˈʐël̠,,,0
28281002209,Futaleufú,-42.95052,-71.18351,20680,flaco,skinny,,,ʈ͡ʂöŋ.ˈlɪ,,,0
28281002209,Futaleufú,-42.95052,-71.18351,20690,gordo,fat,,,mö.ˈt̺͡s̺ɪ,,,0
28281002209,Futaleufú,-42.95052,-71.18351,2240,diente,tooth,,,fö.ˈʐö,,,0
28281002209,Futaleufú,-42.95052,-71.18351,2620,hueso,bone,,,fö.ˈɻö,,,0
28281002209,Futaleufú,-42.95052,-71.18351,2710,barriga,belly,,,pɘ̆.ˈʈ͡ʂɐ̝,,,0
28281002209,Futaleufú,-42.95052,-71.18351,10620,esposa,wife,,,hʊ.ˈʐën.wë̥,,,0
28281002209,Futaleufú,-42.95052,-71.18351,10740,hombre,man,,,wën.ˈʈ͡ʂʊ,,,0
28281002209,Futaleufú,-42.95052,-71.18351,21400,duenyo_casa,house_owner,,,ˌɲën.ʐʊ.ˈkɐ̝,,,0
28281002209,Futaleufú,-42.95052,-71.18351,3120,perro,dog,,,ʈ͡ʂë.ˈwɐ̝,,,0
28281002209,Futaleufú,-42.95052,-71.18351,20070,zorro,fox,,,ŋɘ.ˈʐʊ,,,0
28281002209,Futaleufú,-42.95052,-71.18351,20030,gato,cat,,,nɐ̝ɻ.ˈkɪ,,,0
28281002209,Futaleufú,-42.95052,-71.18351,10200,liebre,hare,,,mɐ̝.ˈɻɐ̝,,,0
28281002209,Futaleufú,-42.95052,-71.18351,3420,gusano,worm,,,pʰɪ.ˈʐʊ,,,0
28281002209,Futaleufú,-42.95052,-71.18351,3430,piojo,louse,,,pʰɘ.ˈʈ͡ʂɐ̝ɻ,,,0
28281002209,Futaleufú,-42.95052,-71.18351,3810,huevo,egg,,,hʊ.ˈɻɐ̝m,,,0
28281002209,Futaleufú,-42.95052,-71.18351,10710,neblina,fog,,,ʈ͡ʂʊ̆.ˈkʊɻ,,,0
28281002209,Futaleufú,-42.95052,-71.18351,5410,fuego,fire,,,wç̩.ˈʈ͡ʂɐ̝l,,,0
28281002209,Futaleufú,-42.95052,-71.18351,5510,piedra,stone,,,hʊ.ˈɻɐ̝,,,0
28281002209,Futaleufú,-42.95052,-71.18351,5430,ceniza,ash,,,ʈ͡ʂʊɸ.ˈɸën,,,0
28281002209,Futaleufú,-42.95052,-71.18351,10120,barro,mud,,,fö.ˈʈ͡ʂɐ̝,,,0
28281002209,Futaleufú,-42.95052,-71.18351,5850,viento,wind,,,kʰʊ.ˈɻɘf,,,0
28281002209,Futaleufú,-42.95052,-71.18351,20550,harina_tostada,toasted_flour,,,mɘɻ.ˈkʰë,,,0
28281002209,Futaleufú,-42.95052,-71.18351,6510,casa,house,,,ʂʊ̆.ˈkɐ̝,,,0
28281002209,Futaleufú,-42.95052,-71.18351,20890,arado,plough,,,ɐ̝.ˈɹɐ̝w,,,0
28281002209,Futaleufú,-42.95052,-71.18351,6810,camino,road,,,ʐɘ.ˈɸʊ,,,0
28281002209,Futaleufú,-42.95052,-71.18351,510,anyo,year,,,ʃ̩.ˈpɐ̝n̪.t̪ʊ,,,0
28281002209,Futaleufú,-42.95052,-71.18351,10800,cinta,headband,,,ʈ͡ʂɐ̝ɻ.ˈlöŋ.kö,,,0
28281002209,Futaleufú,-42.95052,-71.18351,6320,flor,flower,,,ʐɐ̝.ˈjën,,,0
28281002209,Futaleufú,-42.95052,-71.18351,10310,greda_blanca,clay,,,mɐ̝.ˈʃö,,,0
28281002209,Futaleufú,-42.95052,-71.18351,10500,visita,visitor,,,ʊ.ˈʈ͡ʂɐ̝n,,,0
28281002209,Futaleufú,-42.95052,-71.18351,10510,telar,loom,,,ʊ.ˈʈ͡ʂɐ̝l,,,0
28281002209,Futaleufú,-42.95052,-71.18351,10590,verde,green,,,kɐ̝.ˈɻʊn,,,0
28281002209,Futaleufú,-42.95052,-71.18351,10600,cazuela,soup,,,kö.ˈɻʊ,,,0
