LanguageId,LanguageName,Latitude,Longitude,WordId,WordModernName1,WordModernName2,WordProtoName1,WordProtoName2,Phonetic,SpellingAltv1,SpellingAltv2,NotCognateWithMainWordInThisFamily
48741151109,"V’ënen Taute: Alpalak",-15.99722,167.1825,8020,come,kam,kam,,-ma,,,0
48741151109,"V’ënen Taute: Alpalak",-15.99722,167.1825,8030,walk,wokabaot,wokabaot,,-feliɛn,,,0
48741151109,"V’ënen Taute: Alpalak",-15.99722,167.1825,8110,stand,stanap,stanap,,-pətir,,,0
48741151109,"V’ënen Taute: Alpalak",-15.99722,167.1825,8120,sit,sidaon,sidaon,,-lak,,,0
48741151109,"V’ënen Taute: Alpalak",-15.99722,167.1825,8130,fall,foldaon,foldaon,,-irs,,,0
48741151109,"V’ënen Taute: Alpalak",-15.99722,167.1825,8140,lie_down,ledaon,ledaon,,-wasri,,,0
48741151109,"V’ënen Taute: Alpalak",-15.99722,167.1825,8150,turn,tanem,tanem,,-fafʷi,,,0
48741151109,"V’ënen Taute: Alpalak",-15.99722,167.1825,8180,climb,klaem,klaem,,-xapriɛn,,,0
48741151109,"V’ënen Taute: Alpalak",-15.99722,167.1825,8210,swim,swim,swim,,..,,,0
48741151109,"V’ënen Taute: Alpalak",-15.99722,167.1825,8220,fly_verb,flae,flae,,-tɛtv,,,0
48741151109,"V’ënen Taute: Alpalak",-15.99722,167.1825,8260,throw,sakemaot,sakemaot,,-sərani,,,0
48741151109,"V’ënen Taute: Alpalak",-15.99722,167.1825,8270,hide,haetem,haetem,,-tituani,,,0
48741151109,"V’ënen Taute: Alpalak",-15.99722,167.1825,8310,eat,kakae,kakae,,..,,,0
48741151109,"V’ënen Taute: Alpalak",-15.99722,167.1825,8320,drink,drink,drink,,-mini,,,0
48741151109,"V’ënen Taute: Alpalak",-15.99722,167.1825,8360,yawn,wantem_silip,wantem_silip,,-n̼an̼ao,,,0
48741151109,"V’ënen Taute: Alpalak",-15.99722,167.1825,8370,spit,spet,spet,,-tup̼i,,,0
48741151109,"V’ënen Taute: Alpalak",-15.99722,167.1825,8400,dream,drim,drim,,..,,,0
48741151109,"V’ënen Taute: Alpalak",-15.99722,167.1825,8410,sleep,silip,silip,,-n̼atr,,,0
48741151109,"V’ënen Taute: Alpalak",-15.99722,167.1825,8420,live,laev,laev,,-silif,,,0
48741151109,"V’ënen Taute: Alpalak",-15.99722,167.1825,8430,die,ded,ded,,-n̼a,,,0
48741151109,"V’ënen Taute: Alpalak",-15.99722,167.1825,8440,kill,kilimded,kilimded,,-rpə-pni,,,0
48741151109,"V’ënen Taute: Alpalak",-15.99722,167.1825,8510,see,luk,luk,,-le,,,0
48741151109,"V’ënen Taute: Alpalak",-15.99722,167.1825,8520,hear,harem,harem,,a-rni,,,0
48741151109,"V’ënen Taute: Alpalak",-15.99722,167.1825,8540,sniff,smel,smel,,-min,,,0
48741151109,"V’ënen Taute: Alpalak",-15.99722,167.1825,8580,laugh,laf,laf,,-ftma,,,0
48741151109,"V’ënen Taute: Alpalak",-15.99722,167.1825,8590,cry,krae,krae,,..,,,0
48741151109,"V’ënen Taute: Alpalak",-15.99722,167.1825,8670,blow,blo,blo,,..,,,0
48741151109,"V’ënen Taute: Alpalak",-15.99722,167.1825,8680,burn,bon,bon,,..,,,0
48741151109,"V’ënen Taute: Alpalak",-15.99722,167.1825,8740,sew,somap,somap,,-lilai,,,0
48741151109,"V’ënen Taute: Alpalak",-15.99722,167.1825,8800,pound,kilkilim,kilkilim,,-rprpʷi,,,0
48741151109,"V’ënen Taute: Alpalak",-15.99722,167.1825,8810,hit,kilim,kilim,,-rpi,,,0
48741151109,"V’ënen Taute: Alpalak",-15.99722,167.1825,8870,cut,katem,katem,,-tri,,,0
48741151109,"V’ënen Taute: Alpalak",-15.99722,167.1825,8880,split,spletem,spletem,,-fəlpri,,,0
48741151109,"V’ënen Taute: Alpalak",-15.99722,167.1825,8890,dig,digim,digim,,-xəli,,,0
48741151109,"V’ënen Taute: Alpalak",-15.99722,167.1825,8920,hunt,kasem,kasem,,-xaxar,,,0
48741151109,"V’ënen Taute: Alpalak",-15.99722,167.1825,8930,hold,holem,holem,,-wənde,,,0
48741151109,"V’ënen Taute: Alpalak",-15.99722,167.1825,8950,fear,fraet,fraet,,ⁿdɛⁿdʳn,,,0
48741151109,"V’ënen Taute: Alpalak",-15.99722,167.1825,8960,count,kaontem,kaontem,,-spani,,,0
48741151109,"V’ënen Taute: Alpalak",-15.99722,167.1825,8970,breathe,pulum_win,pulum_win,,a-n̼in̼in,,,0
48741151109,"V’ënen Taute: Alpalak",-15.99722,167.1825,9000,vomit,traot,traot,,a-lu,,,0
48741151109,"V’ënen Taute: Alpalak",-15.99722,167.1825,9010,tie,fasem_taet,fasem_taet,,-xawi,,,0
48741151109,"V’ënen Taute: Alpalak",-15.99722,167.1825,9020,squeeze,skwisim,skwisim,,-mlani,,,0
48741151109,"V’ënen Taute: Alpalak",-15.99722,167.1825,9030,swell,solap,solap,,-iran,,,0
48741151109,"V’ënen Taute: Alpalak",-15.99722,167.1825,9040,say,talem,talem,,-fəri,,,0
48741151109,"V’ënen Taute: Alpalak",-15.99722,167.1825,9050,scratch,sikrasem,sikrasem,,-xarxari,,,0
48741151109,"V’ënen Taute: Alpalak",-15.99722,167.1825,9060,stab,stikim,stikim,,..,,,0
48741151109,"V’ënen Taute: Alpalak",-15.99722,167.1825,9120,buy,pem,pem,,-uli,,,0
48741151109,"V’ënen Taute: Alpalak",-15.99722,167.1825,9130,steal,stilim,stilim,,-fənaɣi,,,0
48741151109,"V’ënen Taute: Alpalak",-15.99722,167.1825,9180,plant,planem,planem,,-lawi,,,0
48741151109,"V’ënen Taute: Alpalak",-15.99722,167.1825,9220,cook,kuk,kuk,,a-taxpai,,,0
48741151109,"V’ënen Taute: Alpalak",-15.99722,167.1825,9400,shoot,shutum,shutum,,-luwai,,,0
48741151109,"V’ënen Taute: Alpalak",-15.99722,167.1825,9500,work,wok,wok,,-pare,,,0
48741151109,"V’ënen Taute: Alpalak",-15.99722,167.1825,9620,open,openem,openem,,-wale,,,0
48741153209,"V’ënen Taute: Benenavet",-16.02038,167.17671,8020,come,kam,kam,,pama,,,0
48741153209,"V’ënen Taute: Benenavet",-16.02038,167.17671,8030,walk,wokabaot,wokabaot,,vɛl,,,0
48741153209,"V’ënen Taute: Benenavet",-16.02038,167.17671,8110,stand,stanap,stanap,,nɛvtir,,,0
48741153209,"V’ënen Taute: Benenavet",-16.02038,167.17671,8120,sit,sidaon,sidaon,,lk,,,0
48741153209,"V’ënen Taute: Benenavet",-16.02038,167.17671,8130,fall,foldaon,foldaon,,irɪs,,,0
48741153209,"V’ënen Taute: Benenavet",-16.02038,167.17671,8140,lie_down,ledaon,ledaon,,..,,,0
48741153209,"V’ënen Taute: Benenavet",-16.02038,167.17671,8150,turn,tanem,tanem,,..,,,0
48741153209,"V’ënen Taute: Benenavet",-16.02038,167.17671,8180,climb,klaem,klaem,,xapr,,,0
48741153209,"V’ënen Taute: Benenavet",-16.02038,167.17671,8210,swim,swim,swim,,..,,,0
48741153209,"V’ënen Taute: Benenavet",-16.02038,167.17671,8220,fly_verb,flae,flae,,itɛtv,,,0
48741153209,"V’ënen Taute: Benenavet",-16.02038,167.17671,8260,throw,sakemaot,sakemaot,,sərani,,,0
48741153209,"V’ënen Taute: Benenavet",-16.02038,167.17671,8270,hide,haetem,haetem,,tituani,,,0
48741153209,"V’ënen Taute: Benenavet",-16.02038,167.17671,8310,eat,kakae,kakae,,xatat,,,0
48741153209,"V’ënen Taute: Benenavet",-16.02038,167.17671,8320,drink,drink,drink,,..,,,0
48741153209,"V’ënen Taute: Benenavet",-16.02038,167.17671,8360,yawn,wantem_silip,wantem_silip,,..,,,0
48741153209,"V’ënen Taute: Benenavet",-16.02038,167.17671,8370,spit,spet,spet,,tupʷi,,,0
48741153209,"V’ënen Taute: Benenavet",-16.02038,167.17671,8400,dream,drim,drim,,"an̼atr kale",,,0
48741153209,"V’ënen Taute: Benenavet",-16.02038,167.17671,8410,sleep,silip,silip,,n̼atr,,,0
48741153209,"V’ënen Taute: Benenavet",-16.02038,167.17671,8420,live,laev,laev,,..,,,0
48741153209,"V’ënen Taute: Benenavet",-16.02038,167.17671,8430,die,ded,ded,,in̼a,,,0
48741153209,"V’ënen Taute: Benenavet",-16.02038,167.17671,8440,kill,kilimded,kilimded,,harpin̼a,,,0
48741153209,"V’ënen Taute: Benenavet",-16.02038,167.17671,8510,see,luk,luk,,..,,,0
48741153209,"V’ënen Taute: Benenavet",-16.02038,167.17671,8520,hear,harem,harem,,nɛrni,,,0
48741153209,"V’ënen Taute: Benenavet",-16.02038,167.17671,8540,sniff,smel,smel,,..,,,0
48741153209,"V’ënen Taute: Benenavet",-16.02038,167.17671,8580,laugh,laf,laf,,nɪvutma,,,0
48741153209,"V’ënen Taute: Benenavet",-16.02038,167.17671,8590,cry,krae,krae,,ivalo,,,0
48741153209,"V’ënen Taute: Benenavet",-16.02038,167.17671,8670,blow,blo,blo,,..,,,0
48741153209,"V’ënen Taute: Benenavet",-16.02038,167.17671,8680,burn,bon,bon,,..,,,0
48741153209,"V’ënen Taute: Benenavet",-16.02038,167.17671,8740,sew,somap,somap,,..,,,0
48741153209,"V’ënen Taute: Benenavet",-16.02038,167.17671,8800,pound,kilkilim,kilkilim,,harpi,,,0
48741153209,"V’ënen Taute: Benenavet",-16.02038,167.17671,8810,hit,kilim,kilim,,hɛrpi,,,0
48741153209,"V’ënen Taute: Benenavet",-16.02038,167.17671,8870,cut,katem,katem,,atri,,,0
48741153209,"V’ënen Taute: Benenavet",-16.02038,167.17671,8880,split,spletem,spletem,,hetərpapri,,,0
48741153209,"V’ënen Taute: Benenavet",-16.02038,167.17671,8890,dig,digim,digim,,haɣəli,,,0
48741153209,"V’ënen Taute: Benenavet",-16.02038,167.17671,8920,hunt,kasem,kasem,,..,,,0
48741153209,"V’ënen Taute: Benenavet",-16.02038,167.17671,8930,hold,holem,holem,,wənde,,,0
48741153209,"V’ënen Taute: Benenavet",-16.02038,167.17671,8950,fear,fraet,fraet,,nɛⁿdʳn,,,0
48741153209,"V’ënen Taute: Benenavet",-16.02038,167.17671,8960,count,kaontem,kaontem,,..,,,0
48741153209,"V’ënen Taute: Benenavet",-16.02038,167.17671,8970,breathe,pulum_win,pulum_win,,herɛvnalɛn,,,0
48741153209,"V’ënen Taute: Benenavet",-16.02038,167.17671,9000,vomit,traot,traot,,ilu,,,0
48741153209,"V’ënen Taute: Benenavet",-16.02038,167.17671,9010,tie,fasem_taet,fasem_taet,,xawi,,,0
48741153209,"V’ënen Taute: Benenavet",-16.02038,167.17671,9020,squeeze,skwisim,skwisim,,..,,,0
48741153209,"V’ënen Taute: Benenavet",-16.02038,167.17671,9030,swell,solap,solap,,..,,,0
48741153209,"V’ënen Taute: Benenavet",-16.02038,167.17671,9040,say,talem,talem,,..,,,0
48741153209,"V’ënen Taute: Benenavet",-16.02038,167.17671,9050,scratch,sikrasem,sikrasem,,xarxari,,,0
48741153209,"V’ënen Taute: Benenavet",-16.02038,167.17671,9060,stab,stikim,stikim,,..,,,0
48741153209,"V’ënen Taute: Benenavet",-16.02038,167.17671,9120,buy,pem,pem,,holi,,,0
48741153209,"V’ënen Taute: Benenavet",-16.02038,167.17671,9130,steal,stilim,stilim,,..,,,0
48741153209,"V’ënen Taute: Benenavet",-16.02038,167.17671,9180,plant,planem,planem,,lawi,,,0
48741153209,"V’ënen Taute: Benenavet",-16.02038,167.17671,9400,shoot,shutum,shutum,,luai,,,0
48741153209,"V’ënen Taute: Benenavet",-16.02038,167.17671,9500,work,wok,wok,,..,,,0
48741153209,"V’ënen Taute: Benenavet",-16.02038,167.17671,9620,open,openem,openem,,wale,,,0
48741155209,"V’ënen Taute: Benmara",-16.05552,167.23261,8020,come,kam,kam,,-n̼a,,,0
48741155209,"V’ënen Taute: Benmara",-16.05552,167.23261,8030,walk,wokabaot,wokabaot,,-fɛð̼,,,0
48741155209,"V’ënen Taute: Benmara",-16.05552,167.23261,8110,stand,stanap,stanap,,-pɪtir,,,0
48741155209,"V’ënen Taute: Benmara",-16.05552,167.23261,8120,sit,sidaon,sidaon,,-lək,,,0
48741155209,"V’ënen Taute: Benmara",-16.05552,167.23261,8130,fall,foldaon,foldaon,,-irɪs,,,0
48741155209,"V’ënen Taute: Benmara",-16.05552,167.23261,8140,lie_down,ledaon,ledaon,,-wɛsərəx,,,0
48741155209,"V’ënen Taute: Benmara",-16.05552,167.23261,8150,turn,tanem,tanem,,..,,,0
48741155209,"V’ënen Taute: Benmara",-16.05552,167.23261,8180,climb,klaem,klaem,,-xapr,,,0
48741155209,"V’ënen Taute: Benmara",-16.05552,167.23261,8210,swim,swim,swim,,..,,,0
48741155209,"V’ënen Taute: Benmara",-16.05552,167.23261,8220,fly_verb,flae,flae,,i-tɛtf,,,0
48741155209,"V’ënen Taute: Benmara",-16.05552,167.23261,8260,throw,sakemaot,sakemaot,,-srani,,,0
48741155209,"V’ënen Taute: Benmara",-16.05552,167.23261,8270,hide,haetem,haetem,,-tituani,,,0
48741155209,"V’ënen Taute: Benmara",-16.05552,167.23261,8310,eat,kakae,kakae,,-xatat,,,0
48741155209,"V’ënen Taute: Benmara",-16.05552,167.23261,8320,drink,drink,drink,,-mɪni,,,0
48741155209,"V’ënen Taute: Benmara",-16.05552,167.23261,8360,yawn,wantem_silip,wantem_silip,,-mamow,,,0
48741155209,"V’ënen Taute: Benmara",-16.05552,167.23261,8370,spit,spet,spet,,-tup̼i,,,0
48741155209,"V’ënen Taute: Benmara",-16.05552,167.23261,8400,dream,drim,drim,,li-lixərɛn,,,0
48741155209,"V’ënen Taute: Benmara",-16.05552,167.23261,8410,sleep,silip,silip,,-n̼ætr,,,0
48741155209,"V’ënen Taute: Benmara",-16.05552,167.23261,8420,live,laev,laev,,i-silɪf,,,0
48741155209,"V’ënen Taute: Benmara",-16.05552,167.23261,8430,die,ded,ded,,i-n̼a,,,0
48741155209,"V’ënen Taute: Benmara",-16.05552,167.23261,8440,kill,kilimded,kilimded,,-rpi-pɪni,,,0
48741155209,"V’ënen Taute: Benmara",-16.05552,167.23261,8510,see,luk,luk,,pə-le,,,0
48741155209,"V’ënen Taute: Benmara",-16.05552,167.23261,8520,hear,harem,harem,,pə-vrn,,,0
48741155209,"V’ënen Taute: Benmara",-16.05552,167.23261,8540,sniff,smel,smel,,-min,,,0
48741155209,"V’ënen Taute: Benmara",-16.05552,167.23261,8580,laugh,laf,laf,,-ftɪma,,,0
48741155209,"V’ënen Taute: Benmara",-16.05552,167.23261,8590,cry,krae,krae,,-falow,,,0
48741155209,"V’ënen Taute: Benmara",-16.05552,167.23261,8670,blow,blo,blo,,-tvtv,,,0
48741155209,"V’ënen Taute: Benmara",-16.05552,167.23261,8680,burn,bon,bon,,i-xapu,,,0
48741155209,"V’ënen Taute: Benmara",-16.05552,167.23261,8740,sew,somap,somap,,..,,,0
48741155209,"V’ënen Taute: Benmara",-16.05552,167.23261,8800,pound,kilkilim,kilkilim,,-rprpi,,,0
48741155209,"V’ënen Taute: Benmara",-16.05552,167.23261,8810,hit,kilim,kilim,,pa-rpi,,,0
48741155209,"V’ënen Taute: Benmara",-16.05552,167.23261,8870,cut,katem,katem,,-tri,,,0
48741155209,"V’ënen Taute: Benmara",-16.05552,167.23261,8880,split,spletem,spletem,,-fɪlpri,,,0
48741155209,"V’ënen Taute: Benmara",-16.05552,167.23261,8890,dig,digim,digim,,-xəli,,,0
48741155209,"V’ënen Taute: Benmara",-16.05552,167.23261,8920,hunt,kasem,kasem,,-raxarax,,,0
48741155209,"V’ënen Taute: Benmara",-16.05552,167.23261,8930,hold,holem,holem,,-we,,,0
48741155209,"V’ënen Taute: Benmara",-16.05552,167.23261,8950,fear,fraet,fraet,,ⁿdɛⁿdʳn,,,0
48741155209,"V’ënen Taute: Benmara",-16.05552,167.23261,8960,count,kaontem,kaontem,,-spani,,,0
48741155209,"V’ënen Taute: Benmara",-16.05552,167.23261,8970,breathe,pulum_win,pulum_win,,"rɪfɪn alɛn",,,0
48741155209,"V’ënen Taute: Benmara",-16.05552,167.23261,9000,vomit,traot,traot,,-lu,,,0
48741155209,"V’ënen Taute: Benmara",-16.05552,167.23261,9010,tie,fasem_taet,fasem_taet,,pa-xawi,,,0
48741155209,"V’ënen Taute: Benmara",-16.05552,167.23261,9020,squeeze,skwisim,skwisim,,-paxsi,,,0
48741155209,"V’ënen Taute: Benmara",-16.05552,167.23261,9030,swell,solap,solap,,-jɛrɛn,,,0
48741155209,"V’ënen Taute: Benmara",-16.05552,167.23261,9040,say,talem,talem,,pɔ-vri,,,0
48741155209,"V’ënen Taute: Benmara",-16.05552,167.23261,9050,scratch,sikrasem,sikrasem,,a-xarxari,,,0
48741155209,"V’ënen Taute: Benmara",-16.05552,167.23261,9060,stab,stikim,stikim,,pə-fai,,,0
48741155209,"V’ënen Taute: Benmara",-16.05552,167.23261,9120,buy,pem,pem,,-uli,,,0
48741155209,"V’ënen Taute: Benmara",-16.05552,167.23261,9130,steal,stilim,stilim,,-vɪnaɣi,,,0
48741155209,"V’ënen Taute: Benmara",-16.05552,167.23261,9180,plant,planem,planem,,-lawi,,,0
48741155209,"V’ënen Taute: Benmara",-16.05552,167.23261,9400,shoot,shutum,shutum,,pə-lue,,,0
48741155209,"V’ënen Taute: Benmara",-16.05552,167.23261,9500,work,wok,wok,,-ⁿpare,,,0
48741155209,"V’ënen Taute: Benmara",-16.05552,167.23261,9620,open,openem,openem,,-jɛluwe,,,0
48741157409,"V’ënen Taute: Unmet",-16.15371,167.26022,8020,come,kam,kam,,nɪ-ma,,,0
48741157409,"V’ënen Taute: Unmet",-16.15371,167.26022,8030,walk,wokabaot,wokabaot,,-vɛl,,,0
48741157409,"V’ënen Taute: Unmet",-16.15371,167.26022,8110,stand,stanap,stanap,,nɪ-ptir,,,0
48741157409,"V’ënen Taute: Unmet",-16.15371,167.26022,8120,sit,sidaon,sidaon,,li-lak,,,0
48741157409,"V’ënen Taute: Unmet",-16.15371,167.26022,8130,fall,foldaon,foldaon,,-irɪs,,,0
48741157409,"V’ënen Taute: Unmet",-16.15371,167.26022,8140,lie_down,ledaon,ledaon,,"a-wasri nate",,,0
48741157409,"V’ënen Taute: Unmet",-16.15371,167.26022,8150,turn,tanem,tanem,,..,,,0
48741157409,"V’ënen Taute: Unmet",-16.15371,167.26022,8180,climb,klaem,klaem,,-xapr,,,0
48741157409,"V’ënen Taute: Unmet",-16.15371,167.26022,8210,swim,swim,swim,,..,,,0
48741157409,"V’ënen Taute: Unmet",-16.15371,167.26022,8220,fly_verb,flae,flae,,-tɛtv,,,0
48741157409,"V’ënen Taute: Unmet",-16.15371,167.26022,8260,throw,sakemaot,sakemaot,,-sərani,,,0
48741157409,"V’ënen Taute: Unmet",-16.15371,167.26022,8270,hide,haetem,haetem,,-tutuani,,,0
48741157409,"V’ënen Taute: Unmet",-16.15371,167.26022,8310,eat,kakae,kakae,,-timax,,,0
48741157409,"V’ënen Taute: Unmet",-16.15371,167.26022,8320,drink,drink,drink,,apa-minimin,,,0
48741157409,"V’ënen Taute: Unmet",-16.15371,167.26022,8360,yawn,wantem_silip,wantem_silip,,..,,,0
48741157409,"V’ënen Taute: Unmet",-16.15371,167.26022,8370,spit,spet,spet,,-tupi,,,0
48741157409,"V’ënen Taute: Unmet",-16.15371,167.26022,8400,dream,drim,drim,,li-liɣren,,,0
48741157409,"V’ënen Taute: Unmet",-16.15371,167.26022,8410,sleep,silip,silip,,-matr,,,0
48741157409,"V’ënen Taute: Unmet",-16.15371,167.26022,8420,live,laev,laev,,-siliv,,,0
48741157409,"V’ënen Taute: Unmet",-16.15371,167.26022,8430,die,ded,ded,,i-n̼a,,,0
48741157409,"V’ënen Taute: Unmet",-16.15371,167.26022,8440,kill,kilimded,kilimded,,-rpi-pini,,,0
48741157409,"V’ënen Taute: Unmet",-16.15371,167.26022,8510,see,luk,luk,,tɛ-le,,,0
48741157409,"V’ënen Taute: Unmet",-16.15371,167.26022,8520,hear,harem,harem,,ta-rni,,,0
48741157409,"V’ënen Taute: Unmet",-16.15371,167.26022,8540,sniff,smel,smel,,-min,,,0
48741157409,"V’ënen Taute: Unmet",-16.15371,167.26022,8580,laugh,laf,laf,,nɪ-vutma,,,0
48741157409,"V’ënen Taute: Unmet",-16.15371,167.26022,8590,cry,krae,krae,,-valo,,,0
48741157409,"V’ënen Taute: Unmet",-16.15371,167.26022,8670,blow,blo,blo,,..,,,0
48741157409,"V’ënen Taute: Unmet",-16.15371,167.26022,8680,burn,bon,bon,,i-vɛn,,,0
48741157409,"V’ënen Taute: Unmet",-16.15371,167.26022,8740,sew,somap,somap,,..,,,0
48741157409,"V’ënen Taute: Unmet",-16.15371,167.26022,8800,pound,kilkilim,kilkilim,,-rpi,,,0
48741157409,"V’ënen Taute: Unmet",-16.15371,167.26022,8810,hit,kilim,kilim,,pa-rpi,,,0
48741157409,"V’ënen Taute: Unmet",-16.15371,167.26022,8870,cut,katem,katem,,a-tri,,,0
48741157409,"V’ënen Taute: Unmet",-16.15371,167.26022,8880,split,spletem,spletem,,-tərpri,,,0
48741157409,"V’ënen Taute: Unmet",-16.15371,167.26022,8890,dig,digim,digim,,-xəli,,,0
48741157409,"V’ënen Taute: Unmet",-16.15371,167.26022,8920,hunt,kasem,kasem,,-xaɣaxiɛn,,,0
48741157409,"V’ënen Taute: Unmet",-16.15371,167.26022,8930,hold,holem,holem,,-wənde,,,0
48741157409,"V’ënen Taute: Unmet",-16.15371,167.26022,8950,fear,fraet,fraet,,nɛⁿdʳn,,,0
48741157409,"V’ënen Taute: Unmet",-16.15371,167.26022,8960,count,kaontem,kaontem,,-spɪsnan,,,0
48741157409,"V’ënen Taute: Unmet",-16.15371,167.26022,8970,breathe,pulum_win,pulum_win,,-rivinalɛn,,,0
48741157409,"V’ënen Taute: Unmet",-16.15371,167.26022,9000,vomit,traot,traot,,-lu,,,0
48741157409,"V’ënen Taute: Unmet",-16.15371,167.26022,9010,tie,fasem_taet,fasem_taet,,pa-xawi,,,0
48741157409,"V’ënen Taute: Unmet",-16.15371,167.26022,9020,squeeze,skwisim,skwisim,,-mlani,,,0
48741157409,"V’ënen Taute: Unmet",-16.15371,167.26022,9030,swell,solap,solap,,i-ɛrɛn,,,0
48741157409,"V’ënen Taute: Unmet",-16.15371,167.26022,9040,say,talem,talem,,po-vəri,,,0
48741157409,"V’ënen Taute: Unmet",-16.15371,167.26022,9050,scratch,sikrasem,sikrasem,,-xarxari,,,0
48741157409,"V’ënen Taute: Unmet",-16.15371,167.26022,9060,stab,stikim,stikim,,..,,,0
48741157409,"V’ënen Taute: Unmet",-16.15371,167.26022,9120,buy,pem,pem,,-wuli,,,0
48741157409,"V’ënen Taute: Unmet",-16.15371,167.26022,9130,steal,stilim,stilim,,-vənaɣi,,,0
48741157409,"V’ënen Taute: Unmet",-16.15371,167.26022,9180,plant,planem,planem,,-lawi,,,0
48741157409,"V’ënen Taute: Unmet",-16.15371,167.26022,9220,cook,kuk,kuk,,..,,,0
48741157409,"V’ënen Taute: Unmet",-16.15371,167.26022,9400,shoot,shutum,shutum,,pa-lue,,,0
48741157409,"V’ënen Taute: Unmet",-16.15371,167.26022,9500,work,wok,wok,,-pare,,,0
48741157409,"V’ënen Taute: Unmet",-16.15371,167.26022,9620,open,openem,openem,,-wale,,,0
48741158409,"V’ënen Taute: Hamax",-16.111,167.249,8020,come,kam,kam,,pa-ma,,,0
48741158409,"V’ënen Taute: Hamax",-16.111,167.249,8030,walk,wokabaot,wokabaot,,-vɛl,,,0
48741158409,"V’ënen Taute: Hamax",-16.111,167.249,8110,stand,stanap,stanap,,nɛ-vtir,,,0
48741158409,"V’ënen Taute: Hamax",-16.111,167.249,8120,sit,sidaon,sidaon,,-lk,,,0
48741158409,"V’ënen Taute: Hamax",-16.111,167.249,8130,fall,foldaon,foldaon,,-irɪs,,,0
48741158409,"V’ënen Taute: Hamax",-16.111,167.249,8140,lie_down,ledaon,ledaon,,..,,,0
48741158409,"V’ënen Taute: Hamax",-16.111,167.249,8150,turn,tanem,tanem,,..,,,0
48741158409,"V’ënen Taute: Hamax",-16.111,167.249,8180,climb,klaem,klaem,,-xapr,,,0
48741158409,"V’ënen Taute: Hamax",-16.111,167.249,8210,swim,swim,swim,,..,,,0
48741158409,"V’ënen Taute: Hamax",-16.111,167.249,8220,fly_verb,flae,flae,,i-tɛtv,,,0
48741158409,"V’ënen Taute: Hamax",-16.111,167.249,8260,throw,sakemaot,sakemaot,,-sərani,,,0
48741158409,"V’ënen Taute: Hamax",-16.111,167.249,8270,hide,haetem,haetem,,-tututuani,,,0
48741158409,"V’ënen Taute: Hamax",-16.111,167.249,8310,eat,kakae,kakae,,-xatat,,,0
48741158409,"V’ënen Taute: Hamax",-16.111,167.249,8320,drink,drink,drink,,..,,,0
48741158409,"V’ënen Taute: Hamax",-16.111,167.249,8360,yawn,wantem_silip,wantem_silip,,..,,,0
48741158409,"V’ënen Taute: Hamax",-16.111,167.249,8370,spit,spet,spet,,-tupʷi,,,0
48741158409,"V’ënen Taute: Hamax",-16.111,167.249,8400,dream,drim,drim,,"a-n̼atr kale",,,0
48741158409,"V’ënen Taute: Hamax",-16.111,167.249,8410,sleep,silip,silip,,n̼atr,,,0
48741158409,"V’ënen Taute: Hamax",-16.111,167.249,8420,live,laev,laev,,..,,,0
48741158409,"V’ënen Taute: Hamax",-16.111,167.249,8430,die,ded,ded,,i-n̼a,,,0
48741158409,"V’ënen Taute: Hamax",-16.111,167.249,8440,kill,kilimded,kilimded,,ha-rpi-pin̼a,,,0
48741158409,"V’ënen Taute: Hamax",-16.111,167.249,8510,see,luk,luk,,..,,,0
48741158409,"V’ënen Taute: Hamax",-16.111,167.249,8520,hear,harem,harem,,nɛ-rni,,,0
48741158409,"V’ënen Taute: Hamax",-16.111,167.249,8540,sniff,smel,smel,,..,,,0
48741158409,"V’ënen Taute: Hamax",-16.111,167.249,8580,laugh,laf,laf,,nɪ-vutma,,,0
48741158409,"V’ënen Taute: Hamax",-16.111,167.249,8590,cry,krae,krae,,i-valo,,,0
48741158409,"V’ënen Taute: Hamax",-16.111,167.249,8670,blow,blo,blo,,..,,,0
48741158409,"V’ënen Taute: Hamax",-16.111,167.249,8680,burn,bon,bon,,..,,,0
48741158409,"V’ënen Taute: Hamax",-16.111,167.249,8740,sew,somap,somap,,..,,,0
48741158409,"V’ënen Taute: Hamax",-16.111,167.249,8800,pound,kilkilim,kilkilim,,ha-rpi,,,0
48741158409,"V’ënen Taute: Hamax",-16.111,167.249,8810,hit,kilim,kilim,,hɛ-rpi,,,0
48741158409,"V’ënen Taute: Hamax",-16.111,167.249,8870,cut,katem,katem,,a-tri,,,0
48741158409,"V’ënen Taute: Hamax",-16.111,167.249,8880,split,spletem,spletem,,he-tərpapri,,,0
48741158409,"V’ënen Taute: Hamax",-16.111,167.249,8890,dig,digim,digim,,ha-ɣəli,,,0
48741158409,"V’ënen Taute: Hamax",-16.111,167.249,8920,hunt,kasem,kasem,,..,,,0
48741158409,"V’ënen Taute: Hamax",-16.111,167.249,8930,hold,holem,holem,,-wənde,,,0
48741158409,"V’ënen Taute: Hamax",-16.111,167.249,8950,fear,fraet,fraet,,nɛⁿdʳn,,,0
48741158409,"V’ënen Taute: Hamax",-16.111,167.249,8960,count,kaontem,kaontem,,..,,,0
48741158409,"V’ënen Taute: Hamax",-16.111,167.249,8970,breathe,pulum_win,pulum_win,,he-rɛvnalɛn,,,0
48741158409,"V’ënen Taute: Hamax",-16.111,167.249,9000,vomit,traot,traot,,i-lu,,,0
48741158409,"V’ënen Taute: Hamax",-16.111,167.249,9010,tie,fasem_taet,fasem_taet,,-xawi,,,0
48741158409,"V’ënen Taute: Hamax",-16.111,167.249,9020,squeeze,skwisim,skwisim,,..,,,0
48741158409,"V’ënen Taute: Hamax",-16.111,167.249,9030,swell,solap,solap,,..,,,0
48741158409,"V’ënen Taute: Hamax",-16.111,167.249,9040,say,talem,talem,,..,,,0
48741158409,"V’ënen Taute: Hamax",-16.111,167.249,9050,scratch,sikrasem,sikrasem,,-xarxari,,,0
48741158409,"V’ënen Taute: Hamax",-16.111,167.249,9060,stab,stikim,stikim,,..,,,0
48741158409,"V’ënen Taute: Hamax",-16.111,167.249,9120,buy,pem,pem,,-holi,,,0
48741158409,"V’ënen Taute: Hamax",-16.111,167.249,9130,steal,stilim,stilim,,..,,,0
48741158409,"V’ënen Taute: Hamax",-16.111,167.249,9180,plant,planem,planem,,-lawi,,,0
48741158409,"V’ënen Taute: Hamax",-16.111,167.249,9220,cook,kuk,kuk,,a-tapɣai,,,0
48741158409,"V’ënen Taute: Hamax",-16.111,167.249,9400,shoot,shutum,shutum,,-luai,,,0
48741158409,"V’ënen Taute: Hamax",-16.111,167.249,9500,work,wok,wok,,..,,,0
48741158409,"V’ënen Taute: Hamax",-16.111,167.249,9620,open,openem,openem,,-wale,,,0
48741322109,"Espiegel’s Bay: Solwota",-15.979,167.192,8020,come,kam,kam,,-mã,,,0
48741322109,"Espiegel’s Bay: Solwota",-15.979,167.192,8030,walk,wokabaot,wokabaot,,-val,,,0
48741322109,"Espiegel’s Bay: Solwota",-15.979,167.192,8110,stand,stanap,stanap,,-tuɾ,,,0
48741322109,"Espiegel’s Bay: Solwota",-15.979,167.192,8120,sit,sidaon,sidaon,,i-at,,,0
48741322109,"Espiegel’s Bay: Solwota",-15.979,167.192,8130,fall,foldaon,foldaon,,-ʧoɸ,,,0
48741322109,"Espiegel’s Bay: Solwota",-15.979,167.192,8140,lie_down,ledaon,ledaon,,"mɪtuɾ tuɣun",,,0
48741322109,"Espiegel’s Bay: Solwota",-15.979,167.192,8150,turn,tanem,tanem,,u-lus,,,0
48741322109,"Espiegel’s Bay: Solwota",-15.979,167.192,8180,climb,klaem,klaem,,-sax,,,0
48741322109,"Espiegel’s Bay: Solwota",-15.979,167.192,8210,swim,swim,swim,,-səɸ,,,0
48741322109,"Espiegel’s Bay: Solwota",-15.979,167.192,8220,fly_verb,flae,flae,,-ɣiɣɛp,,,0
48741322109,"Espiegel’s Bay: Solwota",-15.979,167.192,8260,throw,sakemaot,sakemaot,,"t-͡sɪplen luɛ",,,0
48741322109,"Espiegel’s Bay: Solwota",-15.979,167.192,8270,hide,haetem,haetem,,-tosusuwun,,,0
48741322109,"Espiegel’s Bay: Solwota",-15.979,167.192,8310,eat,kakae,kakae,,-or,,,0
48741322109,"Espiegel’s Bay: Solwota",-15.979,167.192,8320,drink,drink,drink,,-min,,,0
48741322109,"Espiegel’s Bay: Solwota",-15.979,167.192,8360,yawn,wantem_silip,wantem_silip,,-məmaɸ,,,0
48741322109,"Espiegel’s Bay: Solwota",-15.979,167.192,8370,spit,spet,spet,,-tɪpɪs,,,0
48741322109,"Espiegel’s Bay: Solwota",-15.979,167.192,8400,dream,drim,drim,,"mɪtur porpor",,,0
48741322109,"Espiegel’s Bay: Solwota",-15.979,167.192,8410,sleep,silip,silip,,-mɪtuɾ,,,0
48741322109,"Espiegel’s Bay: Solwota",-15.979,167.192,8420,live,laev,laev,,-moɾoɸ,,,0
48741322109,"Espiegel’s Bay: Solwota",-15.979,167.192,8430,die,ded,ded,,-mæs,,,0
48741322109,"Espiegel’s Bay: Solwota",-15.979,167.192,8440,kill,kilimded,kilimded,,-rupin,,,0
48741322109,"Espiegel’s Bay: Solwota",-15.979,167.192,8510,see,luk,luk,,hɪ-lɪs,,,0
48741322109,"Espiegel’s Bay: Solwota",-15.979,167.192,8520,hear,harem,harem,,ho-roŋɔ,,,0
48741322109,"Espiegel’s Bay: Solwota",-15.979,167.192,8540,sniff,smel,smel,,pu-nʒi,,,0
48741322109,"Espiegel’s Bay: Solwota",-15.979,167.192,8580,laugh,laf,laf,,-ŋiɾe,,,0
48741322109,"Espiegel’s Bay: Solwota",-15.979,167.192,8590,cry,krae,krae,,-ŋɛɾə,,,0
48741322109,"Espiegel’s Bay: Solwota",-15.979,167.192,8670,blow,blo,blo,,-sɛɾ,,,0
48741322109,"Espiegel’s Bay: Solwota",-15.979,167.192,8680,burn,bon,bon,,-ɣɛn,,,0
48741322109,"Espiegel’s Bay: Solwota",-15.979,167.192,8740,sew,somap,somap,,..,,,0
48741322109,"Espiegel’s Bay: Solwota",-15.979,167.192,8800,pound,kilkilim,kilkilim,,-ruprup,,,0
48741322109,"Espiegel’s Bay: Solwota",-15.979,167.192,8810,hit,kilim,kilim,,-ruɸ,,,0
48741322109,"Espiegel’s Bay: Solwota",-15.979,167.192,8870,cut,katem,katem,,-spɛ,,,0
48741322109,"Espiegel’s Bay: Solwota",-15.979,167.192,8880,split,spletem,spletem,,..,,,0
48741322109,"Espiegel’s Bay: Solwota",-15.979,167.192,8890,dig,digim,digim,,-ɣiɬ,,,0
48741322109,"Espiegel’s Bay: Solwota",-15.979,167.192,8920,hunt,kasem,kasem,,-xorxoɾə,,,0
48741322109,"Espiegel’s Bay: Solwota",-15.979,167.192,8930,hold,holem,holem,,-us,,,0
48741322109,"Espiegel’s Bay: Solwota",-15.979,167.192,8950,fear,fraet,fraet,,-loɣolox,,,0
48741322109,"Espiegel’s Bay: Solwota",-15.979,167.192,8960,count,kaontem,kaontem,,-ʧɪpʷɪn,,,0
48741322109,"Espiegel’s Bay: Solwota",-15.979,167.192,8970,breathe,pulum_win,pulum_win,,hi-vɪ-laŋ,,,0
48741322109,"Espiegel’s Bay: Solwota",-15.979,167.192,9000,vomit,traot,traot,,-lulu,,,0
48741322109,"Espiegel’s Bay: Solwota",-15.979,167.192,9010,tie,fasem_taet,fasem_taet,,-mʷiʧ,,,0
48741322109,"Espiegel’s Bay: Solwota",-15.979,167.192,9020,squeeze,skwisim,skwisim,,-wis,,,0
48741322109,"Espiegel’s Bay: Solwota",-15.979,167.192,9030,swell,solap,solap,,-vulus,,,0
48741322109,"Espiegel’s Bay: Solwota",-15.979,167.192,9040,say,talem,talem,,-wiɾə,,,0
48741322109,"Espiegel’s Bay: Solwota",-15.979,167.192,9050,scratch,sikrasem,sikrasem,,..,,,0
48741322109,"Espiegel’s Bay: Solwota",-15.979,167.192,9060,stab,stikim,stikim,,-siɾ,,,0
48741322109,"Espiegel’s Bay: Solwota",-15.979,167.192,9120,buy,pem,pem,,-wol,,,0
48741322109,"Espiegel’s Bay: Solwota",-15.979,167.192,9130,steal,stilim,stilim,,-vɪnɛɣe,,,0
48741322109,"Espiegel’s Bay: Solwota",-15.979,167.192,9180,plant,planem,planem,,-ruɸ,,,0
48741322109,"Espiegel’s Bay: Solwota",-15.979,167.192,9220,cook,kuk,kuk,,..,,,0
48741322109,"Espiegel’s Bay: Solwota",-15.979,167.192,9400,shoot,shutum,shutum,,-vin,,,0
48741322109,"Espiegel’s Bay: Solwota",-15.979,167.192,9500,work,wok,wok,,-pas,,,0
48741322109,"Espiegel’s Bay: Solwota",-15.979,167.192,9620,open,openem,openem,,-ɣəɣɪs,,,0
48741324209,"Espiegel’s Bay: Litebral",-15.974,167.193,8020,come,kam,kam,,-mã,,,0
48741324209,"Espiegel’s Bay: Litebral",-15.974,167.193,8030,walk,wokabaot,wokabaot,,-val,,,0
48741324209,"Espiegel’s Bay: Litebral",-15.974,167.193,8110,stand,stanap,stanap,,-tuɾu,,,0
48741324209,"Espiegel’s Bay: Litebral",-15.974,167.193,8120,sit,sidaon,sidaon,,i-at,,,0
48741324209,"Espiegel’s Bay: Litebral",-15.974,167.193,8130,fall,foldaon,foldaon,,-ʧoɸ,,,0
48741324209,"Espiegel’s Bay: Litebral",-15.974,167.193,8140,lie_down,ledaon,ledaon,,..,,,0
48741324209,"Espiegel’s Bay: Litebral",-15.974,167.193,8150,turn,tanem,tanem,,wu-lus,,,0
48741324209,"Espiegel’s Bay: Litebral",-15.974,167.193,8180,climb,klaem,klaem,,-sax,,,0
48741324209,"Espiegel’s Bay: Litebral",-15.974,167.193,8210,swim,swim,swim,,səɸ,,,0
48741324209,"Espiegel’s Bay: Litebral",-15.974,167.193,8220,fly_verb,flae,flae,,ɣirɛp,,,0
48741324209,"Espiegel’s Bay: Litebral",-15.974,167.193,8260,throw,sakemaot,sakemaot,,"-ʧeblɛn lue",,,0
48741324209,"Espiegel’s Bay: Litebral",-15.974,167.193,8270,hide,haetem,haetem,,-tozusun,,,0
48741324209,"Espiegel’s Bay: Litebral",-15.974,167.193,8310,eat,kakae,kakae,,-or,,,0
48741324209,"Espiegel’s Bay: Litebral",-15.974,167.193,8320,drink,drink,drink,,-min,,,0
48741324209,"Espiegel’s Bay: Litebral",-15.974,167.193,8360,yawn,wantem_silip,wantem_silip,,-mumaɸ,,,0
48741324209,"Espiegel’s Bay: Litebral",-15.974,167.193,8370,spit,spet,spet,,-tɪpɪs,,,0
48741324209,"Espiegel’s Bay: Litebral",-15.974,167.193,8400,dream,drim,drim,,-mɛtur-borbor,,,0
48741324209,"Espiegel’s Bay: Litebral",-15.974,167.193,8400,dream,drim,drim,,-mɛtur-borbor,,,0
48741324209,"Espiegel’s Bay: Litebral",-15.974,167.193,8410,sleep,silip,silip,,-mɛtuɾ,,,0
48741324209,"Espiegel’s Bay: Litebral",-15.974,167.193,8420,live,laev,laev,,-moɾoɸ,,,0
48741324209,"Espiegel’s Bay: Litebral",-15.974,167.193,8430,die,ded,ded,,-mas,,,0
48741324209,"Espiegel’s Bay: Litebral",-15.974,167.193,8440,kill,kilimded,kilimded,,-rupin,,,0
48741324209,"Espiegel’s Bay: Litebral",-15.974,167.193,8510,see,luk,luk,,..,,,0
48741324209,"Espiegel’s Bay: Litebral",-15.974,167.193,8520,hear,harem,harem,,-roŋɔ,,,0
48741324209,"Espiegel’s Bay: Litebral",-15.974,167.193,8540,sniff,smel,smel,,pɔ-nsi,,,0
48741324209,"Espiegel’s Bay: Litebral",-15.974,167.193,8580,laugh,laf,laf,,-ŋiɾ,,,0
48741324209,"Espiegel’s Bay: Litebral",-15.974,167.193,8590,cry,krae,krae,,-ŋɛɾə,,,0
48741324209,"Espiegel’s Bay: Litebral",-15.974,167.193,8670,blow,blo,blo,,-siɾ,,,0
48741324209,"Espiegel’s Bay: Litebral",-15.974,167.193,8680,burn,bon,bon,,-ɣɛn,,,0
48741324209,"Espiegel’s Bay: Litebral",-15.974,167.193,8740,sew,somap,somap,,..,,,0
48741324209,"Espiegel’s Bay: Litebral",-15.974,167.193,8800,pound,kilkilim,kilkilim,,-ruprup,,,0
48741324209,"Espiegel’s Bay: Litebral",-15.974,167.193,8810,hit,kilim,kilim,,a-ruɸ,,,0
48741324209,"Espiegel’s Bay: Litebral",-15.974,167.193,8870,cut,katem,katem,,-spɛ,,,0
48741324209,"Espiegel’s Bay: Litebral",-15.974,167.193,8880,split,spletem,spletem,,-spɛtwaɣe,,,0
48741324209,"Espiegel’s Bay: Litebral",-15.974,167.193,8890,dig,digim,digim,,-ɣil,,,0
48741324209,"Espiegel’s Bay: Litebral",-15.974,167.193,8920,hunt,kasem,kasem,,-xorxoɾə,,,0
48741324209,"Espiegel’s Bay: Litebral",-15.974,167.193,8930,hold,holem,holem,,a-us,,,0
48741324209,"Espiegel’s Bay: Litebral",-15.974,167.193,8950,fear,fraet,fraet,,-loɣolox,,,0
48741324209,"Espiegel’s Bay: Litebral",-15.974,167.193,8960,count,kaontem,kaontem,,-ʧɪpʷɪn,,,0
48741324209,"Espiegel’s Bay: Litebral",-15.974,167.193,8970,breathe,pulum_win,pulum_win,,..,,,0
48741324209,"Espiegel’s Bay: Litebral",-15.974,167.193,9000,vomit,traot,traot,,-lulu,,,0
48741324209,"Espiegel’s Bay: Litebral",-15.974,167.193,9010,tie,fasem_taet,fasem_taet,,-mʷəʧi,,,0
48741324209,"Espiegel’s Bay: Litebral",-15.974,167.193,9020,squeeze,skwisim,skwisim,,-vɪɾɪn,,,0
48741324209,"Espiegel’s Bay: Litebral",-15.974,167.193,9030,swell,solap,solap,,-wuwun,,,0
48741324209,"Espiegel’s Bay: Litebral",-15.974,167.193,9040,say,talem,talem,,-wiɾ,,,0
48741324209,"Espiegel’s Bay: Litebral",-15.974,167.193,9050,scratch,sikrasem,sikrasem,,-kʊt͡skʊt͡s,,,0
48741324209,"Espiegel’s Bay: Litebral",-15.974,167.193,9060,stab,stikim,stikim,,-siɾ,,,0
48741324209,"Espiegel’s Bay: Litebral",-15.974,167.193,9120,buy,pem,pem,,-wʊl,,,0
48741324209,"Espiegel’s Bay: Litebral",-15.974,167.193,9130,steal,stilim,stilim,,-vɪnɛɣe,,,0
48741324209,"Espiegel’s Bay: Litebral",-15.974,167.193,9180,plant,planem,planem,,-ruɸ,,,0
48741324209,"Espiegel’s Bay: Litebral",-15.974,167.193,9220,cook,kuk,kuk,,-titin,,,0
48741324209,"Espiegel’s Bay: Litebral",-15.974,167.193,9400,shoot,shutum,shutum,,-ʧəro͂,,,0
48741324209,"Espiegel’s Bay: Litebral",-15.974,167.193,9500,work,wok,wok,,-pas,,,0
48741324209,"Espiegel’s Bay: Litebral",-15.974,167.193,9620,open,openem,openem,,-ɣəɣis,,,0
48741324309,"Espiegel’s Bay: Unspecified",-15.98228,167.19103,8020,come,kam,kam,,-ma,,,0
48741324309,"Espiegel’s Bay: Unspecified",-15.98228,167.19103,8030,walk,wokabaot,wokabaot,,-zival,,,0
48741324309,"Espiegel’s Bay: Unspecified",-15.98228,167.19103,8110,stand,stanap,stanap,,-tur,,,0
48741324309,"Espiegel’s Bay: Unspecified",-15.98228,167.19103,8120,sit,sidaon,sidaon,,-jat,,,0
48741324309,"Espiegel’s Bay: Unspecified",-15.98228,167.19103,8130,fall,foldaon,foldaon,,-ʧof,,,0
48741324309,"Espiegel’s Bay: Unspecified",-15.98228,167.19103,8150,turn,tanem,tanem,,-wulus,,,0
48741324309,"Espiegel’s Bay: Unspecified",-15.98228,167.19103,8180,climb,klaem,klaem,,-sax,,,0
48741324309,"Espiegel’s Bay: Unspecified",-15.98228,167.19103,8210,swim,swim,swim,,ⁿd͡ʒuβɛn,,,0
48741324309,"Espiegel’s Bay: Unspecified",-15.98228,167.19103,8220,fly_verb,flae,flae,,-ɣirɪp,,,0
48741324309,"Espiegel’s Bay: Unspecified",-15.98228,167.19103,8260,throw,sakemaot,sakemaot,,"-ʧɪplɪn lue",,,0
48741324309,"Espiegel’s Bay: Unspecified",-15.98228,167.19103,8270,hide,haetem,haetem,,-tosusuɣun,,,0
48741324309,"Espiegel’s Bay: Unspecified",-15.98228,167.19103,8310,eat,kakae,kakae,,-wut͡s,,,0
48741324309,"Espiegel’s Bay: Unspecified",-15.98228,167.19103,8320,drink,drink,drink,,-min,,,0
48741324309,"Espiegel’s Bay: Unspecified",-15.98228,167.19103,8360,yawn,wantem_silip,wantem_silip,,-mumaɸ,,,0
48741324309,"Espiegel’s Bay: Unspecified",-15.98228,167.19103,8370,spit,spet,spet,,-tɪpɪs,,,0
48741324309,"Espiegel’s Bay: Unspecified",-15.98228,167.19103,8400,dream,drim,drim,,"-metur porpor",,,0
48741324309,"Espiegel’s Bay: Unspecified",-15.98228,167.19103,8410,sleep,silip,silip,,-metur,,,0
48741324309,"Espiegel’s Bay: Unspecified",-15.98228,167.19103,8420,live,laev,laev,,-morɔv,,,0
48741324309,"Espiegel’s Bay: Unspecified",-15.98228,167.19103,8430,die,ded,ded,,-mas,,,0
48741324309,"Espiegel’s Bay: Unspecified",-15.98228,167.19103,8440,kill,kilimded,kilimded,,-rupin,,,0
48741324309,"Espiegel’s Bay: Unspecified",-15.98228,167.19103,8510,see,luk,luk,,-kɪle,,,0
48741324309,"Espiegel’s Bay: Unspecified",-15.98228,167.19103,8520,hear,harem,harem,,-roŋɔ,,,0
48741324309,"Espiegel’s Bay: Unspecified",-15.98228,167.19103,8540,sniff,smel,smel,,pʊnzi,,,0
48741324309,"Espiegel’s Bay: Unspecified",-15.98228,167.19103,8580,laugh,laf,laf,,-ɲir,,,0
48741324309,"Espiegel’s Bay: Unspecified",-15.98228,167.19103,8590,cry,krae,krae,,-ɲer,,,0
48741324309,"Espiegel’s Bay: Unspecified",-15.98228,167.19103,8670,blow,blo,blo,,-suf,,,0
48741324309,"Espiegel’s Bay: Unspecified",-15.98228,167.19103,8680,burn,bon,bon,,-xɛn,,,0
48741324309,"Espiegel’s Bay: Unspecified",-15.98228,167.19103,8800,pound,kilkilim,kilkilim,,-ruprup,,,0
48741324309,"Espiegel’s Bay: Unspecified",-15.98228,167.19103,8810,hit,kilim,kilim,,-rup,,,0
48741324309,"Espiegel’s Bay: Unspecified",-15.98228,167.19103,8870,cut,katem,katem,,-spɛ,,,0
48741324309,"Espiegel’s Bay: Unspecified",-15.98228,167.19103,8880,split,spletem,spletem,,-tevoɣɪs,,,0
48741324309,"Espiegel’s Bay: Unspecified",-15.98228,167.19103,8920,hunt,kasem,kasem,,-horxor,,,0
48741324309,"Espiegel’s Bay: Unspecified",-15.98228,167.19103,8930,hold,holem,holem,,-hus,,,0
48741324309,"Espiegel’s Bay: Unspecified",-15.98228,167.19103,8950,fear,fraet,fraet,,-loɣolof,,,0
48741324309,"Espiegel’s Bay: Unspecified",-15.98228,167.19103,8960,count,kaontem,kaontem,,-ʧɪpʷɪn,,,0
48741324309,"Espiegel’s Bay: Unspecified",-15.98228,167.19103,8970,breathe,pulum_win,pulum_win,,-jevɪlaŋ,,,0
48741324309,"Espiegel’s Bay: Unspecified",-15.98228,167.19103,9000,vomit,traot,traot,,-lulu,,,0
48741324309,"Espiegel’s Bay: Unspecified",-15.98228,167.19103,9010,tie,fasem_taet,fasem_taet,,-mʷeʧi,,,0
48741324309,"Espiegel’s Bay: Unspecified",-15.98228,167.19103,9020,squeeze,skwisim,skwisim,,-us,,,0
48741324309,"Espiegel’s Bay: Unspecified",-15.98228,167.19103,9030,swell,solap,solap,,-wuwun,,,0
48741324309,"Espiegel’s Bay: Unspecified",-15.98228,167.19103,9040,say,talem,talem,,-wir,,,0
48741324309,"Espiegel’s Bay: Unspecified",-15.98228,167.19103,9050,scratch,sikrasem,sikrasem,,-hut͡s,,,0
48741324309,"Espiegel’s Bay: Unspecified",-15.98228,167.19103,9060,stab,stikim,stikim,,-t͡sɪle,,,0
48741324309,"Espiegel’s Bay: Unspecified",-15.98228,167.19103,9120,buy,pem,pem,,-wʊl,,,0
48741324309,"Espiegel’s Bay: Unspecified",-15.98228,167.19103,9130,steal,stilim,stilim,,-vɪniɣe,,,0
48741324309,"Espiegel’s Bay: Unspecified",-15.98228,167.19103,9180,plant,planem,planem,,-ruɸ,,,0
48741324309,"Espiegel’s Bay: Unspecified",-15.98228,167.19103,9400,shoot,shutum,shutum,,-ʧɪro,,,0
48741324309,"Espiegel’s Bay: Unspecified",-15.98228,167.19103,9500,work,wok,wok,,valʰ,,,0
48741324309,"Espiegel’s Bay: Unspecified",-15.98228,167.19103,9620,open,openem,openem,,-ɣɛɣis,,,0
48741326309,"Malua Bay: Coast",-15.98334,167.18798,8020,come,kam,kam,,-me,,,0
48741326309,"Malua Bay: Coast",-15.98334,167.18798,8030,walk,wokabaot,wokabaot,,-vial,,,0
48741326309,"Malua Bay: Coast",-15.98334,167.18798,8110,stand,stanap,stanap,,-tur,,,0
48741326309,"Malua Bay: Coast",-15.98334,167.18798,8120,sit,sidaon,sidaon,,-at,,,0
48741326309,"Malua Bay: Coast",-15.98334,167.18798,8130,fall,foldaon,foldaon,,-ʧoɸ,,,0
48741326309,"Malua Bay: Coast",-15.98334,167.18798,8140,lie_down,ledaon,ledaon,,..,,,0
48741326309,"Malua Bay: Coast",-15.98334,167.18798,8150,turn,tanem,tanem,,-holuʃ,,,0
48741326309,"Malua Bay: Coast",-15.98334,167.18798,8180,climb,klaem,klaem,,..,,,0
48741326309,"Malua Bay: Coast",-15.98334,167.18798,8210,swim,swim,swim,,-suf,,,0
48741326309,"Malua Bay: Coast",-15.98334,167.18798,8220,fly_verb,flae,flae,,-ɣiɣam,,,0
48741326309,"Malua Bay: Coast",-15.98334,167.18798,8260,throw,sakemaot,sakemaot,,-t͡ʃepɪlɛn,,,0
48741326309,"Malua Bay: Coast",-15.98334,167.18798,8270,hide,haetem,haetem,,-tososoɣʊn,,,0
48741326309,"Malua Bay: Coast",-15.98334,167.18798,8310,eat,kakae,kakae,,-or,,,0
48741326309,"Malua Bay: Coast",-15.98334,167.18798,8320,drink,drink,drink,,-min,,,0
48741326309,"Malua Bay: Coast",-15.98334,167.18798,8360,yawn,wantem_silip,wantem_silip,,-mumaɸ,,,0
48741326309,"Malua Bay: Coast",-15.98334,167.18798,8370,spit,spet,spet,,-tɪpɪs,,,0
48741326309,"Malua Bay: Coast",-15.98334,167.18798,8400,dream,drim,drim,,"-mɛtɪr burpur",,,0
48741326309,"Malua Bay: Coast",-15.98334,167.18798,8410,sleep,silip,silip,,-mɛtɪr,,,0
48741326309,"Malua Bay: Coast",-15.98334,167.18798,8420,live,laev,laev,,-moroɸ,,,0
48741326309,"Malua Bay: Coast",-15.98334,167.18798,8430,die,ded,ded,,-mɪs,,,0
48741326309,"Malua Bay: Coast",-15.98334,167.18798,8440,kill,kilimded,kilimded,,..,,,0
48741326309,"Malua Bay: Coast",-15.98334,167.18798,8510,see,luk,luk,,..,,,0
48741326309,"Malua Bay: Coast",-15.98334,167.18798,8520,hear,harem,harem,,-rɔ,,,0
48741326309,"Malua Bay: Coast",-15.98334,167.18798,8540,sniff,smel,smel,,soponʒi,,,0
48741326309,"Malua Bay: Coast",-15.98334,167.18798,8580,laugh,laf,laf,,-ɲir,,,0
48741326309,"Malua Bay: Coast",-15.98334,167.18798,8590,cry,krae,krae,,-ɲar,,,0
48741326309,"Malua Bay: Coast",-15.98334,167.18798,8670,blow,blo,blo,,-sir,,,0
48741326309,"Malua Bay: Coast",-15.98334,167.18798,8680,burn,bon,bon,,-ɣan,,,0
48741326309,"Malua Bay: Coast",-15.98334,167.18798,8740,sew,somap,somap,,..,,,0
48741326309,"Malua Bay: Coast",-15.98334,167.18798,8800,pound,kilkilim,kilkilim,,-ruprup,,,0
48741326309,"Malua Bay: Coast",-15.98334,167.18798,8810,hit,kilim,kilim,,-rup,,,0
48741326309,"Malua Bay: Coast",-15.98334,167.18798,8870,cut,katem,katem,,-tɪt͡ʃ,,,0
48741326309,"Malua Bay: Coast",-15.98334,167.18798,8880,split,spletem,spletem,,"-pɪlɛv uɣis",,,0
48741326309,"Malua Bay: Coast",-15.98334,167.18798,8890,dig,digim,digim,,-ɣɪɬ,,,0
48741326309,"Malua Bay: Coast",-15.98334,167.18798,8920,hunt,kasem,kasem,,-xorxorə,,,0
48741326309,"Malua Bay: Coast",-15.98334,167.18798,8930,hold,holem,holem,,"-us tuɣʊn",,,0
48741326309,"Malua Bay: Coast",-15.98334,167.18798,8950,fear,fraet,fraet,,-mɪtaɣət,,,0
48741326309,"Malua Bay: Coast",-15.98334,167.18798,8960,count,kaontem,kaontem,,-ʧɪpʷɪn,,,0
48741326309,"Malua Bay: Coast",-15.98334,167.18798,8970,breathe,pulum_win,pulum_win,,..,,,0
48741326309,"Malua Bay: Coast",-15.98334,167.18798,9000,vomit,traot,traot,,-lulu,,,0
48741326309,"Malua Bay: Coast",-15.98334,167.18798,9010,tie,fasem_taet,fasem_taet,,-miʧ,,,0
48741326309,"Malua Bay: Coast",-15.98334,167.18798,9020,squeeze,skwisim,skwisim,,-viʃ,,,0
48741326309,"Malua Bay: Coast",-15.98334,167.18798,9030,swell,solap,solap,,i-vuvun,,,0
48741326309,"Malua Bay: Coast",-15.98334,167.18798,9040,say,talem,talem,,-vʷire,,,0
48741326309,"Malua Bay: Coast",-15.98334,167.18798,9050,scratch,sikrasem,sikrasem,,-kʊt͡skʊt͡s,,,0
48741326309,"Malua Bay: Coast",-15.98334,167.18798,9060,stab,stikim,stikim,,-ʃiɾ,,,0
48741326309,"Malua Bay: Coast",-15.98334,167.18798,9120,buy,pem,pem,,-fol,,,0
48741326309,"Malua Bay: Coast",-15.98334,167.18798,9130,steal,stilim,stilim,,-vɪnax,,,0
48741326309,"Malua Bay: Coast",-15.98334,167.18798,9180,plant,planem,planem,,-laɸ,,,0
48741326309,"Malua Bay: Coast",-15.98334,167.18798,9220,cook,kuk,kuk,,-titin,,,0
48741326309,"Malua Bay: Coast",-15.98334,167.18798,9400,shoot,shutum,shutum,,-soro,,,0
48741326309,"Malua Bay: Coast",-15.98334,167.18798,9500,work,wok,wok,,-pas,,,0
48741326309,"Malua Bay: Coast",-15.98334,167.18798,9620,open,openem,openem,,-xɪrɪs,,,0
48741327409,"Malua Bay: Petarmul",-16.00022,167.22137,8020,come,kam,kam,,-mᵐẽ,,,0
48741327409,"Malua Bay: Petarmul",-16.00022,167.22137,8030,walk,wokabaot,wokabaot,,nɪ-vial,,,0
48741327409,"Malua Bay: Petarmul",-16.00022,167.22137,8110,stand,stanap,stanap,,nɪ-tur,,,0
48741327409,"Malua Bay: Petarmul",-16.00022,167.22137,8120,sit,sidaon,sidaon,,ni-at,,,0
48741327409,"Malua Bay: Petarmul",-16.00022,167.22137,8130,fall,foldaon,foldaon,,i-ʧoɸ,,,0
48741327409,"Malua Bay: Petarmul",-16.00022,167.22137,8140,lie_down,ledaon,ledaon,,"nɪ-mɛtɛɾ  tuɣun",,,0
48741327409,"Malua Bay: Petarmul",-16.00022,167.22137,8150,turn,tanem,tanem,,no-rur,,,0
48741327409,"Malua Bay: Petarmul",-16.00022,167.22137,8180,climb,klaem,klaem,,-sax,,,0
48741327409,"Malua Bay: Petarmul",-16.00022,167.22137,8210,swim,swim,swim,,i-suɸ,,,0
48741327409,"Malua Bay: Petarmul",-16.00022,167.22137,8220,fly_verb,flae,flae,,ɪ-ɣiɣamp,,,0
48741327409,"Malua Bay: Petarmul",-16.00022,167.22137,8260,throw,sakemaot,sakemaot,,-vʷesiŋin,,,0
48741327409,"Malua Bay: Petarmul",-16.00022,167.22137,8270,hide,haetem,haetem,,-tososoɣun,,,0
48741327409,"Malua Bay: Petarmul",-16.00022,167.22137,8310,eat,kakae,kakae,,i-or,,,0
48741327409,"Malua Bay: Petarmul",-16.00022,167.22137,8320,drink,drink,drink,,"-min nu-ɛ",,,0
48741327409,"Malua Bay: Petarmul",-16.00022,167.22137,8360,yawn,wantem_silip,wantem_silip,,nɪ-mumaɸ,,,0
48741327409,"Malua Bay: Petarmul",-16.00022,167.22137,8370,spit,spet,spet,,i-tɪpɪs,,,0
48741327409,"Malua Bay: Petarmul",-16.00022,167.22137,8400,dream,drim,drim,,"nɪ-mɛtɛr puɾpuɾ",,,0
48741327409,"Malua Bay: Petarmul",-16.00022,167.22137,8410,sleep,silip,silip,,nɪ-mɛtɛɾ,,,0
48741327409,"Malua Bay: Petarmul",-16.00022,167.22137,8420,live,laev,laev,,i-moroɸ,,,0
48741327409,"Malua Bay: Petarmul",-16.00022,167.22137,8430,die,ded,ded,,i-mis,,,0
48741327409,"Malua Bay: Petarmul",-16.00022,167.22137,8440,kill,kilimded,kilimded,,-rup-i-mis,,,0
48741327409,"Malua Bay: Petarmul",-16.00022,167.22137,8510,see,luk,luk,,nɪ-lɪs,,,0
48741327409,"Malua Bay: Petarmul",-16.00022,167.22137,8520,hear,harem,harem,,nu-roŋɔ,,,0
48741327409,"Malua Bay: Petarmul",-16.00022,167.22137,8540,sniff,smel,smel,,nɪ-vtin,,,0
48741327409,"Malua Bay: Petarmul",-16.00022,167.22137,8580,laugh,laf,laf,,ɪ-ŋiɾi,,,0
48741327409,"Malua Bay: Petarmul",-16.00022,167.22137,8590,cry,krae,krae,,ɪ-ŋaɾa,,,0
48741327409,"Malua Bay: Petarmul",-16.00022,167.22137,8670,blow,blo,blo,,i-sɛɾ,,,0
48741327409,"Malua Bay: Petarmul",-16.00022,167.22137,8680,burn,bon,bon,,i-ɣan,,,0
48741327409,"Malua Bay: Petarmul",-16.00022,167.22137,8740,sew,somap,somap,,..,,,0
48741327409,"Malua Bay: Petarmul",-16.00022,167.22137,8800,pound,kilkilim,kilkilim,,-ruprup,,,0
48741327409,"Malua Bay: Petarmul",-16.00022,167.22137,8810,hit,kilim,kilim,,nu-rup,,,0
48741327409,"Malua Bay: Petarmul",-16.00022,167.22137,8870,cut,katem,katem,,..,,,0
48741327409,"Malua Bay: Petarmul",-16.00022,167.22137,8880,split,spletem,spletem,,-tɪt͡suvɣis,,,0
48741327409,"Malua Bay: Petarmul",-16.00022,167.22137,8890,dig,digim,digim,,-ɣiɬ,,,0
48741327409,"Malua Bay: Petarmul",-16.00022,167.22137,8920,hunt,kasem,kasem,,..,,,0
48741327409,"Malua Bay: Petarmul",-16.00022,167.22137,8930,hold,holem,holem,,-ustuɣʊn,,,0
48741327409,"Malua Bay: Petarmul",-16.00022,167.22137,8950,fear,fraet,fraet,,-mtaɣət,,,0
48741327409,"Malua Bay: Petarmul",-16.00022,167.22137,8960,count,kaontem,kaontem,,-ʧɪpɪn,,,0
48741327409,"Malua Bay: Petarmul",-16.00022,167.22137,8970,breathe,pulum_win,pulum_win,,ni-evɪ-lan,,,0
48741327409,"Malua Bay: Petarmul",-16.00022,167.22137,9000,vomit,traot,traot,,i-lulu,,,0
48741327409,"Malua Bay: Petarmul",-16.00022,167.22137,9010,tie,fasem_taet,fasem_taet,,nɪ-miʧ,,,0
48741327409,"Malua Bay: Petarmul",-16.00022,167.22137,9020,squeeze,skwisim,skwisim,,-vis,,,0
48741327409,"Malua Bay: Petarmul",-16.00022,167.22137,9030,swell,solap,solap,,i-vuvunus,,,0
48741327409,"Malua Bay: Petarmul",-16.00022,167.22137,9040,say,talem,talem,,nɪ-vʷiɾe,,,0
48741327409,"Malua Bay: Petarmul",-16.00022,167.22137,9050,scratch,sikrasem,sikrasem,,..,,,0
48741327409,"Malua Bay: Petarmul",-16.00022,167.22137,9060,stab,stikim,stikim,,-siɾə,,,0
48741327409,"Malua Bay: Petarmul",-16.00022,167.22137,9120,buy,pem,pem,,nu-wul,,,0
48741327409,"Malua Bay: Petarmul",-16.00022,167.22137,9130,steal,stilim,stilim,,-vɪnaɣe,,,0
48741327409,"Malua Bay: Petarmul",-16.00022,167.22137,9180,plant,planem,planem,,-laɸ,,,0
48741327409,"Malua Bay: Petarmul",-16.00022,167.22137,9220,cook,kuk,kuk,,i-titin,,,0
48741327409,"Malua Bay: Petarmul",-16.00022,167.22137,9400,shoot,shutum,shutum,,nu-soɾo,,,0
48741327409,"Malua Bay: Petarmul",-16.00022,167.22137,9500,work,wok,wok,,-pas,,,0
48741327409,"Malua Bay: Petarmul",-16.00022,167.22137,9620,open,openem,openem,,-wale,,,0
48741328309,"Malua Bay: Tiptir",-15.9905,167.21991,8020,come,kam,kam,,-mã,,,0
48741328309,"Malua Bay: Tiptir",-15.9905,167.21991,8030,walk,wokabaot,wokabaot,,nɪ-val,,,0
48741328309,"Malua Bay: Tiptir",-15.9905,167.21991,8110,stand,stanap,stanap,,na-tuɾu,,,0
48741328309,"Malua Bay: Tiptir",-15.9905,167.21991,8120,sit,sidaon,sidaon,,"n-at ɣun",,,0
48741328309,"Malua Bay: Tiptir",-15.9905,167.21991,8130,fall,foldaon,foldaon,,i-ʧov,,,0
48741328309,"Malua Bay: Tiptir",-15.9905,167.21991,8140,lie_down,ledaon,ledaon,,"nɪ-metuɾ  tuɣun",,,0
48741328309,"Malua Bay: Tiptir",-15.9905,167.21991,8150,turn,tanem,tanem,,..,,,0
48741328309,"Malua Bay: Tiptir",-15.9905,167.21991,8180,climb,klaem,klaem,,-sax,,,0
48741328309,"Malua Bay: Tiptir",-15.9905,167.21991,8210,swim,swim,swim,,..,,,0
48741328309,"Malua Bay: Tiptir",-15.9905,167.21991,8220,fly_verb,flae,flae,,i-ɣoɣɛp,,,0
48741328309,"Malua Bay: Tiptir",-15.9905,167.21991,8260,throw,sakemaot,sakemaot,,"-worɪn lue",,,0
48741328309,"Malua Bay: Tiptir",-15.9905,167.21991,8270,hide,haetem,haetem,,-tosesuɣun,,,0
48741328309,"Malua Bay: Tiptir",-15.9905,167.21991,8310,eat,kakae,kakae,,na-oɾ,,,0
48741328309,"Malua Bay: Tiptir",-15.9905,167.21991,8320,drink,drink,drink,,nɪ-min,,,0
48741328309,"Malua Bay: Tiptir",-15.9905,167.21991,8360,yawn,wantem_silip,wantem_silip,,nu-mumav,,,0
48741328309,"Malua Bay: Tiptir",-15.9905,167.21991,8370,spit,spet,spet,,i-tɪpɪs,,,0
48741328309,"Malua Bay: Tiptir",-15.9905,167.21991,8400,dream,drim,drim,,"nɪ-metur vorvoɾ",,,0
48741328309,"Malua Bay: Tiptir",-15.9905,167.21991,8410,sleep,silip,silip,,nɪ-metuɾ,,,0
48741328309,"Malua Bay: Tiptir",-15.9905,167.21991,8420,live,laev,laev,,i-meruɸ,,,0
48741328309,"Malua Bay: Tiptir",-15.9905,167.21991,8430,die,ded,ded,,i-mas,,,0
48741328309,"Malua Bay: Tiptir",-15.9905,167.21991,8440,kill,kilimded,kilimded,,-rup-is-mas,,,0
48741328309,"Malua Bay: Tiptir",-15.9905,167.21991,8510,see,luk,luk,,nɪ-lɪs,,,0
48741328309,"Malua Bay: Tiptir",-15.9905,167.21991,8520,hear,harem,harem,,nu-roŋɔ,,,0
48741328309,"Malua Bay: Tiptir",-15.9905,167.21991,8540,sniff,smel,smel,,na-matɪne,,,0
48741328309,"Malua Bay: Tiptir",-15.9905,167.21991,8580,laugh,laf,laf,,nɪ-ŋiɾə,,,0
48741328309,"Malua Bay: Tiptir",-15.9905,167.21991,8590,cry,krae,krae,,nɪ-ŋɛɾɛ,,,0
48741328309,"Malua Bay: Tiptir",-15.9905,167.21991,8670,blow,blo,blo,,i-siɾ,,,0
48741328309,"Malua Bay: Tiptir",-15.9905,167.21991,8680,burn,bon,bon,,-ɣɛn,,,0
48741328309,"Malua Bay: Tiptir",-15.9905,167.21991,8740,sew,somap,somap,,..,,,0
48741328309,"Malua Bay: Tiptir",-15.9905,167.21991,8800,pound,kilkilim,kilkilim,,..,,,0
48741328309,"Malua Bay: Tiptir",-15.9905,167.21991,8810,hit,kilim,kilim,,-rup,,,0
48741328309,"Malua Bay: Tiptir",-15.9905,167.21991,8870,cut,katem,katem,,i-spe,,,0
48741328309,"Malua Bay: Tiptir",-15.9905,167.21991,8880,split,spletem,spletem,,-tevuɣis,,,0
48741328309,"Malua Bay: Tiptir",-15.9905,167.21991,8890,dig,digim,digim,,-ɣil,,,0
48741328309,"Malua Bay: Tiptir",-15.9905,167.21991,8920,hunt,kasem,kasem,,-xorɔ,,,0
48741328309,"Malua Bay: Tiptir",-15.9905,167.21991,8930,hold,holem,holem,,-us,,,0
48741328309,"Malua Bay: Tiptir",-15.9905,167.21991,8950,fear,fraet,fraet,,-loɣolox,,,0
48741328309,"Malua Bay: Tiptir",-15.9905,167.21991,8960,count,kaontem,kaontem,,-ʧɪpʷɪn,,,0
48741328309,"Malua Bay: Tiptir",-15.9905,167.21991,8970,breathe,pulum_win,pulum_win,,ni-ɛvɪ-laŋ,,,0
48741328309,"Malua Bay: Tiptir",-15.9905,167.21991,9000,vomit,traot,traot,,i-lolo,,,0
48741328309,"Malua Bay: Tiptir",-15.9905,167.21991,9010,tie,fasem_taet,fasem_taet,,-mʷit͡s,,,0
48741328309,"Malua Bay: Tiptir",-15.9905,167.21991,9020,squeeze,skwisim,skwisim,,-wis,,,0
48741328309,"Malua Bay: Tiptir",-15.9905,167.21991,9030,swell,solap,solap,,i-vuvun,,,0
48741328309,"Malua Bay: Tiptir",-15.9905,167.21991,9040,say,talem,talem,,-wiɾə,,,0
48741328309,"Malua Bay: Tiptir",-15.9905,167.21991,9050,scratch,sikrasem,sikrasem,,..,,,0
48741328309,"Malua Bay: Tiptir",-15.9905,167.21991,9060,stab,stikim,stikim,,-ʧɪle,,,0
48741328309,"Malua Bay: Tiptir",-15.9905,167.21991,9120,buy,pem,pem,,-wʊl,,,0
48741328309,"Malua Bay: Tiptir",-15.9905,167.21991,9130,steal,stilim,stilim,,-vɪniɣe,,,0
48741328309,"Malua Bay: Tiptir",-15.9905,167.21991,9180,plant,planem,planem,,-laɸ,,,0
48741328309,"Malua Bay: Tiptir",-15.9905,167.21991,9220,cook,kuk,kuk,,i-titin,,,0
48741328309,"Malua Bay: Tiptir",-15.9905,167.21991,9400,shoot,shutum,shutum,,-soɾo,,,0
48741328309,"Malua Bay: Tiptir",-15.9905,167.21991,9500,work,wok,wok,,-ᵐbɛs-ɛn,,,0
48741328309,"Malua Bay: Tiptir",-15.9905,167.21991,9620,open,openem,openem,,-wale,,,0
48741328409,"Malua Bay: Marasup",-15.99098,167.2198,8020,come,kam,kam,,-ma,,,0
48741328409,"Malua Bay: Marasup",-15.99098,167.2198,8030,walk,wokabaot,wokabaot,,-vial,,,0
48741328409,"Malua Bay: Marasup",-15.99098,167.2198,8110,stand,stanap,stanap,,-tur,,,0
48741328409,"Malua Bay: Marasup",-15.99098,167.2198,8120,sit,sidaon,sidaon,,h-at,,,0
48741328409,"Malua Bay: Marasup",-15.99098,167.2198,8130,fall,foldaon,foldaon,,i-t͡soɸ,,,0
48741328409,"Malua Bay: Marasup",-15.99098,167.2198,8140,lie_down,ledaon,ledaon,,..,,,0
48741328409,"Malua Bay: Marasup",-15.99098,167.2198,8150,turn,tanem,tanem,,-losi,,,0
48741328409,"Malua Bay: Marasup",-15.99098,167.2198,8180,climb,klaem,klaem,,-sax,,,0
48741328409,"Malua Bay: Marasup",-15.99098,167.2198,8210,swim,swim,swim,,-kaɾ,,,0
48741328409,"Malua Bay: Marasup",-15.99098,167.2198,8220,fly_verb,flae,flae,,-ɣiɣamp,,,0
48741328409,"Malua Bay: Marasup",-15.99098,167.2198,8260,throw,sakemaot,sakemaot,,"wɛrɛn lue",,,0
48741328409,"Malua Bay: Marasup",-15.99098,167.2198,8270,hide,haetem,haetem,,-tososuin,,,0
48741328409,"Malua Bay: Marasup",-15.99098,167.2198,8310,eat,kakae,kakae,,-or,,,0
48741328409,"Malua Bay: Marasup",-15.99098,167.2198,8320,drink,drink,drink,,i-min,,,0
48741328409,"Malua Bay: Marasup",-15.99098,167.2198,8360,yawn,wantem_silip,wantem_silip,,-mumaɸ,,,0
48741328409,"Malua Bay: Marasup",-15.99098,167.2198,8370,spit,spet,spet,,i-tɪpis,,,0
48741328409,"Malua Bay: Marasup",-15.99098,167.2198,8400,dream,drim,drim,,"-mɛtur vorvuɾo",,,0
48741328409,"Malua Bay: Marasup",-15.99098,167.2198,8410,sleep,silip,silip,,-metur,,,0
48741328409,"Malua Bay: Marasup",-15.99098,167.2198,8420,live,laev,laev,,i-meɾuɸ,,,0
48741328409,"Malua Bay: Marasup",-15.99098,167.2198,8430,die,ded,ded,,i-mɛs,,,0
48741328409,"Malua Bay: Marasup",-15.99098,167.2198,8440,kill,kilimded,kilimded,,-rupʰ-ip-mɪs,,,0
48741328409,"Malua Bay: Marasup",-15.99098,167.2198,8510,see,luk,luk,,-lɪs,,,0
48741328409,"Malua Bay: Marasup",-15.99098,167.2198,8520,hear,harem,harem,,ho-roŋɔ,,,0
48741328409,"Malua Bay: Marasup",-15.99098,167.2198,8540,sniff,smel,smel,,nɛ-vtin,,,0
48741328409,"Malua Bay: Marasup",-15.99098,167.2198,8580,laugh,laf,laf,,nɪ-ŋiɾe,,,0
48741328409,"Malua Bay: Marasup",-15.99098,167.2198,8590,cry,krae,krae,,i-ŋaɾa,,,0
48741328409,"Malua Bay: Marasup",-15.99098,167.2198,8670,blow,blo,blo,,i-sɛɾ,,,0
48741328409,"Malua Bay: Marasup",-15.99098,167.2198,8680,burn,bon,bon,,i-ɣan,,,0
48741328409,"Malua Bay: Marasup",-15.99098,167.2198,8740,sew,somap,somap,,ho-rur,,,0
48741328409,"Malua Bay: Marasup",-15.99098,167.2198,8800,pound,kilkilim,kilkilim,,-ruprup,,,0
48741328409,"Malua Bay: Marasup",-15.99098,167.2198,8810,hit,kilim,kilim,,-rup,,,0
48741328409,"Malua Bay: Marasup",-15.99098,167.2198,8870,cut,katem,katem,,-tɪt͡s,,,0
48741328409,"Malua Bay: Marasup",-15.99098,167.2198,8880,split,spletem,spletem,,..,,,0
48741328409,"Malua Bay: Marasup",-15.99098,167.2198,8890,dig,digim,digim,,-xiɬ,,,0
48741328409,"Malua Bay: Marasup",-15.99098,167.2198,8920,hunt,kasem,kasem,,-xorxoɾ,,,0
48741328409,"Malua Bay: Marasup",-15.99098,167.2198,8930,hold,holem,holem,,-us,,,0
48741328409,"Malua Bay: Marasup",-15.99098,167.2198,8950,fear,fraet,fraet,,-mtaɣut,,,0
48741328409,"Malua Bay: Marasup",-15.99098,167.2198,8960,count,kaontem,kaontem,,-ʧɪpɪn,,,0
48741328409,"Malua Bay: Marasup",-15.99098,167.2198,8970,breathe,pulum_win,pulum_win,,he-vɪ-laŋ,,,0
48741328409,"Malua Bay: Marasup",-15.99098,167.2198,9000,vomit,traot,traot,,i-lulu,,,0
48741328409,"Malua Bay: Marasup",-15.99098,167.2198,9010,tie,fasem_taet,fasem_taet,,-mit͡s,,,0
48741328409,"Malua Bay: Marasup",-15.99098,167.2198,9020,squeeze,skwisim,skwisim,,..,,,0
48741328409,"Malua Bay: Marasup",-15.99098,167.2198,9030,swell,solap,solap,,-fuvunus,,,0
48741328409,"Malua Bay: Marasup",-15.99098,167.2198,9040,say,talem,talem,,-wiɾe,,,0
48741328409,"Malua Bay: Marasup",-15.99098,167.2198,9050,scratch,sikrasem,sikrasem,,-kʊt͡skʊt͡s,,,0
48741328409,"Malua Bay: Marasup",-15.99098,167.2198,9060,stab,stikim,stikim,,-siɾ,,,0
48741328409,"Malua Bay: Marasup",-15.99098,167.2198,9120,buy,pem,pem,,-wʊɬ,,,0
48741328409,"Malua Bay: Marasup",-15.99098,167.2198,9130,steal,stilim,stilim,,-vɪnaɣe,,,0
48741328409,"Malua Bay: Marasup",-15.99098,167.2198,9180,plant,planem,planem,,i-ruɸ,,,0
48741328409,"Malua Bay: Marasup",-15.99098,167.2198,9220,cook,kuk,kuk,,-titin,,,0
48741328409,"Malua Bay: Marasup",-15.99098,167.2198,9400,shoot,shutum,shutum,,-soɾo,,,0
48741328409,"Malua Bay: Marasup",-15.99098,167.2198,9500,work,wok,wok,,i-pas,,,0
48741328409,"Malua Bay: Marasup",-15.99098,167.2198,9620,open,openem,openem,,-fale,,,0
48741345109,"Najit: Tanmial",-15.94786,167.18226,8020,come,kam,kam,,-mã,,,0
48741345109,"Najit: Tanmial",-15.94786,167.18226,8030,walk,wokabaot,wokabaot,,-val,,,0
48741345109,"Najit: Tanmial",-15.94786,167.18226,8110,stand,stanap,stanap,,-tor,,,0
48741345109,"Najit: Tanmial",-15.94786,167.18226,8120,sit,sidaon,sidaon,,i-at,,,0
48741345109,"Najit: Tanmial",-15.94786,167.18226,8130,fall,foldaon,foldaon,,"-ʧov lɛltɛn",,,0
48741345109,"Najit: Tanmial",-15.94786,167.18226,8140,lie_down,ledaon,ledaon,,..,,,0
48741345109,"Najit: Tanmial",-15.94786,167.18226,8150,turn,tanem,tanem,,-ror,,,0
48741345109,"Najit: Tanmial",-15.94786,167.18226,8180,climb,klaem,klaem,,-sax,,,0
48741345109,"Najit: Tanmial",-15.94786,167.18226,8210,swim,swim,swim,,-səf,,,0
48741345109,"Najit: Tanmial",-15.94786,167.18226,8220,fly_verb,flae,flae,,-ɣɛɣɛp,,,0
48741345109,"Najit: Tanmial",-15.94786,167.18226,8260,throw,sakemaot,sakemaot,,-ʧɛplɛn,,,0
48741345109,"Najit: Tanmial",-15.94786,167.18226,8270,hide,haetem,haetem,,-tosuɣun,,,0
48741345109,"Najit: Tanmial",-15.94786,167.18226,8310,eat,kakae,kakae,,-wor,,,0
48741345109,"Najit: Tanmial",-15.94786,167.18226,8320,drink,drink,drink,,-min,,,0
48741345109,"Najit: Tanmial",-15.94786,167.18226,8360,yawn,wantem_silip,wantem_silip,,-momaɸ,,,0
48741345109,"Najit: Tanmial",-15.94786,167.18226,8370,spit,spet,spet,,-tɪpɪs,,,0
48741345109,"Najit: Tanmial",-15.94786,167.18226,8400,dream,drim,drim,,"mɛtur porpor",,,0
48741345109,"Najit: Tanmial",-15.94786,167.18226,8410,sleep,silip,silip,,-mɛtur,,,0
48741345109,"Najit: Tanmial",-15.94786,167.18226,8420,live,laev,laev,,i-moroɸ,,,0
48741345109,"Najit: Tanmial",-15.94786,167.18226,8430,die,ded,ded,,i-mas,,,0
48741345109,"Najit: Tanmial",-15.94786,167.18226,8440,kill,kilimded,kilimded,,..,,,0
48741345109,"Najit: Tanmial",-15.94786,167.18226,8510,see,luk,luk,,-lɪs,,,0
48741345109,"Najit: Tanmial",-15.94786,167.18226,8520,hear,harem,harem,,-roŋɔ,,,0
48741345109,"Najit: Tanmial",-15.94786,167.18226,8540,sniff,smel,smel,,pʷɔ-ⁿʧi,,,0
48741345109,"Najit: Tanmial",-15.94786,167.18226,8580,laugh,laf,laf,,-ŋir,,,0
48741345109,"Najit: Tanmial",-15.94786,167.18226,8590,cry,krae,krae,,-ŋɛr,,,0
48741345109,"Najit: Tanmial",-15.94786,167.18226,8670,blow,blo,blo,,-sɛr,,,0
48741345109,"Najit: Tanmial",-15.94786,167.18226,8680,burn,bon,bon,,-sul,,,0
48741345109,"Najit: Tanmial",-15.94786,167.18226,8740,sew,somap,somap,,-rur,,,0
48741345109,"Najit: Tanmial",-15.94786,167.18226,8800,pound,kilkilim,kilkilim,,..,,,0
48741345109,"Najit: Tanmial",-15.94786,167.18226,8810,hit,kilim,kilim,,-rup,,,0
48741345109,"Najit: Tanmial",-15.94786,167.18226,8870,cut,katem,katem,,-tet͡s,,,0
48741345109,"Najit: Tanmial",-15.94786,167.18226,8880,split,spletem,spletem,,-pɛr,,,0
48741345109,"Najit: Tanmial",-15.94786,167.18226,8890,dig,digim,digim,,-xil,,,0
48741345109,"Najit: Tanmial",-15.94786,167.18226,8920,hunt,kasem,kasem,,-xorxor,,,0
48741345109,"Najit: Tanmial",-15.94786,167.18226,8930,hold,holem,holem,,-wus,,,0
48741345109,"Najit: Tanmial",-15.94786,167.18226,8950,fear,fraet,fraet,,-ləɣoləx,,,0
48741345109,"Najit: Tanmial",-15.94786,167.18226,8960,count,kaontem,kaontem,,ʧɪpiŋ,,,0
48741345109,"Najit: Tanmial",-15.94786,167.18226,8970,breathe,pulum_win,pulum_win,,i-evɪn-laŋ,,,0
48741345109,"Najit: Tanmial",-15.94786,167.18226,9000,vomit,traot,traot,,-lolo,,,0
48741345109,"Najit: Tanmial",-15.94786,167.18226,9010,tie,fasem_taet,fasem_taet,,-miʧi,,,0
48741345109,"Najit: Tanmial",-15.94786,167.18226,9020,squeeze,skwisim,skwisim,,..,,,0
48741345109,"Najit: Tanmial",-15.94786,167.18226,9030,swell,solap,solap,,-wuwun,,,0
48741345109,"Najit: Tanmial",-15.94786,167.18226,9040,say,talem,talem,,-wɛr,,,0
48741345109,"Najit: Tanmial",-15.94786,167.18226,9050,scratch,sikrasem,sikrasem,,..,,,0
48741345109,"Najit: Tanmial",-15.94786,167.18226,9060,stab,stikim,stikim,,-rur,,,0
48741345109,"Najit: Tanmial",-15.94786,167.18226,9120,buy,pem,pem,,-wol,,,0
48741345109,"Najit: Tanmial",-15.94786,167.18226,9130,steal,stilim,stilim,,-vɪneɣe,,,0
48741345109,"Najit: Tanmial",-15.94786,167.18226,9180,plant,planem,planem,,-laf,,,0
48741345109,"Najit: Tanmial",-15.94786,167.18226,9220,cook,kuk,kuk,,..,,,0
48741345109,"Najit: Tanmial",-15.94786,167.18226,9400,shoot,shutum,shutum,,-vin,,,0
48741345109,"Najit: Tanmial",-15.94786,167.18226,9500,work,wok,wok,,-pas,,,0
48741345109,"Najit: Tanmial",-15.94786,167.18226,9620,open,openem,openem,,-ɣəɣɛs,,,0
48741365109,"Nese: Tanmial",-15.9305,167.17653,8020,come,kam,kam,,-mã,,,0
48741365109,"Nese: Tanmial",-15.9305,167.17653,8030,walk,wokabaot,wokabaot,,-vial,,,0
48741365109,"Nese: Tanmial",-15.9305,167.17653,8110,stand,stanap,stanap,,-tuɾɔ,,,0
48741365109,"Nese: Tanmial",-15.9305,167.17653,8120,sit,sidaon,sidaon,,i-at,,,0
48741365109,"Nese: Tanmial",-15.9305,167.17653,8130,fall,foldaon,foldaon,,-ʧoɸ,,,0
48741365109,"Nese: Tanmial",-15.9305,167.17653,8140,lie_down,ledaon,ledaon,,..,,,0
48741365109,"Nese: Tanmial",-15.9305,167.17653,8150,turn,tanem,tanem,,-ᵐbosi,,,0
48741365109,"Nese: Tanmial",-15.9305,167.17653,8180,climb,klaem,klaem,,-sax,,,0
48741365109,"Nese: Tanmial",-15.9305,167.17653,8210,swim,swim,swim,,-suvɔ,,,0
48741365109,"Nese: Tanmial",-15.9305,167.17653,8220,fly_verb,flae,flae,,-tasix,,,0
48741365109,"Nese: Tanmial",-15.9305,167.17653,8260,throw,sakemaot,sakemaot,,-vrɛni,,,0
48741365109,"Nese: Tanmial",-15.9305,167.17653,8270,hide,haetem,haetem,,-vitɛsoni,,,0
48741365109,"Nese: Tanmial",-15.9305,167.17653,8310,eat,kakae,kakae,,-wor,,,0
48741365109,"Nese: Tanmial",-15.9305,167.17653,8320,drink,drink,drink,,no-mu,,,0
48741365109,"Nese: Tanmial",-15.9305,167.17653,8360,yawn,wantem_silip,wantem_silip,,-nanaɸ,,,0
48741365109,"Nese: Tanmial",-15.9305,167.17653,8370,spit,spet,spet,,-livte,,,0
48741365109,"Nese: Tanmial",-15.9305,167.17653,8400,dream,drim,drim,,"natur ᵐborᵐbor",,,0
48741365109,"Nese: Tanmial",-15.9305,167.17653,8410,sleep,silip,silip,,-natur,,,0
48741365109,"Nese: Tanmial",-15.9305,167.17653,8420,live,laev,laev,,-noruvo,,,0
48741365109,"Nese: Tanmial",-15.9305,167.17653,8430,die,ded,ded,,-nas,,,0
48741365109,"Nese: Tanmial",-15.9305,167.17653,8440,kill,kilimded,kilimded,,-ruᵐbu-nas,,,0
48741365109,"Nese: Tanmial",-15.9305,167.17653,8510,see,luk,luk,,-la,,,0
48741365109,"Nese: Tanmial",-15.9305,167.17653,8520,hear,harem,harem,,-roŋɔ,,,0
48741365109,"Nese: Tanmial",-15.9305,167.17653,8540,sniff,smel,smel,,-ᵐbon,,,0
48741365109,"Nese: Tanmial",-15.9305,167.17653,8580,laugh,laf,laf,,-ŋir,,,0
48741365109,"Nese: Tanmial",-15.9305,167.17653,8590,cry,krae,krae,,-ŋar,,,0
48741365109,"Nese: Tanmial",-15.9305,167.17653,8670,blow,blo,blo,,-sirt͡sir,,,0
48741365109,"Nese: Tanmial",-15.9305,167.17653,8680,burn,bon,bon,,sul,,,0
48741365109,"Nese: Tanmial",-15.9305,167.17653,8740,sew,somap,somap,,-rori,,,0
48741365109,"Nese: Tanmial",-15.9305,167.17653,8800,pound,kilkilim,kilkilim,,-ruᵐbruᵐbu,,,0
48741365109,"Nese: Tanmial",-15.9305,167.17653,8810,hit,kilim,kilim,,-ruᵐbu,,,0
48741365109,"Nese: Tanmial",-15.9305,167.17653,8870,cut,katem,katem,,-siⁿde,,,0
48741365109,"Nese: Tanmial",-15.9305,167.17653,8880,split,spletem,spletem,,-ⁿdari,,,0
48741365109,"Nese: Tanmial",-15.9305,167.17653,8890,dig,digim,digim,,-xili,,,0
48741365109,"Nese: Tanmial",-15.9305,167.17653,8920,hunt,kasem,kasem,,-xorxor,,,0
48741365109,"Nese: Tanmial",-15.9305,167.17653,8930,hold,holem,holem,,-vorsu,,,0
48741365109,"Nese: Tanmial",-15.9305,167.17653,8950,fear,fraet,fraet,,-luɣɔ,,,0
48741365109,"Nese: Tanmial",-15.9305,167.17653,8960,count,kaontem,kaontem,,sirte,,,0
48741365109,"Nese: Tanmial",-15.9305,167.17653,8970,breathe,pulum_win,pulum_win,,ɛ-vna-laŋ,,,0
48741365109,"Nese: Tanmial",-15.9305,167.17653,9000,vomit,traot,traot,,-lulu,,,0
48741365109,"Nese: Tanmial",-15.9305,167.17653,9010,tie,fasem_taet,fasem_taet,,-mɪlʧi,,,0
48741365109,"Nese: Tanmial",-15.9305,167.17653,9020,squeeze,skwisim,skwisim,,wis,,,0
48741365109,"Nese: Tanmial",-15.9305,167.17653,9030,swell,solap,solap,,vuvun,,,0
48741365109,"Nese: Tanmial",-15.9305,167.17653,9040,say,talem,talem,,-vari,,,0
48741365109,"Nese: Tanmial",-15.9305,167.17653,9050,scratch,sikrasem,sikrasem,,-koʧ,,,0
48741365109,"Nese: Tanmial",-15.9305,167.17653,9060,stab,stikim,stikim,,sari,,,0
48741365109,"Nese: Tanmial",-15.9305,167.17653,9120,buy,pem,pem,,-vare,,,0
48741365109,"Nese: Tanmial",-15.9305,167.17653,9130,steal,stilim,stilim,,-vanaɣe,,,0
48741365109,"Nese: Tanmial",-15.9305,167.17653,9180,plant,planem,planem,,-ruvu,,,0
48741365109,"Nese: Tanmial",-15.9305,167.17653,9220,cook,kuk,kuk,,..,,,0
48741365109,"Nese: Tanmial",-15.9305,167.17653,9400,shoot,shutum,shutum,,-lue,,,0
48741365109,"Nese: Tanmial",-15.9305,167.17653,9500,work,wok,wok,,-saxsax,,,0
48741365109,"Nese: Tanmial",-15.9305,167.17653,9620,open,openem,openem,,ware,,,0
48741367209,"Nese: Sanboise",-15.91461,167.17833,8020,come,kam,kam,,-mã,,,0
48741367209,"Nese: Sanboise",-15.91461,167.17833,8030,walk,wokabaot,wokabaot,,rɪ-vial,,,0
48741367209,"Nese: Sanboise",-15.91461,167.17833,8110,stand,stanap,stanap,,no-toɾo,,,0
48741367209,"Nese: Sanboise",-15.91461,167.17833,8120,sit,sidaon,sidaon,,na-at,,,0
48741367209,"Nese: Sanboise",-15.91461,167.17833,8130,fall,foldaon,foldaon,,"-ʧov latan",,,0
48741367209,"Nese: Sanboise",-15.91461,167.17833,8140,lie_down,ledaon,ledaon,,..,,,0
48741367209,"Nese: Sanboise",-15.91461,167.17833,8150,turn,tanem,tanem,,ho-rori,,,0
48741367209,"Nese: Sanboise",-15.91461,167.17833,8180,climb,klaem,klaem,,"ha-sax malo",,,0
48741367209,"Nese: Sanboise",-15.91461,167.17833,8210,swim,swim,swim,,-suvɔ,,,0
48741367209,"Nese: Sanboise",-15.91461,167.17833,8220,fly_verb,flae,flae,,-tasix,,,0
48741367209,"Nese: Sanboise",-15.91461,167.17833,8260,throw,sakemaot,sakemaot,,-vrɛni,,,0
48741367209,"Nese: Sanboise",-15.91461,167.17833,8270,hide,haetem,haetem,,xa-vanaɣe,,,0
48741367209,"Nese: Sanboise",-15.91461,167.17833,8310,eat,kakae,kakae,,no-wor,,,0
48741367209,"Nese: Sanboise",-15.91461,167.17833,8320,drink,drink,drink,,"no-nuŋ nu-a",,,0
48741367209,"Nese: Sanboise",-15.91461,167.17833,8360,yawn,wantem_silip,wantem_silip,,..,,,0
48741367209,"Nese: Sanboise",-15.91461,167.17833,8370,spit,spet,spet,,nɛ-livte,,,0
48741367209,"Nese: Sanboise",-15.91461,167.17833,8400,dream,drim,drim,,"nu-natur ᵐborᵐbor",,,0
48741367209,"Nese: Sanboise",-15.91461,167.17833,8410,sleep,silip,silip,,na-natur,,,0
48741367209,"Nese: Sanboise",-15.91461,167.17833,8420,live,laev,laev,,no-noruvan,,,0
48741367209,"Nese: Sanboise",-15.91461,167.17833,8430,die,ded,ded,,ti-nas,,,0
48741367209,"Nese: Sanboise",-15.91461,167.17833,8440,kill,kilimded,kilimded,,no-ruᵐbu-nas,,,0
48741367209,"Nese: Sanboise",-15.91461,167.17833,8510,see,luk,luk,,nɛ-lesi,,,0
48741367209,"Nese: Sanboise",-15.91461,167.17833,8520,hear,harem,harem,,no-roŋɔ,,,0
48741367209,"Nese: Sanboise",-15.91461,167.17833,8540,sniff,smel,smel,,..,,,0
48741367209,"Nese: Sanboise",-15.91461,167.17833,8580,laugh,laf,laf,,nɛ-ŋiɾ,,,0
48741367209,"Nese: Sanboise",-15.91461,167.17833,8590,cry,krae,krae,,na-ŋar,,,0
48741367209,"Nese: Sanboise",-15.91461,167.17833,8670,blow,blo,blo,,-sirsir,,,0
48741367209,"Nese: Sanboise",-15.91461,167.17833,8680,burn,bon,bon,,..,,,0
48741367209,"Nese: Sanboise",-15.91461,167.17833,8740,sew,somap,somap,,..,,,0
48741367209,"Nese: Sanboise",-15.91461,167.17833,8800,pound,kilkilim,kilkilim,,..,,,0
48741367209,"Nese: Sanboise",-15.91461,167.17833,8810,hit,kilim,kilim,,no-ruᵐbu͂,,,0
48741367209,"Nese: Sanboise",-15.91461,167.17833,8870,cut,katem,katem,,nɪ-siⁿde,,,0
48741367209,"Nese: Sanboise",-15.91461,167.17833,8880,split,spletem,spletem,,..,,,0
48741367209,"Nese: Sanboise",-15.91461,167.17833,8890,dig,digim,digim,,..,,,0
48741367209,"Nese: Sanboise",-15.91461,167.17833,8920,hunt,kasem,kasem,,..,,,0
48741367209,"Nese: Sanboise",-15.91461,167.17833,8930,hold,holem,holem,,no-vorsu,,,0
48741367209,"Nese: Sanboise",-15.91461,167.17833,8950,fear,fraet,fraet,,no-luɣɔ,,,0
48741367209,"Nese: Sanboise",-15.91461,167.17833,8960,count,kaontem,kaontem,,..,,,0
48741367209,"Nese: Sanboise",-15.91461,167.17833,8970,breathe,pulum_win,pulum_win,,ne-vɪna-laŋ,,,0
48741367209,"Nese: Sanboise",-15.91461,167.17833,9000,vomit,traot,traot,,no-lulu,,,0
48741367209,"Nese: Sanboise",-15.91461,167.17833,9010,tie,fasem_taet,fasem_taet,,..,,,0
48741367209,"Nese: Sanboise",-15.91461,167.17833,9020,squeeze,skwisim,skwisim,,..,,,0
48741367209,"Nese: Sanboise",-15.91461,167.17833,9030,swell,solap,solap,,..,,,0
48741367209,"Nese: Sanboise",-15.91461,167.17833,9040,say,talem,talem,,..,,,0
48741367209,"Nese: Sanboise",-15.91461,167.17833,9050,scratch,sikrasem,sikrasem,,no-kut͡s,,,0
48741367209,"Nese: Sanboise",-15.91461,167.17833,9060,stab,stikim,stikim,,nɪ-ʧile,,,0
48741367209,"Nese: Sanboise",-15.91461,167.17833,9120,buy,pem,pem,,no-voli,,,0
48741367209,"Nese: Sanboise",-15.91461,167.17833,9130,steal,stilim,stilim,,nɛ-vanaɣe,,,0
48741367209,"Nese: Sanboise",-15.91461,167.17833,9180,plant,planem,planem,,nu-ruvʷo,,,0
48741367209,"Nese: Sanboise",-15.91461,167.17833,9220,cook,kuk,kuk,,no-nõ,,,0
48741367209,"Nese: Sanboise",-15.91461,167.17833,9400,shoot,shutum,shutum,,rɪ-vɪni,,,0
48741367209,"Nese: Sanboise",-15.91461,167.17833,9500,work,wok,wok,,nɪvɪ-saxsax,,,0
48741367209,"Nese: Sanboise",-15.91461,167.17833,9620,open,openem,openem,,..,,,0
48741556509,"Vao: Beetehul",-15.89728,167.30443,8020,come,kam,kam,,mʷo-n̼ɛ,,,0
48741556509,"Vao: Beetehul",-15.89728,167.30443,8030,walk,wokabaot,wokabaot,,mʷo-ɛh,,,0
48741556509,"Vao: Beetehul",-15.89728,167.30443,8110,stand,stanap,stanap,,mʷo-tur,,,0
48741556509,"Vao: Beetehul",-15.89728,167.30443,8110,stand,stanap,stanap,,"mʷo-tur aul",,,0
48741556509,"Vao: Beetehul",-15.89728,167.30443,8120,sit,sidaon,sidaon,,mʷo-at,,,0
48741556509,"Vao: Beetehul",-15.89728,167.30443,8130,fall,foldaon,foldaon,,..,,,0
48741556509,"Vao: Beetehul",-15.89728,167.30443,8140,lie_down,ledaon,ledaon,,..,,,0
48741556509,"Vao: Beetehul",-15.89728,167.30443,8150,turn,tanem,tanem,,mʷo-rori,,,0
48741556509,"Vao: Beetehul",-15.89728,167.30443,8180,climb,klaem,klaem,,mʷo-ð̼̼ɛn,,,0
48741556509,"Vao: Beetehul",-15.89728,167.30443,8210,swim,swim,swim,,mʷo-kar,,,0
48741556509,"Vao: Beetehul",-15.89728,167.30443,8220,fly_verb,flae,flae,,mʷo-vir,,,0
48741556509,"Vao: Beetehul",-15.89728,167.30443,8260,throw,sakemaot,sakemaot,,..,,,0
48741556509,"Vao: Beetehul",-15.89728,167.30443,8270,hide,haetem,haetem,,mʷo-hilð̼̼eni,,,0
48741556509,"Vao: Beetehul",-15.89728,167.30443,8310,eat,kakae,kakae,,mʷo-ɣɛnɣan,,,0
48741556509,"Vao: Beetehul",-15.89728,167.30443,8320,drink,drink,drink,,mʷo-moni,,,0
48741556509,"Vao: Beetehul",-15.89728,167.30443,8360,yawn,wantem_silip,wantem_silip,,mʷo-ɣɛnma,,,0
48741556509,"Vao: Beetehul",-15.89728,167.30443,8370,spit,spet,spet,,mʷo-lutoð̼̼,,,0
48741556509,"Vao: Beetehul",-15.89728,167.30443,8400,dream,drim,drim,,..,,,0
48741556509,"Vao: Beetehul",-15.89728,167.30443,8410,sleep,silip,silip,,mʷo-n̼aliɣo,,,0
48741556509,"Vao: Beetehul",-15.89728,167.30443,8420,live,laev,laev,,mʷo-n̼aur,,,0
48741556509,"Vao: Beetehul",-15.89728,167.30443,8430,die,ded,ded,,mʷo-n̼at,,,0
48741556509,"Vao: Beetehul",-15.89728,167.30443,8440,kill,kilimded,kilimded,,mʷo-luhu-n̼ɛte,,,0
48741556509,"Vao: Beetehul",-15.89728,167.30443,8510,see,luk,luk,,mʷo-lehi,,,0
48741556509,"Vao: Beetehul",-15.89728,167.30443,8520,hear,harem,harem,,mo-roŋɛ,,,0
48741556509,"Vao: Beetehul",-15.89728,167.30443,8540,sniff,smel,smel,,..,,,0
48741556509,"Vao: Beetehul",-15.89728,167.30443,8580,laugh,laf,laf,,mʷo-n̼an,,,0
48741556509,"Vao: Beetehul",-15.89728,167.30443,8590,cry,krae,krae,,mʷo-taŋ,,,0
48741556509,"Vao: Beetehul",-15.89728,167.30443,8670,blow,blo,blo,,..,,,0
48741556509,"Vao: Beetehul",-15.89728,167.30443,8680,burn,bon,bon,,..,,,0
48741556509,"Vao: Beetehul",-15.89728,167.30443,8740,sew,somap,somap,,..,,,0
48741556509,"Vao: Beetehul",-15.89728,167.30443,8800,pound,kilkilim,kilkilim,,mʷo-lohu,,,0
48741556509,"Vao: Beetehul",-15.89728,167.30443,8810,hit,kilim,kilim,,mʷo-lohu,,,0
48741556509,"Vao: Beetehul",-15.89728,167.30443,8870,cut,katem,katem,,mʷo-tɛi,,,0
48741556509,"Vao: Beetehul",-15.89728,167.30443,8880,split,spletem,spletem,,mʷo-tɪvɛɣahi,,,0
48741556509,"Vao: Beetehul",-15.89728,167.30443,8890,dig,digim,digim,,mʷo-ɣeli,,,0
48741556509,"Vao: Beetehul",-15.89728,167.30443,8920,hunt,kasem,kasem,,..,,,0
48741556509,"Vao: Beetehul",-15.89728,167.30443,8930,hold,holem,holem,,mʷo-tɛrtɛɣoni,,,0
48741556509,"Vao: Beetehul",-15.89728,167.30443,8950,fear,fraet,fraet,,mʷo-n̼ataβ,,,0
48741556509,"Vao: Beetehul",-15.89728,167.30443,8960,count,kaontem,kaontem,,..,,,0
48741556509,"Vao: Beetehul",-15.89728,167.30443,8970,breathe,pulum_win,pulum_win,,..,,,0
48741556509,"Vao: Beetehul",-15.89728,167.30443,9000,vomit,traot,traot,,mʷo-lulu,,,0
48741556509,"Vao: Beetehul",-15.89728,167.30443,9010,tie,fasem_taet,fasem_taet,,mʷo-tali,,,0
48741556509,"Vao: Beetehul",-15.89728,167.30443,9020,squeeze,skwisim,skwisim,,mʷo-virgɛni,,,0
48741556509,"Vao: Beetehul",-15.89728,167.30443,9030,swell,solap,solap,,mʷo-ᵐburɛ,,,0
48741556509,"Vao: Beetehul",-15.89728,167.30443,9040,say,talem,talem,,-vɛrɛi,,,0
48741556509,"Vao: Beetehul",-15.89728,167.30443,9050,scratch,sikrasem,sikrasem,,..,,,0
48741556509,"Vao: Beetehul",-15.89728,167.30443,9060,stab,stikim,stikim,,..,,,0
48741556509,"Vao: Beetehul",-15.89728,167.30443,9120,buy,pem,pem,,mʷo-βoli,,,0
48741556509,"Vao: Beetehul",-15.89728,167.30443,9130,steal,stilim,stilim,,mʷo-ð̼̼anaɣo,,,0
48741556509,"Vao: Beetehul",-15.89728,167.30443,9180,plant,planem,planem,,..,,,0
48741556509,"Vao: Beetehul",-15.89728,167.30443,9220,cook,kuk,kuk,,mʷo-tuntun,,,0
48741556509,"Vao: Beetehul",-15.89728,167.30443,9400,shoot,shutum,shutum,,..,,,0
48741556509,"Vao: Beetehul",-15.89728,167.30443,9500,work,wok,wok,,..,,,0
48741556509,"Vao: Beetehul",-15.89728,167.30443,9620,open,openem,openem,,mʷo-tikehi,,,0
48741557509,"Vao: Canada",-15.89978,167.30731,8020,come,kam,kam,,-mɛ,,,0
48741557509,"Vao: Canada",-15.89978,167.30731,8030,walk,wokabaot,wokabaot,,-moɛh,,,0
48741557509,"Vao: Canada",-15.89978,167.30731,8110,stand,stanap,stanap,,-tur,,,0
48741557509,"Vao: Canada",-15.89978,167.30731,8120,sit,sidaon,sidaon,,-at,,,0
48741557509,"Vao: Canada",-15.89978,167.30731,8130,fall,foldaon,foldaon,,..,,,0
48741557509,"Vao: Canada",-15.89978,167.30731,8140,lie_down,ledaon,ledaon,,..,,,0
48741557509,"Vao: Canada",-15.89978,167.30731,8150,turn,tanem,tanem,,-rori,,,0
48741557509,"Vao: Canada",-15.89978,167.30731,8180,climb,klaem,klaem,,-ð̼ɛn,,,0
48741557509,"Vao: Canada",-15.89978,167.30731,8210,swim,swim,swim,,-kar,,,0
48741557509,"Vao: Canada",-15.89978,167.30731,8220,fly_verb,flae,flae,,-vir,,,0
48741557509,"Vao: Canada",-15.89978,167.30731,8260,throw,sakemaot,sakemaot,,-vireni,,,0
48741557509,"Vao: Canada",-15.89978,167.30731,8270,hide,haetem,haetem,,-hilveni,,,0
48741557509,"Vao: Canada",-15.89978,167.30731,8310,eat,kakae,kakae,,-ɣɛnɣan,,,0
48741557509,"Vao: Canada",-15.89978,167.30731,8320,drink,drink,drink,,-muni,,,0
48741557509,"Vao: Canada",-15.89978,167.30731,8360,yawn,wantem_silip,wantem_silip,,-ɣinma,,,0
48741557509,"Vao: Canada",-15.89978,167.30731,8370,spit,spet,spet,,-litoð̼,,,0
48741557509,"Vao: Canada",-15.89978,167.30731,8400,dream,drim,drim,,..,,,0
48741557509,"Vao: Canada",-15.89978,167.30731,8410,sleep,silip,silip,,-naliɣɔ,,,0
48741557509,"Vao: Canada",-15.89978,167.30731,8420,live,laev,laev,,-n̼aur,,,0
48741557509,"Vao: Canada",-15.89978,167.30731,8430,die,ded,ded,,-n̼at,,,0
48741557509,"Vao: Canada",-15.89978,167.30731,8440,kill,kilimded,kilimded,,-lux-mɛtei,,,0
48741557509,"Vao: Canada",-15.89978,167.30731,8510,see,luk,luk,,-lehi,,,0
48741557509,"Vao: Canada",-15.89978,167.30731,8520,hear,harem,harem,,-roŋe,,,0
48741557509,"Vao: Canada",-15.89978,167.30731,8540,sniff,smel,smel,,-ᵐboni,,,0
48741557509,"Vao: Canada",-15.89978,167.30731,8580,laugh,laf,laf,,-n̼an,,,0
48741557509,"Vao: Canada",-15.89978,167.30731,8590,cry,krae,krae,,-taŋ,,,0
48741557509,"Vao: Canada",-15.89978,167.30731,8670,blow,blo,blo,,-hirhir,,,0
48741557509,"Vao: Canada",-15.89978,167.30731,8680,burn,bon,bon,,-axan,,,0
48741557509,"Vao: Canada",-15.89978,167.30731,8740,sew,somap,somap,,..,,,0
48741557509,"Vao: Canada",-15.89978,167.30731,8800,pound,kilkilim,kilkilim,,lohi,,,0
48741557509,"Vao: Canada",-15.89978,167.30731,8810,hit,kilim,kilim,,-lohi,,,0
48741557509,"Vao: Canada",-15.89978,167.30731,8870,cut,katem,katem,,-te,,,0
48741557509,"Vao: Canada",-15.89978,167.30731,8880,split,spletem,spletem,,..,,,0
48741557509,"Vao: Canada",-15.89978,167.30731,8890,dig,digim,digim,,..,,,0
48741557509,"Vao: Canada",-15.89978,167.30731,8920,hunt,kasem,kasem,,-xorxor,,,0
48741557509,"Vao: Canada",-15.89978,167.30731,8930,hold,holem,holem,,-tori,,,0
48741557509,"Vao: Canada",-15.89978,167.30731,8950,fear,fraet,fraet,,-matax,,,0
48741557509,"Vao: Canada",-15.89978,167.30731,8960,count,kaontem,kaontem,,-ð̼ɛð̼e,,,0
48741557509,"Vao: Canada",-15.89978,167.30731,8970,breathe,pulum_win,pulum_win,,"-lav hovan",,,0
48741557509,"Vao: Canada",-15.89978,167.30731,9000,vomit,traot,traot,,-lulu,,,0
48741557509,"Vao: Canada",-15.89978,167.30731,9010,tie,fasem_taet,fasem_taet,,-sali,,,0
48741557509,"Vao: Canada",-15.89978,167.30731,9020,squeeze,skwisim,skwisim,,-virihi,,,0
48741557509,"Vao: Canada",-15.89978,167.30731,9030,swell,solap,solap,,..,,,0
48741557509,"Vao: Canada",-15.89978,167.30731,9040,say,talem,talem,,-vɛre,,,0
48741557509,"Vao: Canada",-15.89978,167.30731,9050,scratch,sikrasem,sikrasem,,-hororohi,,,0
48741557509,"Vao: Canada",-15.89978,167.30731,9060,stab,stikim,stikim,,-susi,,,0
48741557509,"Vao: Canada",-15.89978,167.30731,9120,buy,pem,pem,,-voli,,,0
48741557509,"Vao: Canada",-15.89978,167.30731,9130,steal,stilim,stilim,,-ð̼anaɣɔ,,,0
48741557509,"Vao: Canada",-15.89978,167.30731,9180,plant,planem,planem,,-lavɔ,,,0
48741557509,"Vao: Canada",-15.89978,167.30731,9220,cook,kuk,kuk,,-tutun,,,0
48741557509,"Vao: Canada",-15.89978,167.30731,9400,shoot,shutum,shutum,,-vinei,,,0
48741557509,"Vao: Canada",-15.89978,167.30731,9500,work,wok,wok,,-ð̼ihahax,,,0
48741557509,"Vao: Canada",-15.89978,167.30731,9620,open,openem,openem,,-vuɣe,,,0
48741557609,"Vao: Peteri",-15.89887,167.3051,8020,come,kam,kam,,wo-n̼e,,,0
48741557609,"Vao: Peteri",-15.89887,167.3051,8030,walk,wokabaot,wokabaot,,ho-e,,,0
48741557609,"Vao: Peteri",-15.89887,167.3051,8110,stand,stanap,stanap,,o-tur,,,0
48741557609,"Vao: Peteri",-15.89887,167.3051,8120,sit,sidaon,sidaon,,o-mat,,,0
48741557609,"Vao: Peteri",-15.89887,167.3051,8130,fall,foldaon,foldaon,,mʷo-sup̼,,,0
48741557609,"Vao: Peteri",-15.89887,167.3051,8140,lie_down,ledaon,ledaon,,..,,,0
48741557609,"Vao: Peteri",-15.89887,167.3051,8150,turn,tanem,tanem,,wo-rori,,,0
48741557609,"Vao: Peteri",-15.89887,167.3051,8180,climb,klaem,klaem,,wɔ-ð̼̼ɪn,,,0
48741557609,"Vao: Peteri",-15.89887,167.3051,8210,swim,swim,swim,,wo-karə,,,0
48741557609,"Vao: Peteri",-15.89887,167.3051,8220,fly_verb,flae,flae,,mʷo-viʒ,,,0
48741557609,"Vao: Peteri",-15.89887,167.3051,8260,throw,sakemaot,sakemaot,,om-balini,,,0
48741557609,"Vao: Peteri",-15.89887,167.3051,8270,hide,haetem,haetem,,o-milð̼̼eni,,,0
48741557609,"Vao: Peteri",-15.89887,167.3051,8310,eat,kakae,kakae,,ho-wɪnɣan,,,0
48741557609,"Vao: Peteri",-15.89887,167.3051,8320,drink,drink,drink,,ho-muni,,,0
48741557609,"Vao: Peteri",-15.89887,167.3051,8360,yawn,wantem_silip,wantem_silip,,hom-ɣɪnma,,,0
48741557609,"Vao: Peteri",-15.89887,167.3051,8370,spit,spet,spet,,ho-lutuð̼̼,,,0
48741557609,"Vao: Peteri",-15.89887,167.3051,8400,dream,drim,drim,,wo-mɛnlehi,,,0
48741557609,"Vao: Peteri",-15.89887,167.3051,8410,sleep,silip,silip,,hwo-mɛn,,,0
48741557609,"Vao: Peteri",-15.89887,167.3051,8420,live,laev,laev,,mu-n̼au,,,0
48741557609,"Vao: Peteri",-15.89887,167.3051,8430,die,ded,ded,,mu-n̼at,,,0
48741557609,"Vao: Peteri",-15.89887,167.3051,8440,kill,kilimded,kilimded,,um-luhu-a-n̼at,,,0
48741557609,"Vao: Peteri",-15.89887,167.3051,8510,see,luk,luk,,hum-lehi,,,0
48741557609,"Vao: Peteri",-15.89887,167.3051,8520,hear,harem,harem,,hoᵐbo-roŋɛ,,,0
48741557609,"Vao: Peteri",-15.89887,167.3051,8540,sniff,smel,smel,,..,,,0
48741557609,"Vao: Peteri",-15.89887,167.3051,8580,laugh,laf,laf,,ho-n̼an,,,0
48741557609,"Vao: Peteri",-15.89887,167.3051,8590,cry,krae,krae,,ho-ŋɛre,,,0
48741557609,"Vao: Peteri",-15.89887,167.3051,8670,blow,blo,blo,,mʷo-hiɾhiɾ,,,0
48741557609,"Vao: Peteri",-15.89887,167.3051,8680,burn,bon,bon,,mʷo-ɣan,,,0
48741557609,"Vao: Peteri",-15.89887,167.3051,8740,sew,somap,somap,,..,,,0
48741557609,"Vao: Peteri",-15.89887,167.3051,8800,pound,kilkilim,kilkilim,,o-lulohu,,,0
48741557609,"Vao: Peteri",-15.89887,167.3051,8810,hit,kilim,kilim,,um-lohu,,,0
48741557609,"Vao: Peteri",-15.89887,167.3051,8870,cut,katem,katem,,wo-te,,,0
48741557609,"Vao: Peteri",-15.89887,167.3051,8880,split,spletem,spletem,,ho-tɪvɛɣehe,,,0
48741557609,"Vao: Peteri",-15.89887,167.3051,8890,dig,digim,digim,,..,,,0
48741557609,"Vao: Peteri",-15.89887,167.3051,8920,hunt,kasem,kasem,,..,,,0
48741557609,"Vao: Peteri",-15.89887,167.3051,8930,hold,holem,holem,,ho-tori,,,0
48741557609,"Vao: Peteri",-15.89887,167.3051,8950,fear,fraet,fraet,,u-n̼atax,,,0
48741557609,"Vao: Peteri",-15.89887,167.3051,8960,count,kaontem,kaontem,,..,,,0
48741557609,"Vao: Peteri",-15.89887,167.3051,8970,breathe,pulum_win,pulum_win,,..,,,0
48741557609,"Vao: Peteri",-15.89887,167.3051,9000,vomit,traot,traot,,ho-lulu,,,0
48741557609,"Vao: Peteri",-15.89887,167.3051,9010,tie,fasem_taet,fasem_taet,,ho-liʒi,,,0
48741557609,"Vao: Peteri",-15.89887,167.3051,9020,squeeze,skwisim,skwisim,,hu-ᵐbɪɾihi,,,0
48741557609,"Vao: Peteri",-15.89887,167.3051,9030,swell,solap,solap,,mu-ᵐburɛ,,,0
48741557609,"Vao: Peteri",-15.89887,167.3051,9040,say,talem,talem,,wo-vɛre,,,0
48741557609,"Vao: Peteri",-15.89887,167.3051,9050,scratch,sikrasem,sikrasem,,..,,,0
48741557609,"Vao: Peteri",-15.89887,167.3051,9060,stab,stikim,stikim,,ho-ʒuʒi,,,0
48741557609,"Vao: Peteri",-15.89887,167.3051,9120,buy,pem,pem,,o-voli,,,0
48741557609,"Vao: Peteri",-15.89887,167.3051,9130,steal,stilim,stilim,,un-ð̼̼anaɣɔ,,,0
48741557609,"Vao: Peteri",-15.89887,167.3051,9180,plant,planem,planem,,hu-laβɔ,,,0
48741557609,"Vao: Peteri",-15.89887,167.3051,9220,cook,kuk,kuk,,..,,,0
48741557609,"Vao: Peteri",-15.89887,167.3051,9400,shoot,shutum,shutum,,ho-pɪni,,,0
48741557609,"Vao: Peteri",-15.89887,167.3051,9500,work,wok,wok,,wo-ð̼̼iahað̼̼,,,0
48741557609,"Vao: Peteri",-15.89887,167.3051,9620,open,openem,openem,,-tikehi,,,0
48741557709,"Vao: Torono",-15.89986,167.30819,8020,come,kam,kam,,ɣo-n̼ɛ,,,0
48741557709,"Vao: Torono",-15.89986,167.30819,8030,walk,wokabaot,wokabaot,,ɣo-ɛh,,,0
48741557709,"Vao: Torono",-15.89986,167.30819,8110,stand,stanap,stanap,,mʷo-tur,,,0
48741557709,"Vao: Torono",-15.89986,167.30819,8120,sit,sidaon,sidaon,,mʷo-at,,,0
48741557709,"Vao: Torono",-15.89986,167.30819,8130,fall,foldaon,foldaon,,mʷo-soɸ,,,0
48741557709,"Vao: Torono",-15.89986,167.30819,8140,lie_down,ledaon,ledaon,,mʷo-soð̼̼itan,,,0
48741557709,"Vao: Torono",-15.89986,167.30819,8150,turn,tanem,tanem,,o-rori,,,0
48741557709,"Vao: Torono",-15.89986,167.30819,8180,climb,klaem,klaem,,mʷo-ð̼̼ɛn,,,0
48741557709,"Vao: Torono",-15.89986,167.30819,8210,swim,swim,swim,,o-kar,,,0
48741557709,"Vao: Torono",-15.89986,167.30819,8220,fly_verb,flae,flae,,mʷo-vir,,,0
48741557709,"Vao: Torono",-15.89986,167.30819,8260,throw,sakemaot,sakemaot,,om-narhini,,,0
48741557709,"Vao: Torono",-15.89986,167.30819,8270,hide,haetem,haetem,,mʷo-hilð̼̼eni,,,0
48741557709,"Vao: Torono",-15.89986,167.30819,8310,eat,kakae,kakae,,mʷo-ɣɛnɣan,,,0
48741557709,"Vao: Torono",-15.89986,167.30819,8320,drink,drink,drink,,mʷo-muni,,,0
48741557709,"Vao: Torono",-15.89986,167.30819,8360,yawn,wantem_silip,wantem_silip,,mʷo-ɣinma,,,0
48741557709,"Vao: Torono",-15.89986,167.30819,8370,spit,spet,spet,,mʷo-lutoð̼̼,,,0
48741557709,"Vao: Torono",-15.89986,167.30819,8400,dream,drim,drim,,mʷo-mɛnlehi,,,0
48741557709,"Vao: Torono",-15.89986,167.30819,8410,sleep,silip,silip,,mʷo-n̼aliho,,,0
48741557709,"Vao: Torono",-15.89986,167.30819,8420,live,laev,laev,,mʷo-n̼aur,,,0
48741557709,"Vao: Torono",-15.89986,167.30819,8430,die,ded,ded,,mʷo-n̼at,,,0
48741557709,"Vao: Torono",-15.89986,167.30819,8440,kill,kilimded,kilimded,,um-luhu-n̼ɛti,,,0
48741557709,"Vao: Torono",-15.89986,167.30819,8510,see,luk,luk,,ɣom-lehi,,,0
48741557709,"Vao: Torono",-15.89986,167.30819,8520,hear,harem,harem,,ɣoᵐb-roŋɛ,,,0
48741557709,"Vao: Torono",-15.89986,167.30819,8540,sniff,smel,smel,,mʷo-ᵐbunbun,,,0
48741557709,"Vao: Torono",-15.89986,167.30819,8580,laugh,laf,laf,,n̼i-n̼an,,,0
48741557709,"Vao: Torono",-15.89986,167.30819,8590,cry,krae,krae,,mʷo-taŋ,,,0
48741557709,"Vao: Torono",-15.89986,167.30819,8670,blow,blo,blo,,mʷo-hirhir,,,0
48741557709,"Vao: Torono",-15.89986,167.30819,8680,burn,bon,bon,,mʷo-ɣaᵐbu,,,0
48741557709,"Vao: Torono",-15.89986,167.30819,8740,sew,somap,somap,,..,,,0
48741557709,"Vao: Torono",-15.89986,167.30819,8800,pound,kilkilim,kilkilim,,om-lulohu,,,0
48741557709,"Vao: Torono",-15.89986,167.30819,8810,hit,kilim,kilim,,om-lohu,,,0
48741557709,"Vao: Torono",-15.89986,167.30819,8870,cut,katem,katem,,ɣom-tɛi,,,0
48741557709,"Vao: Torono",-15.89986,167.30819,8880,split,spletem,spletem,,om-tɪvɛɣehi,,,0
48741557709,"Vao: Torono",-15.89986,167.30819,8890,dig,digim,digim,,..,,,0
48741557709,"Vao: Torono",-15.89986,167.30819,8920,hunt,kasem,kasem,,om-worxor,,,0
48741557709,"Vao: Torono",-15.89986,167.30819,8930,hold,holem,holem,,om-tori,,,0
48741557709,"Vao: Torono",-15.89986,167.30819,8950,fear,fraet,fraet,,n̼ɘ-n̼atax,,,0
48741557709,"Vao: Torono",-15.89986,167.30819,8960,count,kaontem,kaontem,,..,,,0
48741557709,"Vao: Torono",-15.89986,167.30819,8970,breathe,pulum_win,pulum_win,,..,,,0
48741557709,"Vao: Torono",-15.89986,167.30819,9000,vomit,traot,traot,,mʷo-lulu,,,0
48741557709,"Vao: Torono",-15.89986,167.30819,9010,tie,fasem_taet,fasem_taet,,mʷo-lisi,,,0
48741557709,"Vao: Torono",-15.89986,167.30819,9020,squeeze,skwisim,skwisim,,om-berihi,,,0
48741557709,"Vao: Torono",-15.89986,167.30819,9030,swell,solap,solap,,mu-ᵐburɛ,,,0
48741557709,"Vao: Torono",-15.89986,167.30819,9040,say,talem,talem,,wo-vɛrɛi,,,0
48741557709,"Vao: Torono",-15.89986,167.30819,9050,scratch,sikrasem,sikrasem,,..,,,0
48741557709,"Vao: Torono",-15.89986,167.30819,9060,stab,stikim,stikim,,..,,,0
48741557709,"Vao: Torono",-15.89986,167.30819,9120,buy,pem,pem,,om-βoli,,,0
48741557709,"Vao: Torono",-15.89986,167.30819,9130,steal,stilim,stilim,,un-ð̼̼anaɣo,,,0
48741557709,"Vao: Torono",-15.89986,167.30819,9180,plant,planem,planem,,om-laβɔ,,,0
48741557709,"Vao: Torono",-15.89986,167.30819,9220,cook,kuk,kuk,,..,,,0
48741557709,"Vao: Torono",-15.89986,167.30819,9400,shoot,shutum,shutum,,..,,,0
48741557709,"Vao: Torono",-15.89986,167.30819,9500,work,wok,wok,,on-ð̼̼ihahax,,,0
48741557709,"Vao: Torono",-15.89986,167.30819,9620,open,openem,openem,,om-βuɣe,,,0
48741733509,"Tirax: Botmelesnial",-16.0583,167.369,8020,come,kam,kam,,-mɛ,,,0
48741733509,"Tirax: Botmelesnial",-16.0583,167.369,8030,walk,wokabaot,wokabaot,,ho-vial,,,0
48741733509,"Tirax: Botmelesnial",-16.0583,167.369,8110,stand,stanap,stanap,,nɪ-tur,,,0
48741733509,"Tirax: Botmelesnial",-16.0583,167.369,8120,sit,sidaon,sidaon,,ni-at,,,0
48741733509,"Tirax: Botmelesnial",-16.0583,167.369,8130,fall,foldaon,foldaon,,i-soɸ,,,0
48741733509,"Tirax: Botmelesnial",-16.0583,167.369,8140,lie_down,ledaon,ledaon,,"-netur tugun",,,0
48741733509,"Tirax: Botmelesnial",-16.0583,167.369,8150,turn,tanem,tanem,,-ⁿdʳori,,,0
48741733509,"Tirax: Botmelesnial",-16.0583,167.369,8180,climb,klaem,klaem,,ᵐba-hɛx,,,0
48741733509,"Tirax: Botmelesnial",-16.0583,167.369,8210,swim,swim,swim,,-huɸ,,,0
48741733509,"Tirax: Botmelesnial",-16.0583,167.369,8220,fly_verb,flae,flae,,i-ɣaɣand,,,0
48741733509,"Tirax: Botmelesnial",-16.0583,167.369,8260,throw,sakemaot,sakemaot,,-sɛregi,,,0
48741733509,"Tirax: Botmelesnial",-16.0583,167.369,8270,hide,haetem,haetem,,-tahowugi,,,0
48741733509,"Tirax: Botmelesnial",-16.0583,167.369,8310,eat,kakae,kakae,,nu-wɛⁿdʳ,,,0
48741733509,"Tirax: Botmelesnial",-16.0583,167.369,8320,drink,drink,drink,,-ni,,,0
48741733509,"Tirax: Botmelesnial",-16.0583,167.369,8320,drink,drink,drink,,"-ni nua",,,0
48741733509,"Tirax: Botmelesnial",-16.0583,167.369,8360,yawn,wantem_silip,wantem_silip,,nɪ-mamaɸ,,,0
48741733509,"Tirax: Botmelesnial",-16.0583,167.369,8370,spit,spet,spet,,-ⁿdi,,,0
48741733509,"Tirax: Botmelesnial",-16.0583,167.369,8400,dream,drim,drim,,ᵐburᵐbur,,,0
48741733509,"Tirax: Botmelesnial",-16.0583,167.369,8400,dream,drim,drim,,"-netur ᵐburᵐbur",,,0
48741733509,"Tirax: Botmelesnial",-16.0583,167.369,8410,sleep,silip,silip,,-netur,,,0
48741733509,"Tirax: Botmelesnial",-16.0583,167.369,8420,live,laev,laev,,-seliɸ,,,0
48741733509,"Tirax: Botmelesnial",-16.0583,167.369,8430,die,ded,ded,,hinɛʰ,,,0
48741733509,"Tirax: Botmelesnial",-16.0583,167.369,8440,kill,kilimded,kilimded,,..,,,0
48741733509,"Tirax: Botmelesnial",-16.0583,167.369,8510,see,luk,luk,,nɪ-li,,,0
48741733509,"Tirax: Botmelesnial",-16.0583,167.369,8520,hear,harem,harem,,..,,,0
48741733509,"Tirax: Botmelesnial",-16.0583,167.369,8540,sniff,smel,smel,,ne-vtin,,,0
48741733509,"Tirax: Botmelesnial",-16.0583,167.369,8580,laugh,laf,laf,,na-ɣaur,,,0
48741733509,"Tirax: Botmelesnial",-16.0583,167.369,8590,cry,krae,krae,,-ŋarə,,,0
48741733509,"Tirax: Botmelesnial",-16.0583,167.369,8670,blow,blo,blo,,i-hir,,,0
48741733509,"Tirax: Botmelesnial",-16.0583,167.369,8680,burn,bon,bon,,..,,,0
48741733509,"Tirax: Botmelesnial",-16.0583,167.369,8740,sew,somap,somap,,ᵐba-ⁿdʳuri,,,0
48741733509,"Tirax: Botmelesnial",-16.0583,167.369,8800,pound,kilkilim,kilkilim,,-ruᵐbruᵐbi,,,0
48741733509,"Tirax: Botmelesnial",-16.0583,167.369,8810,hit,kilim,kilim,,-ruᵐbi,,,0
48741733509,"Tirax: Botmelesnial",-16.0583,167.369,8870,cut,katem,katem,,..,,,0
48741733509,"Tirax: Botmelesnial",-16.0583,167.369,8880,split,spletem,spletem,,ᵐba-tɛvɣahi,,,0
48741733509,"Tirax: Botmelesnial",-16.0583,167.369,8890,dig,digim,digim,,-levi,,,0
48741733509,"Tirax: Botmelesnial",-16.0583,167.369,8920,hunt,kasem,kasem,,..,,,0
48741733509,"Tirax: Botmelesnial",-16.0583,167.369,8930,hold,holem,holem,,hu-tuwuni,,,0
48741733509,"Tirax: Botmelesnial",-16.0583,167.369,8950,fear,fraet,fraet,,-mtagit,,,0
48741733509,"Tirax: Botmelesnial",-16.0583,167.369,8960,count,kaontem,kaontem,,ᵐba-siᵐbegi,,,0
48741733509,"Tirax: Botmelesnial",-16.0583,167.369,8970,breathe,pulum_win,pulum_win,,ne-vɪn-laŋ,,,0
48741733509,"Tirax: Botmelesnial",-16.0583,167.369,9000,vomit,traot,traot,,-lu,,,0
48741733509,"Tirax: Botmelesnial",-16.0583,167.369,9010,tie,fasem_taet,fasem_taet,,ᵐba-miʧi,,,0
48741733509,"Tirax: Botmelesnial",-16.0583,167.369,9020,squeeze,skwisim,skwisim,,..,,,0
48741733509,"Tirax: Botmelesnial",-16.0583,167.369,9030,swell,solap,solap,,i-hol,,,0
48741733509,"Tirax: Botmelesnial",-16.0583,167.369,9040,say,talem,talem,,..,,,0
48741733509,"Tirax: Botmelesnial",-16.0583,167.369,9050,scratch,sikrasem,sikrasem,,-kuskosi,,,0
48741733509,"Tirax: Botmelesnial",-16.0583,167.369,9060,stab,stikim,stikim,,..,,,0
48741733509,"Tirax: Botmelesnial",-16.0583,167.369,9120,buy,pem,pem,,ᵐba-voli,,,0
48741733509,"Tirax: Botmelesnial",-16.0583,167.369,9130,steal,stilim,stilim,,vnaɣe,,,0
48741733509,"Tirax: Botmelesnial",-16.0583,167.369,9180,plant,planem,planem,,-nlaɸ,,,0
48741733509,"Tirax: Botmelesnial",-16.0583,167.369,9220,cook,kuk,kuk,,n-titin,,,0
48741733509,"Tirax: Botmelesnial",-16.0583,167.369,9400,shoot,shutum,shutum,,ᵐba-fini,,,0
48741733509,"Tirax: Botmelesnial",-16.0583,167.369,9500,work,wok,wok,,-ⁿdah,,,0
48741733509,"Tirax: Botmelesnial",-16.0583,167.369,9620,open,openem,openem,,-təɣahi,,,0
48741733609,"Tirax: Mae",-16.05839,167.36953,8020,come,kam,kam,,-mɛ,,,0
48741733609,"Tirax: Mae",-16.05839,167.36953,8030,walk,wokabaot,wokabaot,,-fɪvial,,,0
48741733609,"Tirax: Mae",-16.05839,167.36953,8110,stand,stanap,stanap,,-tur,,,0
48741733609,"Tirax: Mae",-16.05839,167.36953,8120,sit,sidaon,sidaon,,-at,,,0
48741733609,"Tirax: Mae",-16.05839,167.36953,8130,fall,foldaon,foldaon,,-soɸ,,,0
48741733609,"Tirax: Mae",-16.05839,167.36953,8140,lie_down,ledaon,ledaon,,..,,,0
48741733609,"Tirax: Mae",-16.05839,167.36953,8150,turn,tanem,tanem,,-ⁿdʳor,,,0
48741733609,"Tirax: Mae",-16.05839,167.36953,8180,climb,klaem,klaem,,-hɛx,,,0
48741733609,"Tirax: Mae",-16.05839,167.36953,8210,swim,swim,swim,,-huɸ,,,0
48741733609,"Tirax: Mae",-16.05839,167.36953,8220,fly_verb,flae,flae,,-xaxaⁿd,,,0
48741733609,"Tirax: Mae",-16.05839,167.36953,8260,throw,sakemaot,sakemaot,,-sɛrɛɣe,,,0
48741733609,"Tirax: Mae",-16.05839,167.36953,8270,hide,haetem,haetem,,-tohuwɛɣi,,,0
48741733609,"Tirax: Mae",-16.05839,167.36953,8310,eat,kakae,kakae,,-wɛⁿdʳ,,,0
48741733609,"Tirax: Mae",-16.05839,167.36953,8320,drink,drink,drink,,-ninin,,,0
48741733609,"Tirax: Mae",-16.05839,167.36953,8360,yawn,wantem_silip,wantem_silip,,-mamaɸ,,,0
48741733609,"Tirax: Mae",-16.05839,167.36953,8370,spit,spet,spet,,-tⁿdi,,,0
48741733609,"Tirax: Mae",-16.05839,167.36953,8400,dream,drim,drim,,"-netur ᵐborbor",,,0
48741733609,"Tirax: Mae",-16.05839,167.36953,8410,sleep,silip,silip,,-netur,,,0
48741733609,"Tirax: Mae",-16.05839,167.36953,8420,live,laev,laev,,-seliɸ,,,0
48741733609,"Tirax: Mae",-16.05839,167.36953,8430,die,ded,ded,,-nɛʰ,,,0
48741733609,"Tirax: Mae",-16.05839,167.36953,8440,kill,kilimded,kilimded,,-ruᵐbɪ-ⁿdi-ni,,,0
48741733609,"Tirax: Mae",-16.05839,167.36953,8510,see,luk,luk,,..,,,0
48741733609,"Tirax: Mae",-16.05839,167.36953,8520,hear,harem,harem,,-roŋo,,,0
48741733609,"Tirax: Mae",-16.05839,167.36953,8540,sniff,smel,smel,,-ŋuʰ,,,0
48741733609,"Tirax: Mae",-16.05839,167.36953,8580,laugh,laf,laf,,-vɣaur,,,0
48741733609,"Tirax: Mae",-16.05839,167.36953,8590,cry,krae,krae,,-ŋar,,,0
48741733609,"Tirax: Mae",-16.05839,167.36953,8670,blow,blo,blo,,..,,,0
48741733609,"Tirax: Mae",-16.05839,167.36953,8680,burn,bon,bon,,-xan,,,0
48741733609,"Tirax: Mae",-16.05839,167.36953,8740,sew,somap,somap,,..,,,0
48741733609,"Tirax: Mae",-16.05839,167.36953,8800,pound,kilkilim,kilkilim,,-ruᵐbruᵐbi,,,0
48741733609,"Tirax: Mae",-16.05839,167.36953,8810,hit,kilim,kilim,,-ruᵐbi,,,0
48741733609,"Tirax: Mae",-16.05839,167.36953,8870,cut,katem,katem,,-tɛsi,,,0
48741733609,"Tirax: Mae",-16.05839,167.36953,8880,split,spletem,spletem,,-ⁿdʳeri,,,0
48741733609,"Tirax: Mae",-16.05839,167.36953,8890,dig,digim,digim,,-ɣili,,,0
48741733609,"Tirax: Mae",-16.05839,167.36953,8920,hunt,kasem,kasem,,-ⁿdʳɛlⁿdʳɛl,,,0
48741733609,"Tirax: Mae",-16.05839,167.36953,8930,hold,holem,holem,,-uɣi,,,0
48741733609,"Tirax: Mae",-16.05839,167.36953,8950,fear,fraet,fraet,,-mtaɣit,,,0
48741733609,"Tirax: Mae",-16.05839,167.36953,8960,count,kaontem,kaontem,,sɪᵐbeɣi,,,0
48741733609,"Tirax: Mae",-16.05839,167.36953,8970,breathe,pulum_win,pulum_win,,e-vɪn-laŋ,,,0
48741733609,"Tirax: Mae",-16.05839,167.36953,9000,vomit,traot,traot,,-lu,,,0
48741733609,"Tirax: Mae",-16.05839,167.36953,9010,tie,fasem_taet,fasem_taet,,-miši,,,0
48741733609,"Tirax: Mae",-16.05839,167.36953,9020,squeeze,skwisim,skwisim,,-ᵐbɣusi,,,0
48741733609,"Tirax: Mae",-16.05839,167.36953,9030,swell,solap,solap,,i-hol,,,0
48741733609,"Tirax: Mae",-16.05839,167.36953,9040,say,talem,talem,,-vɛri,,,0
48741733609,"Tirax: Mae",-16.05839,167.36953,9050,scratch,sikrasem,sikrasem,,-koskosi,,,0
48741733609,"Tirax: Mae",-16.05839,167.36953,9060,stab,stikim,stikim,,..,,,0
48741733609,"Tirax: Mae",-16.05839,167.36953,9120,buy,pem,pem,,-voli,,,0
48741733609,"Tirax: Mae",-16.05839,167.36953,9130,steal,stilim,stilim,,-vnaɣe,,,0
48741733609,"Tirax: Mae",-16.05839,167.36953,9180,plant,planem,planem,,-lav,,,0
48741733609,"Tirax: Mae",-16.05839,167.36953,9220,cook,kuk,kuk,,-titin,,,0
48741733609,"Tirax: Mae",-16.05839,167.36953,9400,shoot,shutum,shutum,,-vini,,,0
48741733609,"Tirax: Mae",-16.05839,167.36953,9500,work,wok,wok,,-ⁿdah,,,0
48741733609,"Tirax: Mae",-16.05839,167.36953,9620,open,openem,openem,,təɣahi,,,0
48741735809,"Tirax: Bethel",-16.03923,167.40186,8020,come,kam,kam,,-mɛ,,,0
48741735809,"Tirax: Bethel",-16.03923,167.40186,8030,walk,wokabaot,wokabaot,,fɪal-an,,,0
48741735809,"Tirax: Bethel",-16.03923,167.40186,8110,stand,stanap,stanap,,-turu,,,0
48741735809,"Tirax: Bethel",-16.03923,167.40186,8110,stand,stanap,stanap,,"-turu mavʷɔ",,,0
48741735809,"Tirax: Bethel",-16.03923,167.40186,8120,sit,sidaon,sidaon,,h-at,,,0
48741735809,"Tirax: Bethel",-16.03923,167.40186,8120,sit,sidaon,sidaon,,"h-at litan",,,0
48741735809,"Tirax: Bethel",-16.03923,167.40186,8130,fall,foldaon,foldaon,,i-soɸ,,,0
48741735809,"Tirax: Bethel",-16.03923,167.40186,8140,lie_down,ledaon,ledaon,,i-soɸ,,,0
48741735809,"Tirax: Bethel",-16.03923,167.40186,8150,turn,tanem,tanem,,-ⁿdʳori,,,0
48741735809,"Tirax: Bethel",-16.03923,167.40186,8180,climb,klaem,klaem,,ᵐba-heɣe,,,0
48741735809,"Tirax: Bethel",-16.03923,167.40186,8210,swim,swim,swim,,huv-an,,,0
48741735809,"Tirax: Bethel",-16.03923,167.40186,8220,fly_verb,flae,flae,,i-ɣaɣaⁿd,,,0
48741735809,"Tirax: Bethel",-16.03923,167.40186,8260,throw,sakemaot,sakemaot,,-sɛrɛɣe,,,0
48741735809,"Tirax: Bethel",-16.03923,167.40186,8270,hide,haetem,haetem,,ᵐba-tahuwɛgi,,,0
48741735809,"Tirax: Bethel",-16.03923,167.40186,8310,eat,kakae,kakae,,-wɛⁿdʳ,,,0
48741735809,"Tirax: Bethel",-16.03923,167.40186,8320,drink,drink,drink,,ᵐba-ninin,,,0
48741735809,"Tirax: Bethel",-16.03923,167.40186,8360,yawn,wantem_silip,wantem_silip,,..,,,0
48741735809,"Tirax: Bethel",-16.03923,167.40186,8370,spit,spet,spet,,tⁿdi-han,,,0
48741735809,"Tirax: Bethel",-16.03923,167.40186,8400,dream,drim,drim,,ᵐborbor,,,0
48741735809,"Tirax: Bethel",-16.03923,167.40186,8400,dream,drim,drim,,"netur-an ᵐborbor",,,0
48741735809,"Tirax: Bethel",-16.03923,167.40186,8410,sleep,silip,silip,,i-neturu,,,0
48741735809,"Tirax: Bethel",-16.03923,167.40186,8420,live,laev,laev,,i-sɛlip,,,0
48741735809,"Tirax: Bethel",-16.03923,167.40186,8430,die,ded,ded,,i-nɛʰ,,,0
48741735809,"Tirax: Bethel",-16.03923,167.40186,8440,kill,kilimded,kilimded,,ᵐba-ruᵐbi-ni,,,0
48741735809,"Tirax: Bethel",-16.03923,167.40186,8510,see,luk,luk,,..,,,0
48741735809,"Tirax: Bethel",-16.03923,167.40186,8520,hear,harem,harem,,..,,,0
48741735809,"Tirax: Bethel",-16.03923,167.40186,8540,sniff,smel,smel,,..,,,0
48741735809,"Tirax: Bethel",-16.03923,167.40186,8580,laugh,laf,laf,,vɣaur-an,,,0
48741735809,"Tirax: Bethel",-16.03923,167.40186,8590,cry,krae,krae,,ŋar-an,,,0
48741735809,"Tirax: Bethel",-16.03923,167.40186,8670,blow,blo,blo,,i-hir,,,0
48741735809,"Tirax: Bethel",-16.03923,167.40186,8680,burn,bon,bon,,i-hul,,,0
48741735809,"Tirax: Bethel",-16.03923,167.40186,8740,sew,somap,somap,,..,,,0
48741735809,"Tirax: Bethel",-16.03923,167.40186,8800,pound,kilkilim,kilkilim,,ᵐba-ruᵐbruᵐbi,,,0
48741735809,"Tirax: Bethel",-16.03923,167.40186,8810,hit,kilim,kilim,,-ruᵐbi,,,0
48741735809,"Tirax: Bethel",-16.03923,167.40186,8870,cut,katem,katem,,-tɛsi,,,0
48741735809,"Tirax: Bethel",-16.03923,167.40186,8880,split,spletem,spletem,,-tɛvɣahi,,,0
48741735809,"Tirax: Bethel",-16.03923,167.40186,8890,dig,digim,digim,,..,,,0
48741735809,"Tirax: Bethel",-16.03923,167.40186,8920,hunt,kasem,kasem,,..,,,0
48741735809,"Tirax: Bethel",-16.03923,167.40186,8930,hold,holem,holem,,hu-tuwoni,,,0
48741735809,"Tirax: Bethel",-16.03923,167.40186,8950,fear,fraet,fraet,,matahit-an,,,0
48741735809,"Tirax: Bethel",-16.03923,167.40186,8960,count,kaontem,kaontem,,ᵐba-sɪᵐbegi,,,0
48741735809,"Tirax: Bethel",-16.03923,167.40186,8970,breathe,pulum_win,pulum_win,,e-vɪna-laŋ,,,0
48741735809,"Tirax: Bethel",-16.03923,167.40186,9000,vomit,traot,traot,,-lu,,,0
48741735809,"Tirax: Bethel",-16.03923,167.40186,9010,tie,fasem_taet,fasem_taet,,-miši,,,0
48741735809,"Tirax: Bethel",-16.03923,167.40186,9020,squeeze,skwisim,skwisim,,..,,,0
48741735809,"Tirax: Bethel",-16.03923,167.40186,9030,swell,solap,solap,,..,,,0
48741735809,"Tirax: Bethel",-16.03923,167.40186,9040,say,talem,talem,,ᵐba-vɛri,,,0
48741735809,"Tirax: Bethel",-16.03923,167.40186,9050,scratch,sikrasem,sikrasem,,ko-koʃkoši,,,0
48741735809,"Tirax: Bethel",-16.03923,167.40186,9060,stab,stikim,stikim,,..,,,0
48741735809,"Tirax: Bethel",-16.03923,167.40186,9120,buy,pem,pem,,folvol-an,,,0
48741735809,"Tirax: Bethel",-16.03923,167.40186,9130,steal,stilim,stilim,,-vnaɣe,,,0
48741735809,"Tirax: Bethel",-16.03923,167.40186,9180,plant,planem,planem,,-lalaɸ,,,0
48741735809,"Tirax: Bethel",-16.03923,167.40186,9220,cook,kuk,kuk,,-titin,,,0
48741735809,"Tirax: Bethel",-16.03923,167.40186,9400,shoot,shutum,shutum,,-ⁿdʳur,,,0
48741735809,"Tirax: Bethel",-16.03923,167.40186,9500,work,wok,wok,,ⁿdah-an,,,0
48741735809,"Tirax: Bethel",-16.03923,167.40186,9620,open,openem,openem,,-təɣahi,,,0
48741736409,"Tirax: Olamb",-15.98701,167.26154,8020,come,kam,kam,,-mɛ,,,0
48741736409,"Tirax: Olamb",-15.98701,167.26154,8030,walk,wokabaot,wokabaot,,xa-vial,,,0
48741736409,"Tirax: Olamb",-15.98701,167.26154,8110,stand,stanap,stanap,,-tur,,,0
48741736409,"Tirax: Olamb",-15.98701,167.26154,8120,sit,sidaon,sidaon,,-at,,,0
48741736409,"Tirax: Olamb",-15.98701,167.26154,8130,fall,foldaon,foldaon,,i-soɸ,,,0
48741736409,"Tirax: Olamb",-15.98701,167.26154,8140,lie_down,ledaon,ledaon,,"-netur tuɣun",,,0
48741736409,"Tirax: Olamb",-15.98701,167.26154,8150,turn,tanem,tanem,,-rori,,,0
48741736409,"Tirax: Olamb",-15.98701,167.26154,8180,climb,klaem,klaem,,..,,,0
48741736409,"Tirax: Olamb",-15.98701,167.26154,8210,swim,swim,swim,,ᵐba-kar,,,0
48741736409,"Tirax: Olamb",-15.98701,167.26154,8220,fly_verb,flae,flae,,i-ɣaɣaⁿd,,,0
48741736409,"Tirax: Olamb",-15.98701,167.26154,8260,throw,sakemaot,sakemaot,,-sɛɣɛɣi,,,0
48741736409,"Tirax: Olamb",-15.98701,167.26154,8270,hide,haetem,haetem,,-tovuvoɣi,,,0
48741736409,"Tirax: Olamb",-15.98701,167.26154,8310,eat,kakae,kakae,,xə-wɛⁿdʳ,,,0
48741736409,"Tirax: Olamb",-15.98701,167.26154,8320,drink,drink,drink,,-nini,,,0
48741736409,"Tirax: Olamb",-15.98701,167.26154,8360,yawn,wantem_silip,wantem_silip,,..,,,0
48741736409,"Tirax: Olamb",-15.98701,167.26154,8370,spit,spet,spet,,xɪ-tⁿdi,,,0
48741736409,"Tirax: Olamb",-15.98701,167.26154,8400,dream,drim,drim,,"nɛtur ᵐborᵐbor",,,0
48741736409,"Tirax: Olamb",-15.98701,167.26154,8410,sleep,silip,silip,,ⁿda-netur,,,0
48741736409,"Tirax: Olamb",-15.98701,167.26154,8420,live,laev,laev,,i-seliv,,,0
48741736409,"Tirax: Olamb",-15.98701,167.26154,8430,die,ded,ded,,i-nɛʰ,,,0
48741736409,"Tirax: Olamb",-15.98701,167.26154,8440,kill,kilimded,kilimded,,-ruᵐdi-ni,,,0
48741736409,"Tirax: Olamb",-15.98701,167.26154,8510,see,luk,luk,,..,,,0
48741736409,"Tirax: Olamb",-15.98701,167.26154,8520,hear,harem,harem,,xo-roŋoi,,,0
48741736409,"Tirax: Olamb",-15.98701,167.26154,8540,sniff,smel,smel,,-vtin,,,0
48741736409,"Tirax: Olamb",-15.98701,167.26154,8580,laugh,laf,laf,,xɛ-vɣaur,,,0
48741736409,"Tirax: Olamb",-15.98701,167.26154,8590,cry,krae,krae,,xə-ŋar,,,0
48741736409,"Tirax: Olamb",-15.98701,167.26154,8670,blow,blo,blo,,i-hɛr,,,0
48741736409,"Tirax: Olamb",-15.98701,167.26154,8680,burn,bon,bon,,i-ɣan,,,0
48741736409,"Tirax: Olamb",-15.98701,167.26154,8740,sew,somap,somap,,-ⁿdʳur,,,0
48741736409,"Tirax: Olamb",-15.98701,167.26154,8800,pound,kilkilim,kilkilim,,-ruᵐbruᵐbi,,,0
48741736409,"Tirax: Olamb",-15.98701,167.26154,8810,hit,kilim,kilim,,-ruᵐbi,,,0
48741736409,"Tirax: Olamb",-15.98701,167.26154,8870,cut,katem,katem,,-tɛsi,,,0
48741736409,"Tirax: Olamb",-15.98701,167.26154,8880,split,spletem,spletem,,-ⁿdʳɛri,,,0
48741736409,"Tirax: Olamb",-15.98701,167.26154,8890,dig,digim,digim,,-xeli,,,0
48741736409,"Tirax: Olamb",-15.98701,167.26154,8920,hunt,kasem,kasem,,-ⁿdʳɛlⁿdʳɛl,,,0
48741736409,"Tirax: Olamb",-15.98701,167.26154,8930,hold,holem,holem,,xu-tuɣoni,,,0
48741736409,"Tirax: Olamb",-15.98701,167.26154,8950,fear,fraet,fraet,,xu-mtaɣit,,,0
48741736409,"Tirax: Olamb",-15.98701,167.26154,8960,count,kaontem,kaontem,,sɪᵐbeɣi,,,0
48741736409,"Tirax: Olamb",-15.98701,167.26154,8970,breathe,pulum_win,pulum_win,,xe-vɪn-laŋ,,,0
48741736409,"Tirax: Olamb",-15.98701,167.26154,9000,vomit,traot,traot,,xo-lulu,,,0
48741736409,"Tirax: Olamb",-15.98701,167.26154,9010,tie,fasem_taet,fasem_taet,,-misi,,,0
48741736409,"Tirax: Olamb",-15.98701,167.26154,9020,squeeze,skwisim,skwisim,,-ᵐbusi,,,0
48741736409,"Tirax: Olamb",-15.98701,167.26154,9030,swell,solap,solap,,..,,,0
48741736409,"Tirax: Olamb",-15.98701,167.26154,9040,say,talem,talem,,-vɛri,,,0
48741736409,"Tirax: Olamb",-15.98701,167.26154,9050,scratch,sikrasem,sikrasem,,-koskosi,,,0
48741736409,"Tirax: Olamb",-15.98701,167.26154,9060,stab,stikim,stikim,,-hɛri,,,0
48741736409,"Tirax: Olamb",-15.98701,167.26154,9120,buy,pem,pem,,-voliv,,,0
48741736409,"Tirax: Olamb",-15.98701,167.26154,9130,steal,stilim,stilim,,-vənaɣe,,,0
48741736409,"Tirax: Olamb",-15.98701,167.26154,9180,plant,planem,planem,,-lavi,,,0
48741736409,"Tirax: Olamb",-15.98701,167.26154,9220,cook,kuk,kuk,,-titin,,,0
48741736409,"Tirax: Olamb",-15.98701,167.26154,9400,shoot,shutum,shutum,,-vini,,,0
48741736409,"Tirax: Olamb",-15.98701,167.26154,9500,work,wok,wok,,-ⁿdah,,,0
48741736409,"Tirax: Olamb",-15.98701,167.26154,9620,open,openem,openem,,-wale,,,0
48741736509,"Tirax: Bakru",-16.00354,167.29696,8020,come,kam,kam,,-mɛ,,,0
48741736509,"Tirax: Bakru",-16.00354,167.29696,8030,walk,wokabaot,wokabaot,,-vial,,,0
48741736509,"Tirax: Bakru",-16.00354,167.29696,8110,stand,stanap,stanap,,ni-tur,,,0
48741736509,"Tirax: Bakru",-16.00354,167.29696,8120,sit,sidaon,sidaon,,ni-at,,,0
48741736509,"Tirax: Bakru",-16.00354,167.29696,8130,fall,foldaon,foldaon,,i-soɸ,,,0
48741736509,"Tirax: Bakru",-16.00354,167.29696,8140,lie_down,ledaon,ledaon,,..,,,0
48741736509,"Tirax: Bakru",-16.00354,167.29696,8150,turn,tanem,tanem,,-luⁿdʳori,,,0
48741736509,"Tirax: Bakru",-16.00354,167.29696,8180,climb,klaem,klaem,,..,,,0
48741736509,"Tirax: Bakru",-16.00354,167.29696,8210,swim,swim,swim,,..,,,0
48741736509,"Tirax: Bakru",-16.00354,167.29696,8220,fly_verb,flae,flae,,i-ɣaɣaⁿd,,,0
48741736509,"Tirax: Bakru",-16.00354,167.29696,8260,throw,sakemaot,sakemaot,,-sɛrɛɣe,,,0
48741736509,"Tirax: Bakru",-16.00354,167.29696,8270,hide,haetem,haetem,,-tohoɣi,,,0
48741736509,"Tirax: Bakru",-16.00354,167.29696,8310,eat,kakae,kakae,,nu-wɛⁿdʳ,,,0
48741736509,"Tirax: Bakru",-16.00354,167.29696,8320,drink,drink,drink,,-nin,,,0
48741736509,"Tirax: Bakru",-16.00354,167.29696,8360,yawn,wantem_silip,wantem_silip,,-məmaɸ,,,0
48741736509,"Tirax: Bakru",-16.00354,167.29696,8370,spit,spet,spet,,nɛ-tⁿti,,,0
48741736509,"Tirax: Bakru",-16.00354,167.29696,8400,dream,drim,drim,,"-netur ᵐborobor",,,0
48741736509,"Tirax: Bakru",-16.00354,167.29696,8410,sleep,silip,silip,,-netur,,,0
48741736509,"Tirax: Bakru",-16.00354,167.29696,8420,live,laev,laev,,..,,,0
48741736509,"Tirax: Bakru",-16.00354,167.29696,8430,die,ded,ded,,i-nɛʰ,,,0
48741736509,"Tirax: Bakru",-16.00354,167.29696,8440,kill,kilimded,kilimded,,nu-ruᵐbi-nɛʰ,,,0
48741736509,"Tirax: Bakru",-16.00354,167.29696,8510,see,luk,luk,,nə-lehi,,,0
48741736509,"Tirax: Bakru",-16.00354,167.29696,8520,hear,harem,harem,,no-roŋoi,,,0
48741736509,"Tirax: Bakru",-16.00354,167.29696,8540,sniff,smel,smel,,-vtin,,,0
48741736509,"Tirax: Bakru",-16.00354,167.29696,8580,laugh,laf,laf,,-fogaur,,,0
48741736509,"Tirax: Bakru",-16.00354,167.29696,8590,cry,krae,krae,,nɪ-ŋar,,,0
48741736509,"Tirax: Bakru",-16.00354,167.29696,8670,blow,blo,blo,,..,,,0
48741736509,"Tirax: Bakru",-16.00354,167.29696,8680,burn,bon,bon,,i-ɣan,,,0
48741736509,"Tirax: Bakru",-16.00354,167.29696,8740,sew,somap,somap,,..,,,0
48741736509,"Tirax: Bakru",-16.00354,167.29696,8800,pound,kilkilim,kilkilim,,nu-ruᵐbruᵐbi,,,0
48741736509,"Tirax: Bakru",-16.00354,167.29696,8810,hit,kilim,kilim,,nu-ruᵐbi,,,0
48741736509,"Tirax: Bakru",-16.00354,167.29696,8870,cut,katem,katem,,n-tɛsi,,,0
48741736509,"Tirax: Bakru",-16.00354,167.29696,8880,split,spletem,spletem,,..,,,0
48741736509,"Tirax: Bakru",-16.00354,167.29696,8890,dig,digim,digim,,..,,,0
48741736509,"Tirax: Bakru",-16.00354,167.29696,8920,hunt,kasem,kasem,,..,,,0
48741736509,"Tirax: Bakru",-16.00354,167.29696,8930,hold,holem,holem,,..,,,0
48741736509,"Tirax: Bakru",-16.00354,167.29696,8950,fear,fraet,fraet,,-mtaɣit,,,0
48741736509,"Tirax: Bakru",-16.00354,167.29696,8960,count,kaontem,kaontem,,sɪᵐbegi,,,0
48741736509,"Tirax: Bakru",-16.00354,167.29696,8970,breathe,pulum_win,pulum_win,,nɪ-vɪn-laŋ,,,0
48741736509,"Tirax: Bakru",-16.00354,167.29696,9000,vomit,traot,traot,,-lu,,,0
48741736509,"Tirax: Bakru",-16.00354,167.29696,9010,tie,fasem_taet,fasem_taet,,nɪ-miʃi,,,0
48741736509,"Tirax: Bakru",-16.00354,167.29696,9020,squeeze,skwisim,skwisim,,..,,,0
48741736509,"Tirax: Bakru",-16.00354,167.29696,9030,swell,solap,solap,,i-hol,,,0
48741736509,"Tirax: Bakru",-16.00354,167.29696,9040,say,talem,talem,,nɛ-vɛri,,,0
48741736509,"Tirax: Bakru",-16.00354,167.29696,9050,scratch,sikrasem,sikrasem,,n-koskosizi,,,0
48741736509,"Tirax: Bakru",-16.00354,167.29696,9060,stab,stikim,stikim,,..,,,0
48741736509,"Tirax: Bakru",-16.00354,167.29696,9120,buy,pem,pem,,nɪ-vorli,,,0
48741736509,"Tirax: Bakru",-16.00354,167.29696,9130,steal,stilim,stilim,,nɪ-vənaɣe,,,0
48741736509,"Tirax: Bakru",-16.00354,167.29696,9180,plant,planem,planem,,-lap,,,0
48741736509,"Tirax: Bakru",-16.00354,167.29696,9220,cook,kuk,kuk,,-titin,,,0
48741736509,"Tirax: Bakru",-16.00354,167.29696,9400,shoot,shutum,shutum,,ta-vini,,,0
48741736509,"Tirax: Bakru",-16.00354,167.29696,9500,work,wok,wok,,-ⁿdah,,,0
48741736509,"Tirax: Bakru",-16.00354,167.29696,9620,open,openem,openem,,nu-wale,,,0
48741737809,"Tirax: Orap",-15.97,167.34464,8020,come,kam,kam,,-mɛ,,,0
48741737809,"Tirax: Orap",-15.97,167.34464,8030,walk,wokabaot,wokabaot,,ho-vial,,,0
48741737809,"Tirax: Orap",-15.97,167.34464,8110,stand,stanap,stanap,,ho-tur,,,0
48741737809,"Tirax: Orap",-15.97,167.34464,8120,sit,sidaon,sidaon,,xa-at,,,0
48741737809,"Tirax: Orap",-15.97,167.34464,8130,fall,foldaon,foldaon,,i-soɸ,,,0
48741737809,"Tirax: Orap",-15.97,167.34464,8140,lie_down,ledaon,ledaon,,..,,,0
48741737809,"Tirax: Orap",-15.97,167.34464,8150,turn,tanem,tanem,,-tur,,,0
48741737809,"Tirax: Orap",-15.97,167.34464,8180,climb,klaem,klaem,,hi-hɛx,,,0
48741737809,"Tirax: Orap",-15.97,167.34464,8210,swim,swim,swim,,-huɸ,,,0
48741737809,"Tirax: Orap",-15.97,167.34464,8220,fly_verb,flae,flae,,-xaxaⁿd,,,0
48741737809,"Tirax: Orap",-15.97,167.34464,8260,throw,sakemaot,sakemaot,,-sɛrɛri,,,0
48741737809,"Tirax: Orap",-15.97,167.34464,8270,hide,haetem,haetem,,-tawɛɣi,,,0
48741737809,"Tirax: Orap",-15.97,167.34464,8310,eat,kakae,kakae,,ho-wɛⁿdʳ,,,0
48741737809,"Tirax: Orap",-15.97,167.34464,8320,drink,drink,drink,,hə-nini,,,0
48741737809,"Tirax: Orap",-15.97,167.34464,8360,yawn,wantem_silip,wantem_silip,,xa-mamaɸ,,,0
48741737809,"Tirax: Orap",-15.97,167.34464,8370,spit,spet,spet,,hə-tⁿdi,,,0
48741737809,"Tirax: Orap",-15.97,167.34464,8400,dream,drim,drim,,ᵐborbor,,,0
48741737809,"Tirax: Orap",-15.97,167.34464,8400,dream,drim,drim,,"ha-netur ᵐborbor",,,0
48741737809,"Tirax: Orap",-15.97,167.34464,8410,sleep,silip,silip,,ha-netur,,,0
48741737809,"Tirax: Orap",-15.97,167.34464,8420,live,laev,laev,,i-seliɸ,,,0
48741737809,"Tirax: Orap",-15.97,167.34464,8430,die,ded,ded,,i-nɛ,,,0
48741737809,"Tirax: Orap",-15.97,167.34464,8440,kill,kilimded,kilimded,,-ruⁿbi-ni,,,0
48741737809,"Tirax: Orap",-15.97,167.34464,8510,see,luk,luk,,..,,,0
48741737809,"Tirax: Orap",-15.97,167.34464,8520,hear,harem,harem,,ho-roŋɔ,,,0
48741737809,"Tirax: Orap",-15.97,167.34464,8540,sniff,smel,smel,,..,,,0
48741737809,"Tirax: Orap",-15.97,167.34464,8580,laugh,laf,laf,,xa-vɣaur,,,0
48741737809,"Tirax: Orap",-15.97,167.34464,8590,cry,krae,krae,,ha-ŋar,,,0
48741737809,"Tirax: Orap",-15.97,167.34464,8670,blow,blo,blo,,i-hir,,,0
48741737809,"Tirax: Orap",-15.97,167.34464,8680,burn,bon,bon,,..,,,0
48741737809,"Tirax: Orap",-15.97,167.34464,8740,sew,somap,somap,,-ⁿdʳuri,,,0
48741737809,"Tirax: Orap",-15.97,167.34464,8800,pound,kilkilim,kilkilim,,-ruᵐbruᵐbi,,,0
48741737809,"Tirax: Orap",-15.97,167.34464,8810,hit,kilim,kilim,,ruᵐbi,,,0
48741737809,"Tirax: Orap",-15.97,167.34464,8870,cut,katem,katem,,-tɛsi,,,0
48741737809,"Tirax: Orap",-15.97,167.34464,8880,split,spletem,spletem,,-ⁿdʳeri,,,0
48741737809,"Tirax: Orap",-15.97,167.34464,8890,dig,digim,digim,,-ɣili,,,0
48741737809,"Tirax: Orap",-15.97,167.34464,8920,hunt,kasem,kasem,,ⁿdʳɛlⁿdʳɛl,,,0
48741737809,"Tirax: Orap",-15.97,167.34464,8930,hold,holem,holem,,..,,,0
48741737809,"Tirax: Orap",-15.97,167.34464,8950,fear,fraet,fraet,,-mtaɣet,,,0
48741737809,"Tirax: Orap",-15.97,167.34464,8960,count,kaontem,kaontem,,ha-sᵐbeɣe,,,0
48741737809,"Tirax: Orap",-15.97,167.34464,8970,breathe,pulum_win,pulum_win,,ɣe-vɪn-laŋ,,,0
48741737809,"Tirax: Orap",-15.97,167.34464,9000,vomit,traot,traot,,ho-lu,,,0
48741737809,"Tirax: Orap",-15.97,167.34464,9010,tie,fasem_taet,fasem_taet,,-milsi,,,0
48741737809,"Tirax: Orap",-15.97,167.34464,9020,squeeze,skwisim,skwisim,,-ᵐbusi,,,0
48741737809,"Tirax: Orap",-15.97,167.34464,9030,swell,solap,solap,,-ᵐbur,,,0
48741737809,"Tirax: Orap",-15.97,167.34464,9040,say,talem,talem,,-vɛri,,,0
48741737809,"Tirax: Orap",-15.97,167.34464,9050,scratch,sikrasem,sikrasem,,-koskosi,,,0
48741737809,"Tirax: Orap",-15.97,167.34464,9060,stab,stikim,stikim,,-hɛri,,,0
48741737809,"Tirax: Orap",-15.97,167.34464,9120,buy,pem,pem,,-voli,,,0
48741737809,"Tirax: Orap",-15.97,167.34464,9130,steal,stilim,stilim,,-vnaɣe,,,0
48741737809,"Tirax: Orap",-15.97,167.34464,9180,plant,planem,planem,,-lavi,,,0
48741737809,"Tirax: Orap",-15.97,167.34464,9220,cook,kuk,kuk,,-titin,,,0
48741737809,"Tirax: Orap",-15.97,167.34464,9400,shoot,shutum,shutum,,-vini,,,0
48741737809,"Tirax: Orap",-15.97,167.34464,9500,work,wok,wok,,-ⁿdaha,,,0
48741737809,"Tirax: Orap",-15.97,167.34464,9620,open,openem,openem,,-vʷale,,,0
48741752709,"Atchin: Orap",-15.9156,167.30641,8020,come,kam,kam,,po-ma,,,0
48741752709,"Atchin: Orap",-15.9156,167.30641,8030,walk,wokabaot,wokabaot,,mi-viɛl,,,0
48741752709,"Atchin: Orap",-15.9156,167.30641,8110,stand,stanap,stanap,,mɪ-tur,,,0
48741752709,"Atchin: Orap",-15.9156,167.30641,8120,sit,sidaon,sidaon,,mɪ-lɪk,,,0
48741752709,"Atchin: Orap",-15.9156,167.30641,8130,fall,foldaon,foldaon,,po-ʧov,,,0
48741752709,"Atchin: Orap",-15.9156,167.30641,8130,fall,foldaon,foldaon,,"po-ʧov ɛtan",,,0
48741752709,"Atchin: Orap",-15.9156,167.30641,8140,lie_down,ledaon,ledaon,,..,,,0
48741752709,"Atchin: Orap",-15.9156,167.30641,8150,turn,tanem,tanem,,wo-rori,,,0
48741752709,"Atchin: Orap",-15.9156,167.30641,8180,climb,klaem,klaem,,mɛ-asa,,,0
48741752709,"Atchin: Orap",-15.9156,167.30641,8210,swim,swim,swim,,mi-loŋ,,,0
48741752709,"Atchin: Orap",-15.9156,167.30641,8220,fly_verb,flae,flae,,mu-ro,,,0
48741752709,"Atchin: Orap",-15.9156,167.30641,8260,throw,sakemaot,sakemaot,,po-vrɛni,,,0
48741752709,"Atchin: Orap",-15.9156,167.30641,8270,hide,haetem,haetem,,mɪ-silveni,,,0
48741752709,"Atchin: Orap",-15.9156,167.30641,8310,eat,kakae,kakae,,me-an,,,0
48741752709,"Atchin: Orap",-15.9156,167.30641,8320,drink,drink,drink,,mɪ-min,,,0
48741752709,"Atchin: Orap",-15.9156,167.30641,8320,drink,drink,drink,,"mɪ-min nua",,,0
48741752709,"Atchin: Orap",-15.9156,167.30641,8360,yawn,wantem_silip,wantem_silip,,mi-ɛnma,,,0
48741752709,"Atchin: Orap",-15.9156,167.30641,8370,spit,spet,spet,,mɪ-lutuß,,,0
48741752709,"Atchin: Orap",-15.9156,167.30641,8400,dream,drim,drim,,porvor,,,0
48741752709,"Atchin: Orap",-15.9156,167.30641,8400,dream,drim,drim,,"mɪ-matur porvor",,,0
48741752709,"Atchin: Orap",-15.9156,167.30641,8410,sleep,silip,silip,,mɪ-matur,,,0
48741752709,"Atchin: Orap",-15.9156,167.30641,8420,live,laev,laev,,-mɛur,,,0
48741752709,"Atchin: Orap",-15.9156,167.30641,8430,die,ded,ded,,-mat͡s,,,0
48741752709,"Atchin: Orap",-15.9156,167.30641,8440,kill,kilimded,kilimded,,"mɪ-rɛvʧi i-mat͡s",,,0
48741752709,"Atchin: Orap",-15.9156,167.30641,8510,see,luk,luk,,mi-lesi,,,0
48741752709,"Atchin: Orap",-15.9156,167.30641,8520,hear,harem,harem,,mɛ-roŋe,,,0
48741752709,"Atchin: Orap",-15.9156,167.30641,8540,sniff,smel,smel,,na-vʉn,,,0
48741752709,"Atchin: Orap",-15.9156,167.30641,8580,laugh,laf,laf,,mɛ-mɛn,,,0
48741752709,"Atchin: Orap",-15.9156,167.30641,8590,cry,krae,krae,,mɛ-taŋ,,,0
48741752709,"Atchin: Orap",-15.9156,167.30641,8670,blow,blo,blo,,-sɛr,,,0
48741752709,"Atchin: Orap",-15.9156,167.30641,8680,burn,bon,bon,,..,,,0
48741752709,"Atchin: Orap",-15.9156,167.30641,8740,sew,somap,somap,,mu-ruri,,,0
48741752709,"Atchin: Orap",-15.9156,167.30641,8800,pound,kilkilim,kilkilim,,po-rɛvrɛvʧi,,,0
48741752709,"Atchin: Orap",-15.9156,167.30641,8810,hit,kilim,kilim,,mɪ-rɛvʧi,,,0
48741752709,"Atchin: Orap",-15.9156,167.30641,8870,cut,katem,katem,,mʷi-te,,,0
48741752709,"Atchin: Orap",-15.9156,167.30641,8880,split,spletem,spletem,,mɪ-rereri,,,0
48741752709,"Atchin: Orap",-15.9156,167.30641,8890,dig,digim,digim,,po-veʧi,,,0
48741752709,"Atchin: Orap",-15.9156,167.30641,8920,hunt,kasem,kasem,,mɛore,,,0
48741752709,"Atchin: Orap",-15.9156,167.30641,8930,hold,holem,holem,,po-totoni,,,0
48741752709,"Atchin: Orap",-15.9156,167.30641,8950,fear,fraet,fraet,,mɪ-mata,,,0
48741752709,"Atchin: Orap",-15.9156,167.30641,8960,count,kaontem,kaontem,,-βɛβɛ,,,0
48741752709,"Atchin: Orap",-15.9156,167.30641,8970,breathe,pulum_win,pulum_win,,mɪ-vɪn-laŋ,,,0
48741752709,"Atchin: Orap",-15.9156,167.30641,9000,vomit,traot,traot,,mi-lulu,,,0
48741752709,"Atchin: Orap",-15.9156,167.30641,9010,tie,fasem_taet,fasem_taet,,mo-t͡sali,,,0
48741752709,"Atchin: Orap",-15.9156,167.30641,9020,squeeze,skwisim,skwisim,,po-wisi,,,0
48741752709,"Atchin: Orap",-15.9156,167.30641,9030,swell,solap,solap,,-ᵐbɛᵐbur,,,0
48741752709,"Atchin: Orap",-15.9156,167.30641,9040,say,talem,talem,,mi-wure,,,0
48741752709,"Atchin: Orap",-15.9156,167.30641,9050,scratch,sikrasem,sikrasem,,-wowoi,,,0
48741752709,"Atchin: Orap",-15.9156,167.30641,9060,stab,stikim,stikim,,ʧuʧi,,,0
48741752709,"Atchin: Orap",-15.9156,167.30641,9120,buy,pem,pem,,po-wuli,,,0
48741752709,"Atchin: Orap",-15.9156,167.30641,9130,steal,stilim,stilim,,mɪ-vanai,,,0
48741752709,"Atchin: Orap",-15.9156,167.30641,9180,plant,planem,planem,,mi-ruʰ,,,0
48741752709,"Atchin: Orap",-15.9156,167.30641,9220,cook,kuk,kuk,,mɛ-taβu,,,0
48741752709,"Atchin: Orap",-15.9156,167.30641,9400,shoot,shutum,shutum,,mi-lue,,,0
48741752709,"Atchin: Orap",-15.9156,167.30641,9500,work,wok,wok,,mɛ-mat͡sɪŋ,,,0
48741752709,"Atchin: Orap",-15.9156,167.30641,9620,open,openem,openem,,po-viɛ,,,0
48741752809,"Atchin: Small Island",-15.9439,167.33993,8020,come,kam,kam,,-ma,,,0
48741752809,"Atchin: Small Island",-15.9439,167.33993,8030,walk,wokabaot,wokabaot,,-viɛl,,,0
48741752809,"Atchin: Small Island",-15.9439,167.33993,8110,stand,stanap,stanap,,tur-ɛn,,,0
48741752809,"Atchin: Small Island",-15.9439,167.33993,8120,sit,sidaon,sidaon,,lek-ɛn,,,0
48741752809,"Atchin: Small Island",-15.9439,167.33993,8130,fall,foldaon,foldaon,,-ʧoβ,,,0
48741752809,"Atchin: Small Island",-15.9439,167.33993,8140,lie_down,ledaon,ledaon,,..,,,0
48741752809,"Atchin: Small Island",-15.9439,167.33993,8150,turn,tanem,tanem,,-rori,,,0
48741752809,"Atchin: Small Island",-15.9439,167.33993,8180,climb,klaem,klaem,,-sa,,,0
48741752809,"Atchin: Small Island",-15.9439,167.33993,8210,swim,swim,swim,,-loŋ,,,0
48741752809,"Atchin: Small Island",-15.9439,167.33993,8220,fly_verb,flae,flae,,roɛn,,,0
48741752809,"Atchin: Small Island",-15.9439,167.33993,8260,throw,sakemaot,sakemaot,,..,,,0
48741752809,"Atchin: Small Island",-15.9439,167.33993,8270,hide,haetem,haetem,,-silveni,,,0
48741752809,"Atchin: Small Island",-15.9439,167.33993,8310,eat,kakae,kakae,,an-ɛn,,,0
48741752809,"Atchin: Small Island",-15.9439,167.33993,8320,drink,drink,drink,,minmin-ɛn,,,0
48741752809,"Atchin: Small Island",-15.9439,167.33993,8360,yawn,wantem_silip,wantem_silip,,..,,,0
48741752809,"Atchin: Small Island",-15.9439,167.33993,8370,spit,spet,spet,,mɪ-lutʉß,,,0
48741752809,"Atchin: Small Island",-15.9439,167.33993,8400,dream,drim,drim,,porpor-ɛn,,,0
48741752809,"Atchin: Small Island",-15.9439,167.33993,8410,sleep,silip,silip,,matur-ɛn,,,0
48741752809,"Atchin: Small Island",-15.9439,167.33993,8420,live,laev,laev,,nɛur-ɛn,,,0
48741752809,"Atchin: Small Island",-15.9439,167.33993,8430,die,ded,ded,,maʧ-ɛn,,,0
48741752809,"Atchin: Small Island",-15.9439,167.33993,8440,kill,kilimded,kilimded,,-rɛvʧi-pɪni,,,0
48741752809,"Atchin: Small Island",-15.9439,167.33993,8510,see,luk,luk,,..,,,0
48741752809,"Atchin: Small Island",-15.9439,167.33993,8520,hear,harem,harem,,-roŋe,,,0
48741752809,"Atchin: Small Island",-15.9439,167.33993,8540,sniff,smel,smel,,..,,,0
48741752809,"Atchin: Small Island",-15.9439,167.33993,8580,laugh,laf,laf,,mɪ-mɛn,,,0
48741752809,"Atchin: Small Island",-15.9439,167.33993,8590,cry,krae,krae,,mɪ-ⁿtaŋ,,,0
48741752809,"Atchin: Small Island",-15.9439,167.33993,8670,blow,blo,blo,,-siɾsiɾi,,,0
48741752809,"Atchin: Small Island",-15.9439,167.33993,8680,burn,bon,bon,,mʷi-an,,,0
48741752809,"Atchin: Small Island",-15.9439,167.33993,8740,sew,somap,somap,,-ruri,,,0
48741752809,"Atchin: Small Island",-15.9439,167.33993,8800,pound,kilkilim,kilkilim,,..,,,0
48741752809,"Atchin: Small Island",-15.9439,167.33993,8810,hit,kilim,kilim,,-rɛvʧi,,,0
48741752809,"Atchin: Small Island",-15.9439,167.33993,8870,cut,katem,katem,,..,,,0
48741752809,"Atchin: Small Island",-15.9439,167.33993,8880,split,spletem,spletem,,-reri,,,0
48741752809,"Atchin: Small Island",-15.9439,167.33993,8890,dig,digim,digim,,vet͡svet͡si-ɛn,,,0
48741752809,"Atchin: Small Island",-15.9439,167.33993,8920,hunt,kasem,kasem,,oror-ɛn,,,0
48741752809,"Atchin: Small Island",-15.9439,167.33993,8930,hold,holem,holem,,-totoni,,,0
48741752809,"Atchin: Small Island",-15.9439,167.33993,8950,fear,fraet,fraet,,-mata-ɛn,,,0
48741752809,"Atchin: Small Island",-15.9439,167.33993,8960,count,kaontem,kaontem,,-βɛβɛ,,,0
48741752809,"Atchin: Small Island",-15.9439,167.33993,8970,breathe,pulum_win,pulum_win,,-vɛɪⁿd-laŋ,,,0
48741752809,"Atchin: Small Island",-15.9439,167.33993,9000,vomit,traot,traot,,mɪ-lulu,,,0
48741752809,"Atchin: Small Island",-15.9439,167.33993,9010,tie,fasem_taet,fasem_taet,,-ʧali,,,0
48741752809,"Atchin: Small Island",-15.9439,167.33993,9020,squeeze,skwisim,skwisim,,-wisi,,,0
48741752809,"Atchin: Small Island",-15.9439,167.33993,9030,swell,solap,solap,,-ᵐbur,,,0
48741752809,"Atchin: Small Island",-15.9439,167.33993,9040,say,talem,talem,,-wure,,,0
48741752809,"Atchin: Small Island",-15.9439,167.33993,9050,scratch,sikrasem,sikrasem,,-wowoi,,,0
48741752809,"Atchin: Small Island",-15.9439,167.33993,9060,stab,stikim,stikim,,-ʧuʧi,,,0
48741752809,"Atchin: Small Island",-15.9439,167.33993,9120,buy,pem,pem,,wulwul-ɛn,,,0
48741752809,"Atchin: Small Island",-15.9439,167.33993,9130,steal,stilim,stilim,,vanua-ɛn,,,0
48741752809,"Atchin: Small Island",-15.9439,167.33993,9180,plant,planem,planem,,ru-ɛn,,,0
48741752809,"Atchin: Small Island",-15.9439,167.33993,9220,cook,kuk,kuk,,tapu-ɛn,,,0
48741752809,"Atchin: Small Island",-15.9439,167.33993,9400,shoot,shutum,shutum,,-liwe,,,0
48741752809,"Atchin: Small Island",-15.9439,167.33993,9500,work,wok,wok,,maʧiŋ-ɛn,,,0
48741752809,"Atchin: Small Island",-15.9439,167.33993,9620,open,openem,openem,,-viɛ,,,0
48741754509,"Wala: Botku",-15.96841,167.29246,8020,come,kam,kam,,..,,,0
48741754509,"Wala: Botku",-15.96841,167.29246,8030,walk,wokabaot,wokabaot,,-mɛl,,,0
48741754509,"Wala: Botku",-15.96841,167.29246,8110,stand,stanap,stanap,,mo-tur,,,0
48741754509,"Wala: Botku",-15.96841,167.29246,8120,sit,sidaon,sidaon,,mɛ-lɪk,,,0
48741754509,"Wala: Botku",-15.96841,167.29246,8130,fall,foldaon,foldaon,,mʷɪ-ʧʉ,,,0
48741754509,"Wala: Botku",-15.96841,167.29246,8140,lie_down,ledaon,ledaon,,..,,,0
48741754509,"Wala: Botku",-15.96841,167.29246,8150,turn,tanem,tanem,,..,,,0
48741754509,"Wala: Botku",-15.96841,167.29246,8180,climb,klaem,klaem,,mə-sa,,,0
48741754509,"Wala: Botku",-15.96841,167.29246,8210,swim,swim,swim,,mɛ-loŋ,,,0
48741754509,"Wala: Botku",-15.96841,167.29246,8220,fly_verb,flae,flae,,mu-ro,,,0
48741754509,"Wala: Botku",-15.96841,167.29246,8260,throw,sakemaot,sakemaot,,..,,,0
48741754509,"Wala: Botku",-15.96841,167.29246,8270,hide,haetem,haetem,,me-silβani,,,0
48741754509,"Wala: Botku",-15.96841,167.29246,8310,eat,kakae,kakae,,ma-in,,,0
48741754509,"Wala: Botku",-15.96841,167.29246,8320,drink,drink,drink,,me-mini,,,0
48741754509,"Wala: Botku",-15.96841,167.29246,8360,yawn,wantem_silip,wantem_silip,,mɛ-nɪma,,,0
48741754509,"Wala: Botku",-15.96841,167.29246,8370,spit,spet,spet,,mɛ-ltʉβ,,,0
48741754509,"Wala: Botku",-15.96841,167.29246,8400,dream,drim,drim,,porpor,,,0
48741754509,"Wala: Botku",-15.96841,167.29246,8400,dream,drim,drim,,"na-matur-ɛn porpor",,,0
48741754509,"Wala: Botku",-15.96841,167.29246,8410,sleep,silip,silip,,nima-matur,,,0
48741754509,"Wala: Botku",-15.96841,167.29246,8420,live,laev,laev,,mi-maur,,,0
48741754509,"Wala: Botku",-15.96841,167.29246,8430,die,ded,ded,,mi-mit͡s,,,0
48741754509,"Wala: Botku",-15.96841,167.29246,8440,kill,kilimded,kilimded,,ma-rɛt͡s-pini,,,0
48741754509,"Wala: Botku",-15.96841,167.29246,8510,see,luk,luk,,nɪma-lesi,,,0
48741754509,"Wala: Botku",-15.96841,167.29246,8520,hear,harem,harem,,m-ore,,,0
48741754509,"Wala: Botku",-15.96841,167.29246,8540,sniff,smel,smel,,mɪ-tɛk,,,0
48741754509,"Wala: Botku",-15.96841,167.29246,8580,laugh,laf,laf,,mɪ-mɛn,,,0
48741754509,"Wala: Botku",-15.96841,167.29246,8590,cry,krae,krae,,mɛ-tiŋ,,,0
48741754509,"Wala: Botku",-15.96841,167.29246,8670,blow,blo,blo,,-sɛr,,,0
48741754509,"Wala: Botku",-15.96841,167.29246,8680,burn,bon,bon,,m-in,,,0
48741754509,"Wala: Botku",-15.96841,167.29246,8740,sew,somap,somap,,mo-rli,,,0
48741754509,"Wala: Botku",-15.96841,167.29246,8800,pound,kilkilim,kilkilim,,ma-rɛʧarɛʧi,,,0
48741754509,"Wala: Botku",-15.96841,167.29246,8810,hit,kilim,kilim,,ma-rɛʧi,,,0
48741754509,"Wala: Botku",-15.96841,167.29246,8870,cut,katem,katem,,nɪma-tai,,,0
48741754509,"Wala: Botku",-15.96841,167.29246,8880,split,spletem,spletem,,..,,,0
48741754509,"Wala: Botku",-15.96841,167.29246,8890,dig,digim,digim,,..,,,0
48741754509,"Wala: Botku",-15.96841,167.29246,8920,hunt,kasem,kasem,,..,,,0
48741754509,"Wala: Botku",-15.96841,167.29246,8930,hold,holem,holem,,mo-tortoni,,,0
48741754509,"Wala: Botku",-15.96841,167.29246,8950,fear,fraet,fraet,,nɛ-mɪto-ɛn,,,0
48741754509,"Wala: Botku",-15.96841,167.29246,8960,count,kaontem,kaontem,,nɪmɛ-βe,,,0
48741754509,"Wala: Botku",-15.96841,167.29246,8970,breathe,pulum_win,pulum_win,,mɪ-veliŋ,,,0
48741754509,"Wala: Botku",-15.96841,167.29246,9000,vomit,traot,traot,,mo-lu,,,0
48741754509,"Wala: Botku",-15.96841,167.29246,9010,tie,fasem_taet,fasem_taet,,mɛ-mɛlʧi,,,0
48741754509,"Wala: Botku",-15.96841,167.29246,9020,squeeze,skwisim,skwisim,,nɪmo-βusi,,,0
48741754509,"Wala: Botku",-15.96841,167.29246,9030,swell,solap,solap,,mu-sol,,,0
48741754509,"Wala: Botku",-15.96841,167.29246,9040,say,talem,talem,,nɪmo-βorai,,,0
48741754509,"Wala: Botku",-15.96841,167.29246,9050,scratch,sikrasem,sikrasem,,nɪmo-rsi,,,0
48741754509,"Wala: Botku",-15.96841,167.29246,9060,stab,stikim,stikim,,..,,,0
48741754509,"Wala: Botku",-15.96841,167.29246,9120,buy,pem,pem,,mo-wuli,,,0
48741754509,"Wala: Botku",-15.96841,167.29246,9130,steal,stilim,stilim,,ma-vanai,,,0
48741754509,"Wala: Botku",-15.96841,167.29246,9180,plant,planem,planem,,mo-ruwi,,,0
48741754509,"Wala: Botku",-15.96841,167.29246,9220,cook,kuk,kuk,,na-tapu-ɛn,,,0
48741754509,"Wala: Botku",-15.96841,167.29246,9400,shoot,shutum,shutum,,nɪmɛ-lue,,,0
48741754509,"Wala: Botku",-15.96841,167.29246,9500,work,wok,wok,,..,,,0
48741754509,"Wala: Botku",-15.96841,167.29246,9620,open,openem,openem,,mɛ-βɛ,,,0
48741754709,"Wala: Worprev",-15.97775,167.37656,8020,come,kam,kam,,usə--ᵐbʷɛl,,,0
48741754709,"Wala: Worprev",-15.97775,167.37656,8030,walk,wokabaot,wokabaot,,sɪ-ᵐbulau,,,0
48741754709,"Wala: Worprev",-15.97775,167.37656,8110,stand,stanap,stanap,,asɪⁿdi-treŋk,,,0
48741754709,"Wala: Worprev",-15.97775,167.37656,8120,sit,sidaon,sidaon,,-suᵐbəsuᵐb,,,0
48741754709,"Wala: Worprev",-15.97775,167.37656,8130,fall,foldaon,foldaon,,-polɣai,,,0
48741754709,"Wala: Worprev",-15.97775,167.37656,8140,lie_down,ledaon,ledaon,,"-pas ⁿdau",,,0
48741754709,"Wala: Worprev",-15.97775,167.37656,8150,turn,tanem,tanem,,at-ᵐbeɣɪs,,,0
48741754709,"Wala: Worprev",-15.97775,167.37656,8180,climb,klaem,klaem,,sɪ-sax,,,0
48741754709,"Wala: Worprev",-15.97775,167.37656,8210,swim,swim,swim,,-susux,,,0
48741754709,"Wala: Worprev",-15.97775,167.37656,8220,fly_verb,flae,flae,,ni-vemp,,,0
48741754709,"Wala: Worprev",-15.97775,167.37656,8260,throw,sakemaot,sakemaot,,-ⁿdɪtu,,,0
48741754709,"Wala: Worprev",-15.97775,167.37656,8270,hide,haetem,haetem,,u-suax,,,0
48741754709,"Wala: Worprev",-15.97775,167.37656,8310,eat,kakae,kakae,,ma-in,,,0
48741754709,"Wala: Worprev",-15.97775,167.37656,8320,drink,drink,drink,,asu-mun,,,0
48741754709,"Wala: Worprev",-15.97775,167.37656,8360,yawn,wantem_silip,wantem_silip,,-momoial,,,0
48741754709,"Wala: Worprev",-15.97775,167.37656,8370,spit,spet,spet,,-ltʉ,,,0
48741754709,"Wala: Worprev",-15.97775,167.37656,8400,dream,drim,drim,,nɪ-ᵐbʷɛre,,,0
48741754709,"Wala: Worprev",-15.97775,167.37656,8410,sleep,silip,silip,,-pas,,,0
48741754709,"Wala: Worprev",-15.97775,167.37656,8420,live,laev,laev,,i-mauor,,,0
48741754709,"Wala: Worprev",-15.97775,167.37656,8430,die,ded,ded,,i-mæs,,,0
48741754709,"Wala: Worprev",-15.97775,167.37656,8440,kill,kilimded,kilimded,,"asɪ-ᵐbur isisa-mas",,,0
48741754709,"Wala: Worprev",-15.97775,167.37656,8510,see,luk,luk,,nɪsɪ-læs,,,0
48741754709,"Wala: Worprev",-15.97775,167.37656,8520,hear,harem,harem,,asɪ-ⁿdʳoŋ,,,0
48741754709,"Wala: Worprev",-15.97775,167.37656,8540,sniff,smel,smel,,nɪ-mbo-n,,,0
48741754709,"Wala: Worprev",-15.97775,167.37656,8580,laugh,laf,laf,,nɪ-vɪŋar,,,0
48741754709,"Wala: Worprev",-15.97775,167.37656,8590,cry,krae,krae,,sɪŋan-ɣan,,,0
48741754709,"Wala: Worprev",-15.97775,167.37656,8670,blow,blo,blo,,i-uvuv,,,0
48741754709,"Wala: Worprev",-15.97775,167.37656,8680,burn,bon,bon,,i-paŋ,,,0
48741754709,"Wala: Worprev",-15.97775,167.37656,8740,sew,somap,somap,,asɪ-ⁿdur,,,0
48741754709,"Wala: Worprev",-15.97775,167.37656,8800,pound,kilkilim,kilkilim,,-ⁿdiɣtɪx,,,0
48741754709,"Wala: Worprev",-15.97775,167.37656,8810,hit,kilim,kilim,,-rɛt͡si,,,0
48741754709,"Wala: Worprev",-15.97775,167.37656,8870,cut,katem,katem,,asɪ-ⁿdi,,,0
48741754709,"Wala: Worprev",-15.97775,167.37656,8880,split,spletem,spletem,,atna-ⁿdarpor,,,0
48741754709,"Wala: Worprev",-15.97775,167.37656,8890,dig,digim,digim,,-ᵑgil,,,0
48741754709,"Wala: Worprev",-15.97775,167.37656,8920,hunt,kasem,kasem,,atɪ-kao,,,0
48741754709,"Wala: Worprev",-15.97775,167.37656,8930,hold,holem,holem,,isɪ-ᵐʙurvur,,,0
48741754709,"Wala: Worprev",-15.97775,167.37656,8950,fear,fraet,fraet,,mɪtaxajɛn,,,0
48741754709,"Wala: Worprev",-15.97775,167.37656,8960,count,kaontem,kaontem,,atma-ᵐbuliŋk,,,0
48741754709,"Wala: Worprev",-15.97775,167.37656,8970,breathe,pulum_win,pulum_win,,-niŋar,,,0
48741754709,"Wala: Worprev",-15.97775,167.37656,9000,vomit,traot,traot,,si-lu,,,0
48741754709,"Wala: Worprev",-15.97775,167.37656,9010,tie,fasem_taet,fasem_taet,,asɪ-ŋaun,,,0
48741754709,"Wala: Worprev",-15.97775,167.37656,9020,squeeze,skwisim,skwisim,,sɪ-si,,,0
48741754709,"Wala: Worprev",-15.97775,167.37656,9030,swell,solap,solap,,iⁿdi-timb,,,0
48741754709,"Wala: Worprev",-15.97775,167.37656,9040,say,talem,talem,,usu-suɣun,,,0
48741754709,"Wala: Worprev",-15.97775,167.37656,9050,scratch,sikrasem,sikrasem,,asɪ-ᵑgaras,,,0
48741754709,"Wala: Worprev",-15.97775,167.37656,9060,stab,stikim,stikim,,-orᵐʙun,,,0
48741754709,"Wala: Worprev",-15.97775,167.37656,9120,buy,pem,pem,,-ʙul,,,0
48741754709,"Wala: Worprev",-15.97775,167.37656,9130,steal,stilim,stilim,,atɪ-ᵐbɪnɛx,,,0
48741754709,"Wala: Worprev",-15.97775,167.37656,9180,plant,planem,planem,,-kor,,,0
48741754709,"Wala: Worprev",-15.97775,167.37656,9220,cook,kuk,kuk,,atnɛ-ᵐʙusoŋk,,,0
48741754709,"Wala: Worprev",-15.97775,167.37656,9400,shoot,shutum,shutum,,asɪ-ⁿdur,,,0
48741754709,"Wala: Worprev",-15.97775,167.37656,9500,work,wok,wok,,ɛ-rax,,,0
48741754709,"Wala: Worprev",-15.97775,167.37656,9620,open,openem,openem,,-sɪsɪvæn,,,0
48741754809,"Wala: Petreros",-15.97544,167.37627,8020,come,kam,kam,,kue-me,,,0
48741754809,"Wala: Petreros",-15.97544,167.37627,8030,walk,wokabaot,wokabaot,,ku-wɛl,,,0
48741754809,"Wala: Petreros",-15.97544,167.37627,8110,stand,stanap,stanap,,kumo-tuɾ,,,0
48741754809,"Wala: Petreros",-15.97544,167.37627,8120,sit,sidaon,sidaon,,kume-lik,,,0
48741754809,"Wala: Petreros",-15.97544,167.37627,8130,fall,foldaon,foldaon,,,,,0
48741754809,"Wala: Petreros",-15.97544,167.37627,8140,lie_down,ledaon,ledaon,,..,,,0
48741754809,"Wala: Petreros",-15.97544,167.37627,8150,turn,tanem,tanem,,ku-rori,,,0
48741754809,"Wala: Petreros",-15.97544,167.37627,8180,climb,klaem,klaem,,kumə-za,,,0
48741754809,"Wala: Petreros",-15.97544,167.37627,8210,swim,swim,swim,,kue-loŋ,,,0
48741754809,"Wala: Petreros",-15.97544,167.37627,8220,fly_verb,flae,flae,,mu-ro,,,0
48741754809,"Wala: Petreros",-15.97544,167.37627,8260,throw,sakemaot,sakemaot,,kumi-weʧi,,,0
48741754809,"Wala: Petreros",-15.97544,167.37627,8270,hide,haetem,haetem,,kume-silvani,,,0
48741754809,"Wala: Petreros",-15.97544,167.37627,8310,eat,kakae,kakae,,ma-in,,,0
48741754809,"Wala: Petreros",-15.97544,167.37627,8320,drink,drink,drink,,kumɛ-mini,,,0
48741754809,"Wala: Petreros",-15.97544,167.37627,8360,yawn,wantem_silip,wantem_silip,,kume-nɪma,,,0
48741754809,"Wala: Petreros",-15.97544,167.37627,8370,spit,spet,spet,,kumɛ-dʉ,,,0
48741754809,"Wala: Petreros",-15.97544,167.37627,8400,dream,drim,drim,,-ᵐburi,,,0
48741754809,"Wala: Petreros",-15.97544,167.37627,8410,sleep,silip,silip,,ku-matuɾ,,,0
48741754809,"Wala: Petreros",-15.97544,167.37627,8420,live,laev,laev,,mi-mauro,,,0
48741754809,"Wala: Petreros",-15.97544,167.37627,8430,die,ded,ded,,mi-mɪt͡s,,,0
48741754809,"Wala: Petreros",-15.97544,167.37627,8440,kill,kilimded,kilimded,,mʷi-rɛt͡s-vini,,,0
48741754809,"Wala: Petreros",-15.97544,167.37627,8510,see,luk,luk,,..,,,0
48741754809,"Wala: Petreros",-15.97544,167.37627,8520,hear,harem,harem,,kum-ore,,,0
48741754809,"Wala: Petreros",-15.97544,167.37627,8540,sniff,smel,smel,,me-tɛn,,,0
48741754809,"Wala: Petreros",-15.97544,167.37627,8580,laugh,laf,laf,,ku-mɛn,,,0
48741754809,"Wala: Petreros",-15.97544,167.37627,8590,cry,krae,krae,,mɛ-tiŋ,,,0
48741754809,"Wala: Petreros",-15.97544,167.37627,8670,blow,blo,blo,,mi-rivriv,,,0
48741754809,"Wala: Petreros",-15.97544,167.37627,8680,burn,bon,bon,,..,,,0
48741754809,"Wala: Petreros",-15.97544,167.37627,8740,sew,somap,somap,,mo-riri,,,0
48741754809,"Wala: Petreros",-15.97544,167.37627,8800,pound,kilkilim,kilkilim,,kuma-raʧaraʧi,,,0
48741754809,"Wala: Petreros",-15.97544,167.37627,8810,hit,kilim,kilim,,mʷi-rɛʧi,,,0
48741754809,"Wala: Petreros",-15.97544,167.37627,8870,cut,katem,katem,,mi-tai,,,0
48741754809,"Wala: Petreros",-15.97544,167.37627,8880,split,spletem,spletem,,mi-rɛriri,,,0
48741754809,"Wala: Petreros",-15.97544,167.37627,8890,dig,digim,digim,,..,,,0
48741754809,"Wala: Petreros",-15.97544,167.37627,8920,hunt,kasem,kasem,,..,,,0
48741754809,"Wala: Petreros",-15.97544,167.37627,8930,hold,holem,holem,,mu-tartotoni,,,0
48741754809,"Wala: Petreros",-15.97544,167.37627,8950,fear,fraet,fraet,,nɪ-mɪtoh,,,0
48741754809,"Wala: Petreros",-15.97544,167.37627,8960,count,kaontem,kaontem,,kuwɛ-ve,,,0
48741754809,"Wala: Petreros",-15.97544,167.37627,8970,breathe,pulum_win,pulum_win,,nɪ-maᵐbus,,,0
48741754809,"Wala: Petreros",-15.97544,167.37627,9000,vomit,traot,traot,,kumo-lu,,,0
48741754809,"Wala: Petreros",-15.97544,167.37627,9010,tie,fasem_taet,fasem_taet,,ku-mʷɛlt͡si,,,0
48741754809,"Wala: Petreros",-15.97544,167.37627,9020,squeeze,skwisim,skwisim,,..,,,0
48741754809,"Wala: Petreros",-15.97544,167.37627,9030,swell,solap,solap,,mu-solɔ,,,0
48741754809,"Wala: Petreros",-15.97544,167.37627,9040,say,talem,talem,,ku-worai,,,0
48741754809,"Wala: Petreros",-15.97544,167.37627,9050,scratch,sikrasem,sikrasem,,mo-rsi,,,0
48741754809,"Wala: Petreros",-15.97544,167.37627,9060,stab,stikim,stikim,,mu-ʧuʧi,,,0
48741754809,"Wala: Petreros",-15.97544,167.37627,9120,buy,pem,pem,,kumo-wuli,,,0
48741754809,"Wala: Petreros",-15.97544,167.37627,9130,steal,stilim,stilim,,kuma-vana,,,0
48741754809,"Wala: Petreros",-15.97544,167.37627,9180,plant,planem,planem,,mo-ruwi,,,0
48741754809,"Wala: Petreros",-15.97544,167.37627,9220,cook,kuk,kuk,,koma-taβu,,,0
48741754809,"Wala: Petreros",-15.97544,167.37627,9400,shoot,shutum,shutum,,mʷi-loe,,,0
48741754809,"Wala: Petreros",-15.97544,167.37627,9500,work,wok,wok,,mi-maʧiŋ,,,0
48741754809,"Wala: Petreros",-15.97544,167.37627,9620,open,openem,openem,,kuma-raʧi,,,0
48741754909,"Wala: Preng",-15.97342,167.37627,8020,come,kam,kam,,ᵐbe-me,,,0
48741754909,"Wala: Preng",-15.97342,167.37627,8030,walk,wokabaot,wokabaot,,-mɛl,,,0
48741754909,"Wala: Preng",-15.97342,167.37627,8110,stand,stanap,stanap,,mo-tur,,,0
48741754909,"Wala: Preng",-15.97342,167.37627,8120,sit,sidaon,sidaon,,mɪ-lek,,,0
48741754909,"Wala: Preng",-15.97342,167.37627,8130,fall,foldaon,foldaon,,mi-ʧʉ,,,0
48741754909,"Wala: Preng",-15.97342,167.37627,8140,lie_down,ledaon,ledaon,,..,,,0
48741754909,"Wala: Preng",-15.97342,167.37627,8150,turn,tanem,tanem,,po-rori,,,0
48741754909,"Wala: Preng",-15.97342,167.37627,8180,climb,klaem,klaem,,mi-sa,,,0
48741754909,"Wala: Preng",-15.97342,167.37627,8210,swim,swim,swim,,me-loŋ,,,0
48741754909,"Wala: Preng",-15.97342,167.37627,8220,fly_verb,flae,flae,,mu-ro,,,0
48741754909,"Wala: Preng",-15.97342,167.37627,8260,throw,sakemaot,sakemaot,,mo-wɪʧeni,,,0
48741754909,"Wala: Preng",-15.97342,167.37627,8270,hide,haetem,haetem,,me-seluani,,,0
48741754909,"Wala: Preng",-15.97342,167.37627,8310,eat,kakae,kakae,,ma-in,,,0
48741754909,"Wala: Preng",-15.97342,167.37627,8320,drink,drink,drink,,mɛ-mɪni,,,0
48741754909,"Wala: Preng",-15.97342,167.37627,8360,yawn,wantem_silip,wantem_silip,,mɛ-nɪma,,,0
48741754909,"Wala: Preng",-15.97342,167.37627,8370,spit,spet,spet,,mɛ-ltʉ,,,0
48741754909,"Wala: Preng",-15.97342,167.37627,8400,dream,drim,drim,,porporo,,,0
48741754909,"Wala: Preng",-15.97342,167.37627,8400,dream,drim,drim,,"-matur porporo",,,0
48741754909,"Wala: Preng",-15.97342,167.37627,8410,sleep,silip,silip,,-matur,,,0
48741754909,"Wala: Preng",-15.97342,167.37627,8420,live,laev,laev,,mi-mauru,,,0
48741754909,"Wala: Preng",-15.97342,167.37627,8430,die,ded,ded,,mi-mɪʧ,,,0
48741754909,"Wala: Preng",-15.97342,167.37627,8440,kill,kilimded,kilimded,,mɛ-rɛʧ-bini,,,0
48741754909,"Wala: Preng",-15.97342,167.37627,8510,see,luk,luk,,mɪ-lesi,,,0
48741754909,"Wala: Preng",-15.97342,167.37627,8520,hear,harem,harem,,m-ore,,,0
48741754909,"Wala: Preng",-15.97342,167.37627,8540,sniff,smel,smel,,mɛ-tɛn,,,0
48741754909,"Wala: Preng",-15.97342,167.37627,8580,laugh,laf,laf,,hɪ-mɛn,,,0
48741754909,"Wala: Preng",-15.97342,167.37627,8590,cry,krae,krae,,mə-tiŋ,,,0
48741754909,"Wala: Preng",-15.97342,167.37627,8670,blow,blo,blo,,mi-sɛɾe,,,0
48741754909,"Wala: Preng",-15.97342,167.37627,8680,burn,bon,bon,,m-in,,,0
48741754909,"Wala: Preng",-15.97342,167.37627,8740,sew,somap,somap,,mo-rli,,,0
48741754909,"Wala: Preng",-15.97342,167.37627,8800,pound,kilkilim,kilkilim,,mə-rɛʧarɛʧi,,,0
48741754909,"Wala: Preng",-15.97342,167.37627,8810,hit,kilim,kilim,,mɛ-rɛʧi,,,0
48741754909,"Wala: Preng",-15.97342,167.37627,8870,cut,katem,katem,,ma-tai,,,0
48741754909,"Wala: Preng",-15.97342,167.37627,8880,split,spletem,spletem,,mə-taxwari,,,0
48741754909,"Wala: Preng",-15.97342,167.37627,8890,dig,digim,digim,,mɪ-βeʧi,,,0
48741754909,"Wala: Preng",-15.97342,167.37627,8920,hunt,kasem,kasem,,-roʧi,,,0
48741754909,"Wala: Preng",-15.97342,167.37627,8930,hold,holem,holem,,mu-tortotoni,,,0
48741754909,"Wala: Preng",-15.97342,167.37627,8950,fear,fraet,fraet,,mɛ-mɛtoʰ,,,0
48741754909,"Wala: Preng",-15.97342,167.37627,8960,count,kaontem,kaontem,,mɛ-ve,,,0
48741754909,"Wala: Preng",-15.97342,167.37627,8970,breathe,pulum_win,pulum_win,,..,,,0
48741754909,"Wala: Preng",-15.97342,167.37627,9000,vomit,traot,traot,,mo-lu,,,0
48741754909,"Wala: Preng",-15.97342,167.37627,9010,tie,fasem_taet,fasem_taet,,ᵐbɛ-sɛre,,,0
48741754909,"Wala: Preng",-15.97342,167.37627,9020,squeeze,skwisim,skwisim,,me-βivani,,,0
48741754909,"Wala: Preng",-15.97342,167.37627,9030,swell,solap,solap,,mu-sol,,,0
48741754909,"Wala: Preng",-15.97342,167.37627,9040,say,talem,talem,,mo-worai,,,0
48741754909,"Wala: Preng",-15.97342,167.37627,9050,scratch,sikrasem,sikrasem,,mo-rʃi,,,0
48741754909,"Wala: Preng",-15.97342,167.37627,9060,stab,stikim,stikim,,mo-ʧuʧi,,,0
48741754909,"Wala: Preng",-15.97342,167.37627,9120,buy,pem,pem,,mu-woli,,,0
48741754909,"Wala: Preng",-15.97342,167.37627,9130,steal,stilim,stilim,,ma-vɛnai,,,0
48741754909,"Wala: Preng",-15.97342,167.37627,9180,plant,planem,planem,,mo-ruwi,,,0
48741754909,"Wala: Preng",-15.97342,167.37627,9220,cook,kuk,kuk,,ma-tabu,,,0
48741754909,"Wala: Preng",-15.97342,167.37627,9400,shoot,shutum,shutum,,mɛ-lue,,,0
48741754909,"Wala: Preng",-15.97342,167.37627,9500,work,wok,wok,,-maʧiŋ,,,0
48741754909,"Wala: Preng",-15.97342,167.37627,9620,open,openem,openem,,..,,,0
48741756709,"Rano: Twalung",-15.98389,167.38444,8020,come,kam,kam,,ku-mɛ,,,0
48741756709,"Rano: Twalung",-15.98389,167.38444,8030,walk,wokabaot,wokabaot,,-mɛl,,,0
48741756709,"Rano: Twalung",-15.98389,167.38444,8110,stand,stanap,stanap,,mɪ-tur,,,0
48741756709,"Rano: Twalung",-15.98389,167.38444,8120,sit,sidaon,sidaon,,mɪ-lɪk,,,0
48741756709,"Rano: Twalung",-15.98389,167.38444,8130,fall,foldaon,foldaon,,-ʧʉ,,,0
48741756709,"Rano: Twalung",-15.98389,167.38444,8140,lie_down,ledaon,ledaon,,..,,,0
48741756709,"Rano: Twalung",-15.98389,167.38444,8150,turn,tanem,tanem,,ku-rori,,,0
48741756709,"Rano: Twalung",-15.98389,167.38444,8180,climb,klaem,klaem,,m-sa,,,0
48741756709,"Rano: Twalung",-15.98389,167.38444,8210,swim,swim,swim,,kue-loŋ,,,0
48741756709,"Rano: Twalung",-15.98389,167.38444,8220,fly_verb,flae,flae,,mu-ro,,,0
48741756709,"Rano: Twalung",-15.98389,167.38444,8260,throw,sakemaot,sakemaot,,mo-wɪt͡s,,,0
48741756709,"Rano: Twalung",-15.98389,167.38444,8270,hide,haetem,haetem,,-silvani,,,0
48741756709,"Rano: Twalung",-15.98389,167.38444,8310,eat,kakae,kakae,,na-in-ɛn,,,0
48741756709,"Rano: Twalung",-15.98389,167.38444,8320,drink,drink,drink,,..,,,0
48741756709,"Rano: Twalung",-15.98389,167.38444,8360,yawn,wantem_silip,wantem_silip,,-minɛma,,,0
48741756709,"Rano: Twalung",-15.98389,167.38444,8370,spit,spet,spet,,nɛ-lto-n,,,0
48741756709,"Rano: Twalung",-15.98389,167.38444,8400,dream,drim,drim,,-ᵐburi,,,0
48741756709,"Rano: Twalung",-15.98389,167.38444,8410,sleep,silip,silip,,-matur,,,0
48741756709,"Rano: Twalung",-15.98389,167.38444,8420,live,laev,laev,,ni-maur-ɛn,,,0
48741756709,"Rano: Twalung",-15.98389,167.38444,8430,die,ded,ded,,nɪ-mɪt͡s-ɛn,,,0
48741756709,"Rano: Twalung",-15.98389,167.38444,8440,kill,kilimded,kilimded,,mɛ-rɛt͡s-bini,,,0
48741756709,"Rano: Twalung",-15.98389,167.38444,8510,see,luk,luk,,..,,,0
48741756709,"Rano: Twalung",-15.98389,167.38444,8520,hear,harem,harem,,..,,,0
48741756709,"Rano: Twalung",-15.98389,167.38444,8540,sniff,smel,smel,,mɛ-tɛn,,,0
48741756709,"Rano: Twalung",-15.98389,167.38444,8580,laugh,laf,laf,,nə-mɛn-ɛn,,,0
48741756709,"Rano: Twalung",-15.98389,167.38444,8590,cry,krae,krae,,ⁿdɪŋ-ɛn,,,0
48741756709,"Rano: Twalung",-15.98389,167.38444,8670,blow,blo,blo,,..,,,0
48741756709,"Rano: Twalung",-15.98389,167.38444,8680,burn,bon,bon,,m-in,,,0
48741756709,"Rano: Twalung",-15.98389,167.38444,8740,sew,somap,somap,,..,,,0
48741756709,"Rano: Twalung",-15.98389,167.38444,8800,pound,kilkilim,kilkilim,,-rɛʧarɛʧi,,,0
48741756709,"Rano: Twalung",-15.98389,167.38444,8810,hit,kilim,kilim,,..,,,0
48741756709,"Rano: Twalung",-15.98389,167.38444,8870,cut,katem,katem,,-tai,,,0
48741756709,"Rano: Twalung",-15.98389,167.38444,8880,split,spletem,spletem,,-taurai,,,0
48741756709,"Rano: Twalung",-15.98389,167.38444,8890,dig,digim,digim,,..,,,0
48741756709,"Rano: Twalung",-15.98389,167.38444,8920,hunt,kasem,kasem,,..,,,0
48741756709,"Rano: Twalung",-15.98389,167.38444,8930,hold,holem,holem,,mu-tortotoni,,,0
48741756709,"Rano: Twalung",-15.98389,167.38444,8950,fear,fraet,fraet,,nɪ-mto,,,0
48741756709,"Rano: Twalung",-15.98389,167.38444,8950,fear,fraet,fraet,,nɪ-mtoɛn,,,0
48741756709,"Rano: Twalung",-15.98389,167.38444,8960,count,kaontem,kaontem,,-βɛ,,,0
48741756709,"Rano: Twalung",-15.98389,167.38444,8970,breathe,pulum_win,pulum_win,,..,,,0
48741756709,"Rano: Twalung",-15.98389,167.38444,9000,vomit,traot,traot,,nu-lu-ɛn,,,0
48741756709,"Rano: Twalung",-15.98389,167.38444,9010,tie,fasem_taet,fasem_taet,,-mʷɛlʧi,,,0
48741756709,"Rano: Twalung",-15.98389,167.38444,9020,squeeze,skwisim,skwisim,,mɪ-vʉsi,,,0
48741756709,"Rano: Twalung",-15.98389,167.38444,9030,swell,solap,solap,,mu-sol,,,0
48741756709,"Rano: Twalung",-15.98389,167.38444,9040,say,talem,talem,,ku-βorai,,,0
48741756709,"Rano: Twalung",-15.98389,167.38444,9050,scratch,sikrasem,sikrasem,,mo-rsi,,,0
48741756709,"Rano: Twalung",-15.98389,167.38444,9060,stab,stikim,stikim,,-ʧuʧi,,,0
48741756709,"Rano: Twalung",-15.98389,167.38444,9120,buy,pem,pem,,mo-wuli,,,0
48741756709,"Rano: Twalung",-15.98389,167.38444,9130,steal,stilim,stilim,,na-vɛnai-ɛn,,,0
48741756709,"Rano: Twalung",-15.98389,167.38444,9180,plant,planem,planem,,po-ruwi,,,0
48741756709,"Rano: Twalung",-15.98389,167.38444,9220,cook,kuk,kuk,,na-tapu-ɛn,,,0
48741756709,"Rano: Twalung",-15.98389,167.38444,9400,shoot,shutum,shutum,,ho-lue,,,0
48741756709,"Rano: Twalung",-15.98389,167.38444,9500,work,wok,wok,,mat͡siŋ-ɛn,,,0
48741756709,"Rano: Twalung",-15.98389,167.38444,9620,open,openem,openem,,..,,,0
48741756809,"Rano: Potora",-15.98472,167.3866,8020,come,kam,kam,,kuɪ-me,,,0
48741756809,"Rano: Potora",-15.98472,167.3866,8030,walk,wokabaot,wokabaot,,nɛ-vɛl,,,0
48741756809,"Rano: Potora",-15.98472,167.3866,8030,walk,wokabaot,wokabaot,,nɛ-vɛlɛn,,,0
48741756809,"Rano: Potora",-15.98472,167.3866,8110,stand,stanap,stanap,,kumo-tur,,,0
48741756809,"Rano: Potora",-15.98472,167.3866,8120,sit,sidaon,sidaon,,kumɛ-lik,,,0
48741756809,"Rano: Potora",-15.98472,167.3866,8130,fall,foldaon,foldaon,,-ʧʉ,,,0
48741756809,"Rano: Potora",-15.98472,167.3866,8140,lie_down,ledaon,ledaon,,..,,,0
48741756809,"Rano: Potora",-15.98472,167.3866,8150,turn,tanem,tanem,,ho-rori,,,0
48741756809,"Rano: Potora",-15.98472,167.3866,8180,climb,klaem,klaem,,-sa,,,0
48741756809,"Rano: Potora",-15.98472,167.3866,8210,swim,swim,swim,,kue-loŋ,,,0
48741756809,"Rano: Potora",-15.98472,167.3866,8220,fly_verb,flae,flae,,-ro,,,0
48741756809,"Rano: Potora",-15.98472,167.3866,8260,throw,sakemaot,sakemaot,,-wɪʧeni,,,0
48741756809,"Rano: Potora",-15.98472,167.3866,8270,hide,haetem,haetem,,-silvani,,,0
48741756809,"Rano: Potora",-15.98472,167.3866,8310,eat,kakae,kakae,,kuma-in,,,0
48741756809,"Rano: Potora",-15.98472,167.3866,8320,drink,drink,drink,,mɛ-mini,,,0
48741756809,"Rano: Potora",-15.98472,167.3866,8360,yawn,wantem_silip,wantem_silip,,ku-menɪma,,,0
48741756809,"Rano: Potora",-15.98472,167.3866,8370,spit,spet,spet,,kumɛ-ltʉ,,,0
48741756809,"Rano: Potora",-15.98472,167.3866,8400,dream,drim,drim,,vorvoro,,,0
48741756809,"Rano: Potora",-15.98472,167.3866,8400,dream,drim,drim,,"-matur vorvoro",,,0
48741756809,"Rano: Potora",-15.98472,167.3866,8410,sleep,silip,silip,,ku-maturu,,,0
48741756809,"Rano: Potora",-15.98472,167.3866,8420,live,laev,laev,,-mauɾu,,,0
48741756809,"Rano: Potora",-15.98472,167.3866,8430,die,ded,ded,,-miʧ,,,0
48741756809,"Rano: Potora",-15.98472,167.3866,8440,kill,kilimded,kilimded,,-rɛʧ-pini,,,0
48741756809,"Rano: Potora",-15.98472,167.3866,8510,see,luk,luk,,mʷo-lesi,,,0
48741756809,"Rano: Potora",-15.98472,167.3866,8520,hear,harem,harem,,m-ore,,,0
48741756809,"Rano: Potora",-15.98472,167.3866,8540,sniff,smel,smel,,mɛ-tɛn,,,0
48741756809,"Rano: Potora",-15.98472,167.3866,8580,laugh,laf,laf,,mu-mɛn,,,0
48741756809,"Rano: Potora",-15.98472,167.3866,8590,cry,krae,krae,,mu-tɪŋ,,,0
48741756809,"Rano: Potora",-15.98472,167.3866,8670,blow,blo,blo,,..,,,0
48741756809,"Rano: Potora",-15.98472,167.3866,8680,burn,bon,bon,,-in,,,0
48741756809,"Rano: Potora",-15.98472,167.3866,8740,sew,somap,somap,,..,,,0
48741756809,"Rano: Potora",-15.98472,167.3866,8800,pound,kilkilim,kilkilim,,-rɛʧarɛʧi,,,0
48741756809,"Rano: Potora",-15.98472,167.3866,8810,hit,kilim,kilim,,-reʧi,,,0
48741756809,"Rano: Potora",-15.98472,167.3866,8870,cut,katem,katem,,-tai,,,0
48741756809,"Rano: Potora",-15.98472,167.3866,8880,split,spletem,spletem,,..,,,0
48741756809,"Rano: Potora",-15.98472,167.3866,8890,dig,digim,digim,,..,,,0
48741756809,"Rano: Potora",-15.98472,167.3866,8920,hunt,kasem,kasem,,..,,,0
48741756809,"Rano: Potora",-15.98472,167.3866,8930,hold,holem,holem,,-tortotoni,,,0
48741756809,"Rano: Potora",-15.98472,167.3866,8950,fear,fraet,fraet,,nɪ-mɪto,,,0
48741756809,"Rano: Potora",-15.98472,167.3866,8960,count,kaontem,kaontem,,-βe,,,0
48741756809,"Rano: Potora",-15.98472,167.3866,8970,breathe,pulum_win,pulum_win,,..,,,0
48741756809,"Rano: Potora",-15.98472,167.3866,9000,vomit,traot,traot,,mo-lu,,,0
48741756809,"Rano: Potora",-15.98472,167.3866,9010,tie,fasem_taet,fasem_taet,,mʷɛlʧi,,,0
48741756809,"Rano: Potora",-15.98472,167.3866,9020,squeeze,skwisim,skwisim,,-wusi,,,0
48741756809,"Rano: Potora",-15.98472,167.3866,9030,swell,solap,solap,,-sol,,,0
48741756809,"Rano: Potora",-15.98472,167.3866,9040,say,talem,talem,,ko-worai,,,0
48741756809,"Rano: Potora",-15.98472,167.3866,9050,scratch,sikrasem,sikrasem,,-rsi,,,0
48741756809,"Rano: Potora",-15.98472,167.3866,9060,stab,stikim,stikim,,-ʧuʧi,,,0
48741756809,"Rano: Potora",-15.98472,167.3866,9120,buy,pem,pem,,-wol,,,0
48741756809,"Rano: Potora",-15.98472,167.3866,9130,steal,stilim,stilim,,-vɛnai,,,0
48741756809,"Rano: Potora",-15.98472,167.3866,9180,plant,planem,planem,,-ruw,,,0
48741756809,"Rano: Potora",-15.98472,167.3866,9220,cook,kuk,kuk,,ma-tapu,,,0
48741756809,"Rano: Potora",-15.98472,167.3866,9400,shoot,shutum,shutum,,mɛ-lue,,,0
48741756809,"Rano: Potora",-15.98472,167.3866,9500,work,wok,wok,,-mʷaʧiŋ,,,0
48741756809,"Rano: Potora",-15.98472,167.3866,9620,open,openem,openem,,-βe,,,0
48741756909,"Rano: Chinambong",-15.99049,167.39063,8020,come,kam,kam,,kuɪ-me,,,0
48741756909,"Rano: Chinambong",-15.99049,167.39063,8030,walk,wokabaot,wokabaot,,-mɛlɛ,,,0
48741756909,"Rano: Chinambong",-15.99049,167.39063,8110,stand,stanap,stanap,,kuo-tuɾu,,,0
48741756909,"Rano: Chinambong",-15.99049,167.39063,8120,sit,sidaon,sidaon,,ku-lek,,,0
48741756909,"Rano: Chinambong",-15.99049,167.39063,8130,fall,foldaon,foldaon,,mi-t͡sʉ,,,0
48741756909,"Rano: Chinambong",-15.99049,167.39063,8140,lie_down,ledaon,ledaon,,..,,,0
48741756909,"Rano: Chinambong",-15.99049,167.39063,8150,turn,tanem,tanem,,ku-rori,,,0
48741756909,"Rano: Chinambong",-15.99049,167.39063,8180,climb,klaem,klaem,,hu-sa,,,0
48741756909,"Rano: Chinambong",-15.99049,167.39063,8210,swim,swim,swim,,kue-loŋ,,,0
48741756909,"Rano: Chinambong",-15.99049,167.39063,8220,fly_verb,flae,flae,,mu-ro,,,0
48741756909,"Rano: Chinambong",-15.99049,167.39063,8260,throw,sakemaot,sakemaot,,kuo-wɛʧeni,,,0
48741756909,"Rano: Chinambong",-15.99049,167.39063,8270,hide,haetem,haetem,,kue-silβani,,,0
48741756909,"Rano: Chinambong",-15.99049,167.39063,8310,eat,kakae,kakae,,ku-ain,,,0
48741756909,"Rano: Chinambong",-15.99049,167.39063,8320,drink,drink,drink,,kuɛ-mini,,,0
48741756909,"Rano: Chinambong",-15.99049,167.39063,8360,yawn,wantem_silip,wantem_silip,,ku-mɛnɪma,,,0
48741756909,"Rano: Chinambong",-15.99049,167.39063,8370,spit,spet,spet,,kuɛ-ltʉ,,,0
48741756909,"Rano: Chinambong",-15.99049,167.39063,8400,dream,drim,drim,,poɾpoɾo,,,0
48741756909,"Rano: Chinambong",-15.99049,167.39063,8400,dream,drim,drim,,"-matuɾ poɾpoɾo",,,0
48741756909,"Rano: Chinambong",-15.99049,167.39063,8410,sleep,silip,silip,,ku-matuɾ,,,0
48741756909,"Rano: Chinambong",-15.99049,167.39063,8420,live,laev,laev,,mi-mauɾu,,,0
48741756909,"Rano: Chinambong",-15.99049,167.39063,8430,die,ded,ded,,mi-mɪt͡s,,,0
48741756909,"Rano: Chinambong",-15.99049,167.39063,8440,kill,kilimded,kilimded,,kuo-rɛʧ-bini,,,0
48741756909,"Rano: Chinambong",-15.99049,167.39063,8510,see,luk,luk,,ku-lesi,,,0
48741756909,"Rano: Chinambong",-15.99049,167.39063,8520,hear,harem,harem,,ku-ore,,,0
48741756909,"Rano: Chinambong",-15.99049,167.39063,8540,sniff,smel,smel,,mɛ-tɛn,,,0
48741756909,"Rano: Chinambong",-15.99049,167.39063,8580,laugh,laf,laf,,ko-mɛn,,,0
48741756909,"Rano: Chinambong",-15.99049,167.39063,8590,cry,krae,krae,,ku-tɪŋ,,,0
48741756909,"Rano: Chinambong",-15.99049,167.39063,8670,blow,blo,blo,,mʷi-sɛɾe,,,0
48741756909,"Rano: Chinambong",-15.99049,167.39063,8680,burn,bon,bon,,mʷ-ɪn,,,0
48741756909,"Rano: Chinambong",-15.99049,167.39063,8740,sew,somap,somap,,kuo-reri,,,0
48741756909,"Rano: Chinambong",-15.99049,167.39063,8800,pound,kilkilim,kilkilim,,kuo-rɛʧi,,,0
48741756909,"Rano: Chinambong",-15.99049,167.39063,8810,hit,kilim,kilim,,kuo-rɛt͡si,,,0
48741756909,"Rano: Chinambong",-15.99049,167.39063,8870,cut,katem,katem,,ku-tai,,,0
48741756909,"Rano: Chinambong",-15.99049,167.39063,8880,split,spletem,spletem,,ku-taukari,,,0
48741756909,"Rano: Chinambong",-15.99049,167.39063,8890,dig,digim,digim,,kui-βeʧi,,,0
48741756909,"Rano: Chinambong",-15.99049,167.39063,8920,hunt,kasem,kasem,,..,,,0
48741756909,"Rano: Chinambong",-15.99049,167.39063,8930,hold,holem,holem,,ku-tortotoni,,,0
48741756909,"Rano: Chinambong",-15.99049,167.39063,8950,fear,fraet,fraet,,mɪ-mɪto,,,0
48741756909,"Rano: Chinambong",-15.99049,167.39063,8960,count,kaontem,kaontem,,-βe,,,0
48741756909,"Rano: Chinambong",-15.99049,167.39063,8970,breathe,pulum_win,pulum_win,,..,,,0
48741756909,"Rano: Chinambong",-15.99049,167.39063,9000,vomit,traot,traot,,kuo-lu,,,0
48741756909,"Rano: Chinambong",-15.99049,167.39063,9010,tie,fasem_taet,fasem_taet,,..,,,0
48741756909,"Rano: Chinambong",-15.99049,167.39063,9020,squeeze,skwisim,skwisim,,kuo-wisi,,,0
48741756909,"Rano: Chinambong",-15.99049,167.39063,9030,swell,solap,solap,,mu-sol,,,0
48741756909,"Rano: Chinambong",-15.99049,167.39063,9040,say,talem,talem,,go-wurai,,,0
48741756909,"Rano: Chinambong",-15.99049,167.39063,9050,scratch,sikrasem,sikrasem,,kuo-rsi,,,0
48741756909,"Rano: Chinambong",-15.99049,167.39063,9060,stab,stikim,stikim,,kuo-ʧuʧi,,,0
48741756909,"Rano: Chinambong",-15.99049,167.39063,9120,buy,pem,pem,,kuo-wuli,,,0
48741756909,"Rano: Chinambong",-15.99049,167.39063,9130,steal,stilim,stilim,,kuma-vanai,,,0
48741756909,"Rano: Chinambong",-15.99049,167.39063,9180,plant,planem,planem,,kuo-luwi,,,0
48741756909,"Rano: Chinambong",-15.99049,167.39063,9220,cook,kuk,kuk,,..,,,0
48741756909,"Rano: Chinambong",-15.99049,167.39063,9400,shoot,shutum,shutum,,kuo-lue,,,0
48741756909,"Rano: Chinambong",-15.99049,167.39063,9500,work,wok,wok,,..,,,0
48741756909,"Rano: Chinambong",-15.99049,167.39063,9620,open,openem,openem,,kuɛ-βe,,,0
48741757609,"Uripiv: Tautu Village",-16.06661,167.3975,8020,come,kam,kam,,-mɛ,,,0
48741757609,"Uripiv: Tautu Village",-16.06661,167.3975,8030,walk,wokabaot,wokabaot,,-wɛl,,,0
48741757609,"Uripiv: Tautu Village",-16.06661,167.3975,8110,stand,stanap,stanap,,-tur,,,0
48741757609,"Uripiv: Tautu Village",-16.06661,167.3975,8120,sit,sidaon,sidaon,,-lɛk,,,0
48741757609,"Uripiv: Tautu Village",-16.06661,167.3975,8130,fall,foldaon,foldaon,,-ʧeo,,,0
48741757609,"Uripiv: Tautu Village",-16.06661,167.3975,8140,lie_down,ledaon,ledaon,,a-mʷɔsi,,,0
48741757609,"Uripiv: Tautu Village",-16.06661,167.3975,8150,turn,tanem,tanem,,-rori,,,0
48741757609,"Uripiv: Tautu Village",-16.06661,167.3975,8180,climb,klaem,klaem,,-sa,,,0
48741757609,"Uripiv: Tautu Village",-16.06661,167.3975,8210,swim,swim,swim,,-lalos,,,0
48741757609,"Uripiv: Tautu Village",-16.06661,167.3975,8220,fly_verb,flae,flae,,-rɔ,,,0
48741757609,"Uripiv: Tautu Village",-16.06661,167.3975,8260,throw,sakemaot,sakemaot,,wɛʧi,,,0
48741757609,"Uripiv: Tautu Village",-16.06661,167.3975,8270,hide,haetem,haetem,,-silwani,,,0
48741757609,"Uripiv: Tautu Village",-16.06661,167.3975,8310,eat,kakae,kakae,,-ain,,,0
48741757609,"Uripiv: Tautu Village",-16.06661,167.3975,8320,drink,drink,drink,,-mini,,,0
48741757609,"Uripiv: Tautu Village",-16.06661,167.3975,8360,yawn,wantem_silip,wantem_silip,,..,,,0
48741757609,"Uripiv: Tautu Village",-16.06661,167.3975,8370,spit,spet,spet,,..,,,0
48741757609,"Uripiv: Tautu Village",-16.06661,167.3975,8400,dream,drim,drim,,-ᵐbori,,,0
48741757609,"Uripiv: Tautu Village",-16.06661,167.3975,8410,sleep,silip,silip,,-matur,,,0
48741757609,"Uripiv: Tautu Village",-16.06661,167.3975,8420,live,laev,laev,,-maoɾ,,,0
48741757609,"Uripiv: Tautu Village",-16.06661,167.3975,8430,die,ded,ded,,-mɛʧ,,,0
48741757609,"Uripiv: Tautu Village",-16.06661,167.3975,8440,kill,kilimded,kilimded,,..,,,0
48741757609,"Uripiv: Tautu Village",-16.06661,167.3975,8510,see,luk,luk,,-mɛtani,,,0
48741757609,"Uripiv: Tautu Village",-16.06661,167.3975,8520,hear,harem,harem,,o-ruɲe,,,0
48741757609,"Uripiv: Tautu Village",-16.06661,167.3975,8540,sniff,smel,smel,,mitɛ-n,,,0
48741757609,"Uripiv: Tautu Village",-16.06661,167.3975,8580,laugh,laf,laf,,-men,,,0
48741757609,"Uripiv: Tautu Village",-16.06661,167.3975,8590,cry,krae,krae,,-tɛŋ,,,0
48741757609,"Uripiv: Tautu Village",-16.06661,167.3975,8670,blow,blo,blo,,-wu,,,0
48741757609,"Uripiv: Tautu Village",-16.06661,167.3975,8680,burn,bon,bon,,-rɔrɔ,,,0
48741757609,"Uripiv: Tautu Village",-16.06661,167.3975,8740,sew,somap,somap,,-turi,,,0
48741757609,"Uripiv: Tautu Village",-16.06661,167.3975,8800,pound,kilkilim,kilkilim,,-reoreoʧi,,,0
48741757609,"Uripiv: Tautu Village",-16.06661,167.3975,8810,hit,kilim,kilim,,-reoʧi,,,0
48741757609,"Uripiv: Tautu Village",-16.06661,167.3975,8870,cut,katem,katem,,-tai,,,0
48741757609,"Uripiv: Tautu Village",-16.06661,167.3975,8880,split,spletem,spletem,,-spe,,,0
48741757609,"Uripiv: Tautu Village",-16.06661,167.3975,8890,dig,digim,digim,,-li,,,0
48741757609,"Uripiv: Tautu Village",-16.06661,167.3975,8920,hunt,kasem,kasem,,..,,,0
48741757609,"Uripiv: Tautu Village",-16.06661,167.3975,8930,hold,holem,holem,,tori,,,0
48741757609,"Uripiv: Tautu Village",-16.06661,167.3975,8950,fear,fraet,fraet,,-ɛmtɔ,,,0
48741757609,"Uripiv: Tautu Village",-16.06661,167.3975,8960,count,kaontem,kaontem,,-we,,,0
48741757609,"Uripiv: Tautu Village",-16.06661,167.3975,8970,breathe,pulum_win,pulum_win,,..,,,0
48741757609,"Uripiv: Tautu Village",-16.06661,167.3975,9000,vomit,traot,traot,,-lu,,,0
48741757609,"Uripiv: Tautu Village",-16.06661,167.3975,9010,tie,fasem_taet,fasem_taet,,-kai,,,0
48741757609,"Uripiv: Tautu Village",-16.06661,167.3975,9020,squeeze,skwisim,skwisim,,tumtumi,,,0
48741757609,"Uripiv: Tautu Village",-16.06661,167.3975,9030,swell,solap,solap,,-sɔl,,,0
48741757609,"Uripiv: Tautu Village",-16.06661,167.3975,9040,say,talem,talem,,-worai,,,0
48741757609,"Uripiv: Tautu Village",-16.06661,167.3975,9050,scratch,sikrasem,sikrasem,,-rorsi,,,0
48741757609,"Uripiv: Tautu Village",-16.06661,167.3975,9060,stab,stikim,stikim,,-ʧuʧi,,,0
48741757609,"Uripiv: Tautu Village",-16.06661,167.3975,9120,buy,pem,pem,,-wuli,,,0
48741757609,"Uripiv: Tautu Village",-16.06661,167.3975,9130,steal,stilim,stilim,,-wina,,,0
48741757609,"Uripiv: Tautu Village",-16.06661,167.3975,9180,plant,planem,planem,,-ruwi,,,0
48741757609,"Uripiv: Tautu Village",-16.06661,167.3975,9220,cook,kuk,kuk,,-taᵐbu,,,0
48741757609,"Uripiv: Tautu Village",-16.06661,167.3975,9400,shoot,shutum,shutum,,-luwe,,,0
48741757609,"Uripiv: Tautu Village",-16.06661,167.3975,9500,work,wok,wok,,-maʧiŋ,,,0
48741757609,"Uripiv: Tautu Village",-16.06661,167.3975,9620,open,openem,openem,,ɛ-wɛ,,,0
48741758709,"Uripiv: Tautu",-16.06778,167.40111,8020,come,kam,kam,,ɛ-mɛ,,,0
48741758709,"Uripiv: Tautu",-16.06778,167.40111,8030,walk,wokabaot,wokabaot,,nɛ-wɛl,,,0
48741758709,"Uripiv: Tautu",-16.06778,167.40111,8030,walk,wokabaot,wokabaot,,nɛ-wɛlɛn,,,0
48741758709,"Uripiv: Tautu",-16.06778,167.40111,8110,stand,stanap,stanap,,o-turu,,,0
48741758709,"Uripiv: Tautu",-16.06778,167.40111,8120,sit,sidaon,sidaon,,ɛ-lɛk,,,0
48741758709,"Uripiv: Tautu",-16.06778,167.40111,8130,fall,foldaon,foldaon,,ɛ-ʧeu,,,0
48741758709,"Uripiv: Tautu",-16.06778,167.40111,8140,lie_down,ledaon,ledaon,,a-mʷɔsi,,,0
48741758709,"Uripiv: Tautu",-16.06778,167.40111,8150,turn,tanem,tanem,,o-rori,,,0
48741758709,"Uripiv: Tautu",-16.06778,167.40111,8180,climb,klaem,klaem,,a-sa,,,0
48741758709,"Uripiv: Tautu",-16.06778,167.40111,8210,swim,swim,swim,,a-lalos,,,0
48741758709,"Uripiv: Tautu",-16.06778,167.40111,8220,fly_verb,flae,flae,,o-ro,,,0
48741758709,"Uripiv: Tautu",-16.06778,167.40111,8260,throw,sakemaot,sakemaot,,ɛ-wɛʧi,,,0
48741758709,"Uripiv: Tautu",-16.06778,167.40111,8270,hide,haetem,haetem,,ɛ-silwani,,,0
48741758709,"Uripiv: Tautu",-16.06778,167.40111,8310,eat,kakae,kakae,,a-in,,,0
48741758709,"Uripiv: Tautu",-16.06778,167.40111,8320,drink,drink,drink,,ɛ-mɪni,,,0
48741758709,"Uripiv: Tautu",-16.06778,167.40111,8360,yawn,wantem_silip,wantem_silip,,ɛ-nma,,,0
48741758709,"Uripiv: Tautu",-16.06778,167.40111,8370,spit,spet,spet,,o-lto,,,0
48741758709,"Uripiv: Tautu",-16.06778,167.40111,8400,dream,drim,drim,,-ᵐbori,,,0
48741758709,"Uripiv: Tautu",-16.06778,167.40111,8410,sleep,silip,silip,,a-maturu,,,0
48741758709,"Uripiv: Tautu",-16.06778,167.40111,8420,live,laev,laev,,ha-maoɾ,,,0
48741758709,"Uripiv: Tautu",-16.06778,167.40111,8430,die,ded,ded,,hɛ-mɛʧ,,,0
48741758709,"Uripiv: Tautu",-16.06778,167.40111,8440,kill,kilimded,kilimded,,ɛ-reoʧi,,,0
48741758709,"Uripiv: Tautu",-16.06778,167.40111,8510,see,luk,luk,,ɛ-mtani,,,0
48741758709,"Uripiv: Tautu",-16.06778,167.40111,8520,hear,harem,harem,,o-ruŋe,,,0
48741758709,"Uripiv: Tautu",-16.06778,167.40111,8540,sniff,smel,smel,,mitɛ-n,,,0
48741758709,"Uripiv: Tautu",-16.06778,167.40111,8580,laugh,laf,laf,,ɛ-mɛn,,,0
48741758709,"Uripiv: Tautu",-16.06778,167.40111,8590,cry,krae,krae,,ɛ-tɛŋ,,,0
48741758709,"Uripiv: Tautu",-16.06778,167.40111,8670,blow,blo,blo,,o-wu,,,0
48741758709,"Uripiv: Tautu",-16.06778,167.40111,8680,burn,bon,bon,,o-roro,,,0
48741758709,"Uripiv: Tautu",-16.06778,167.40111,8740,sew,somap,somap,,o-turi,,,0
48741758709,"Uripiv: Tautu",-16.06778,167.40111,8800,pound,kilkilim,kilkilim,,he-reoreoʧi,,,0
48741758709,"Uripiv: Tautu",-16.06778,167.40111,8810,hit,kilim,kilim,,ɛ-reoʧi,,,0
48741758709,"Uripiv: Tautu",-16.06778,167.40111,8870,cut,katem,katem,,a-tai,,,0
48741758709,"Uripiv: Tautu",-16.06778,167.40111,8880,split,spletem,spletem,,ɛ-spe,,,0
48741758709,"Uripiv: Tautu",-16.06778,167.40111,8890,dig,digim,digim,,e-li,,,0
48741758709,"Uripiv: Tautu",-16.06778,167.40111,8920,hunt,kasem,kasem,,..,,,0
48741758709,"Uripiv: Tautu",-16.06778,167.40111,8930,hold,holem,holem,,o-tori,,,0
48741758709,"Uripiv: Tautu",-16.06778,167.40111,8950,fear,fraet,fraet,,-ɛmtoh,,,0
48741758709,"Uripiv: Tautu",-16.06778,167.40111,8960,count,kaontem,kaontem,,ɛ-wɛ,,,0
48741758709,"Uripiv: Tautu",-16.06778,167.40111,8970,breathe,pulum_win,pulum_win,,ɛ-wɛsowin,,,0
48741758709,"Uripiv: Tautu",-16.06778,167.40111,9000,vomit,traot,traot,,o-lu,,,0
48741758709,"Uripiv: Tautu",-16.06778,167.40111,9010,tie,fasem_taet,fasem_taet,,a-kai,,,0
48741758709,"Uripiv: Tautu",-16.06778,167.40111,9020,squeeze,skwisim,skwisim,,o-tumtumi,,,0
48741758709,"Uripiv: Tautu",-16.06778,167.40111,9030,swell,solap,solap,,o-sol,,,0
48741758709,"Uripiv: Tautu",-16.06778,167.40111,9040,say,talem,talem,,o-worai,,,0
48741758709,"Uripiv: Tautu",-16.06778,167.40111,9050,scratch,sikrasem,sikrasem,,o-rorsi,,,0
48741758709,"Uripiv: Tautu",-16.06778,167.40111,9060,stab,stikim,stikim,,o-ʧuʧi,,,0
48741758709,"Uripiv: Tautu",-16.06778,167.40111,9120,buy,pem,pem,,o-wli,,,0
48741758709,"Uripiv: Tautu",-16.06778,167.40111,9130,steal,stilim,stilim,,e-wuna,,,0
48741758709,"Uripiv: Tautu",-16.06778,167.40111,9180,plant,planem,planem,,o-ruwi,,,0
48741758709,"Uripiv: Tautu",-16.06778,167.40111,9220,cook,kuk,kuk,,a-taᵐbu,,,0
48741758709,"Uripiv: Tautu",-16.06778,167.40111,9400,shoot,shutum,shutum,,ɛ-luwe,,,0
48741758709,"Uripiv: Tautu",-16.06778,167.40111,9500,work,wok,wok,,a-maʧiŋ,,,0
48741758709,"Uripiv: Tautu",-16.06778,167.40111,9620,open,openem,openem,,ɛ-wɛ,,,0
48741758809,"Uripiv: Durpif",-16.07265,167.447,8020,come,kam,kam,,-pini,,,0
48741758809,"Uripiv: Durpif",-16.07265,167.447,8030,walk,wokabaot,wokabaot,,ɛ-βɛl,,,0
48741758809,"Uripiv: Durpif",-16.07265,167.447,8110,stand,stanap,stanap,,ho-tuɾu,,,0
48741758809,"Uripiv: Durpif",-16.07265,167.447,8120,sit,sidaon,sidaon,,ɛ-lik,,,0
48741758809,"Uripiv: Durpif",-16.07265,167.447,8130,fall,foldaon,foldaon,,..,,,0
48741758809,"Uripiv: Durpif",-16.07265,167.447,8140,lie_down,ledaon,ledaon,,..,,,0
48741758809,"Uripiv: Durpif",-16.07265,167.447,8150,turn,tanem,tanem,,..,,,0
48741758809,"Uripiv: Durpif",-16.07265,167.447,8180,climb,klaem,klaem,,ɛ-sa,,,0
48741758809,"Uripiv: Durpif",-16.07265,167.447,8210,swim,swim,swim,,pʷiloŋ,,,0
48741758809,"Uripiv: Durpif",-16.07265,167.447,8220,fly_verb,flae,flae,,o-ro,,,0
48741758809,"Uripiv: Durpif",-16.07265,167.447,8260,throw,sakemaot,sakemaot,,tweni,,,0
48741758809,"Uripiv: Durpif",-16.07265,167.447,8270,hide,haetem,haetem,,-silvɛni,,,0
48741758809,"Uripiv: Durpif",-16.07265,167.447,8310,eat,kakae,kakae,,ɛ-an,,,0
48741758809,"Uripiv: Durpif",-16.07265,167.447,8320,drink,drink,drink,,ɛ-mɪni,,,0
48741758809,"Uripiv: Durpif",-16.07265,167.447,8360,yawn,wantem_silip,wantem_silip,,..,,,0
48741758809,"Uripiv: Durpif",-16.07265,167.447,8370,spit,spet,spet,,ho-lʉtu,,,0
48741758809,"Uripiv: Durpif",-16.07265,167.447,8400,dream,drim,drim,,-ᵐboɾi,,,0
48741758809,"Uripiv: Durpif",-16.07265,167.447,8410,sleep,silip,silip,,-matur,,,0
48741758809,"Uripiv: Durpif",-16.07265,167.447,8420,live,laev,laev,,-mauɾu,,,0
48741758809,"Uripiv: Durpif",-16.07265,167.447,8430,die,ded,ded,,-miʧ,,,0
48741758809,"Uripiv: Durpif",-16.07265,167.447,8440,kill,kilimded,kilimded,,-pini,,,0
48741758809,"Uripiv: Durpif",-16.07265,167.447,8510,see,luk,luk,,-mɛtɛni,,,0
48741758809,"Uripiv: Durpif",-16.07265,167.447,8520,hear,harem,harem,,-riŋe,,,0
48741758809,"Uripiv: Durpif",-16.07265,167.447,8540,sniff,smel,smel,,..,,,0
48741758809,"Uripiv: Durpif",-16.07265,167.447,8580,laugh,laf,laf,,ɛ-mɛn,,,0
48741758809,"Uripiv: Durpif",-16.07265,167.447,8590,cry,krae,krae,,ɛ-ⁿdiŋ,,,0
48741758809,"Uripiv: Durpif",-16.07265,167.447,8670,blow,blo,blo,,o-wu,,,0
48741758809,"Uripiv: Durpif",-16.07265,167.447,8680,burn,bon,bon,,in,,,0
48741758809,"Uripiv: Durpif",-16.07265,167.447,8740,sew,somap,somap,,-turi,,,0
48741758809,"Uripiv: Durpif",-16.07265,167.447,8800,pound,kilkilim,kilkilim,,revrevʧi,,,0
48741758809,"Uripiv: Durpif",-16.07265,167.447,8810,hit,kilim,kilim,,..,,,0
48741758809,"Uripiv: Durpif",-16.07265,167.447,8870,cut,katem,katem,,-tai,,,0
48741758809,"Uripiv: Durpif",-16.07265,167.447,8880,split,spletem,spletem,,..,,,0
48741758809,"Uripiv: Durpif",-16.07265,167.447,8890,dig,digim,digim,,..,,,0
48741758809,"Uripiv: Durpif",-16.07265,167.447,8920,hunt,kasem,kasem,,kuru,,,0
48741758809,"Uripiv: Durpif",-16.07265,167.447,8930,hold,holem,holem,,-toɾi,,,0
48741758809,"Uripiv: Durpif",-16.07265,167.447,8950,fear,fraet,fraet,,ɛ-mtutu,,,0
48741758809,"Uripiv: Durpif",-16.07265,167.447,8960,count,kaontem,kaontem,,..,,,0
48741758809,"Uripiv: Durpif",-16.07265,167.447,8970,breathe,pulum_win,pulum_win,,e-βesowɪn,,,0
48741758809,"Uripiv: Durpif",-16.07265,167.447,9000,vomit,traot,traot,,ho-lu,,,0
48741758809,"Uripiv: Durpif",-16.07265,167.447,9010,tie,fasem_taet,fasem_taet,,..,,,0
48741758809,"Uripiv: Durpif",-16.07265,167.447,9020,squeeze,skwisim,skwisim,,o-si,,,0
48741758809,"Uripiv: Durpif",-16.07265,167.447,9030,swell,solap,solap,,o-sol,,,0
48741758809,"Uripiv: Durpif",-16.07265,167.447,9040,say,talem,talem,,-wɛrai,,,0
48741758809,"Uripiv: Durpif",-16.07265,167.447,9050,scratch,sikrasem,sikrasem,,-xorsi,,,0
48741758809,"Uripiv: Durpif",-16.07265,167.447,9060,stab,stikim,stikim,,-ʧuʧi,,,0
48741758809,"Uripiv: Durpif",-16.07265,167.447,9120,buy,pem,pem,,-wuli,,,0
48741758809,"Uripiv: Durpif",-16.07265,167.447,9130,steal,stilim,stilim,,-βɛnau,,,0
48741758809,"Uripiv: Durpif",-16.07265,167.447,9180,plant,planem,planem,,..,,,0
48741758809,"Uripiv: Durpif",-16.07265,167.447,9220,cook,kuk,kuk,,-ⁿdaᵐbu,,,0
48741758809,"Uripiv: Durpif",-16.07265,167.447,9400,shoot,shutum,shutum,,-liwe,,,0
48741758809,"Uripiv: Durpif",-16.07265,167.447,9500,work,wok,wok,,-maʧiŋ,,,0
48741758809,"Uripiv: Durpif",-16.07265,167.447,9500,work,wok,wok,,-maʧiŋɛn,,,0
48741758809,"Uripiv: Durpif",-16.07265,167.447,9620,open,openem,openem,,-ɾaʧi,,,0
48741758909,"Uripiv: Potnambe",-16.07391,167.45203,8020,come,kam,kam,,ɛ-βini,,,0
48741758909,"Uripiv: Potnambe",-16.07391,167.45203,8030,walk,wokabaot,wokabaot,,ɛ-βɛl,,,0
48741758909,"Uripiv: Potnambe",-16.07391,167.45203,8110,stand,stanap,stanap,,o-tuɾ,,,0
48741758909,"Uripiv: Potnambe",-16.07391,167.45203,8120,sit,sidaon,sidaon,,ɛ-lik,,,0
48741758909,"Uripiv: Potnambe",-16.07391,167.45203,8130,fall,foldaon,foldaon,,..,,,0
48741758909,"Uripiv: Potnambe",-16.07391,167.45203,8140,lie_down,ledaon,ledaon,,..,,,0
48741758909,"Uripiv: Potnambe",-16.07391,167.45203,8150,turn,tanem,tanem,,ɛ-ɾieni,,,0
48741758909,"Uripiv: Potnambe",-16.07391,167.45203,8180,climb,klaem,klaem,,ɛ-sa,,,0
48741758909,"Uripiv: Potnambe",-16.07391,167.45203,8210,swim,swim,swim,,ɛ-loŋ,,,0
48741758909,"Uripiv: Potnambe",-16.07391,167.45203,8220,fly_verb,flae,flae,,o-ro,,,0
48741758909,"Uripiv: Potnambe",-16.07391,167.45203,8260,throw,sakemaot,sakemaot,,..,,,0
48741758909,"Uripiv: Potnambe",-16.07391,167.45203,8270,hide,haetem,haetem,,-silvɛni,,,0
48741758909,"Uripiv: Potnambe",-16.07391,167.45203,8310,eat,kakae,kakae,,ɛ-an,,,0
48741758909,"Uripiv: Potnambe",-16.07391,167.45203,8320,drink,drink,drink,,ɛ-minmin,,,0
48741758909,"Uripiv: Potnambe",-16.07391,167.45203,8360,yawn,wantem_silip,wantem_silip,,..,,,0
48741758909,"Uripiv: Potnambe",-16.07391,167.45203,8370,spit,spet,spet,,o-lutun,,,0
48741758909,"Uripiv: Potnambe",-16.07391,167.45203,8400,dream,drim,drim,,i-ᵐboɾi,,,0
48741758909,"Uripiv: Potnambe",-16.07391,167.45203,8400,dream,drim,drim,,"ɛ-matur les i-ᵐboɾi",,,0
48741758909,"Uripiv: Potnambe",-16.07391,167.45203,8410,sleep,silip,silip,,ɛ-matur,,,0
48741758909,"Uripiv: Potnambe",-16.07391,167.45203,8420,live,laev,laev,,ɛ-mauɾ,,,0
48741758909,"Uripiv: Potnambe",-16.07391,167.45203,8430,die,ded,ded,,ɛ-miʧ,,,0
48741758909,"Uripiv: Potnambe",-16.07391,167.45203,8440,kill,kilimded,kilimded,,ɛ-rɛvʧi-pini,,,0
48741758909,"Uripiv: Potnambe",-16.07391,167.45203,8510,see,luk,luk,,..,,,0
48741758909,"Uripiv: Potnambe",-16.07391,167.45203,8520,hear,harem,harem,,o-riŋe,,,0
48741758909,"Uripiv: Potnambe",-16.07391,167.45203,8540,sniff,smel,smel,,..,,,0
48741758909,"Uripiv: Potnambe",-16.07391,167.45203,8580,laugh,laf,laf,,ɛ-mɛn,,,0
48741758909,"Uripiv: Potnambe",-16.07391,167.45203,8590,cry,krae,krae,,ɛ-tiŋ,,,0
48741758909,"Uripiv: Potnambe",-16.07391,167.45203,8670,blow,blo,blo,,o-wu,,,0
48741758909,"Uripiv: Potnambe",-16.07391,167.45203,8680,burn,bon,bon,,o-ror,,,0
48741758909,"Uripiv: Potnambe",-16.07391,167.45203,8740,sew,somap,somap,,..,,,0
48741758909,"Uripiv: Potnambe",-16.07391,167.45203,8800,pound,kilkilim,kilkilim,,ɛ-revrevʧi,,,0
48741758909,"Uripiv: Potnambe",-16.07391,167.45203,8810,hit,kilim,kilim,,ɛ-rɛvʧi,,,0
48741758909,"Uripiv: Potnambe",-16.07391,167.45203,8870,cut,katem,katem,,ɛ-tue,,,0
48741758909,"Uripiv: Potnambe",-16.07391,167.45203,8880,split,spletem,spletem,,..,,,0
48741758909,"Uripiv: Potnambe",-16.07391,167.45203,8890,dig,digim,digim,,ɛ-li,,,0
48741758909,"Uripiv: Potnambe",-16.07391,167.45203,8920,hunt,kasem,kasem,,..,,,0
48741758909,"Uripiv: Potnambe",-16.07391,167.45203,8930,hold,holem,holem,,otoɾi,,,0
48741758909,"Uripiv: Potnambe",-16.07391,167.45203,8950,fear,fraet,fraet,,metu-ɛn,,,0
48741758909,"Uripiv: Potnambe",-16.07391,167.45203,8960,count,kaontem,kaontem,,-pɛβɛ,,,0
48741758909,"Uripiv: Potnambe",-16.07391,167.45203,8970,breathe,pulum_win,pulum_win,,..,,,0
48741758909,"Uripiv: Potnambe",-16.07391,167.45203,9000,vomit,traot,traot,,o-lu,,,0
48741758909,"Uripiv: Potnambe",-16.07391,167.45203,9010,tie,fasem_taet,fasem_taet,,..,,,0
48741758909,"Uripiv: Potnambe",-16.07391,167.45203,9020,squeeze,skwisim,skwisim,,o-toɾi,,,0
48741758909,"Uripiv: Potnambe",-16.07391,167.45203,9030,swell,solap,solap,,o-sol,,,0
48741758909,"Uripiv: Potnambe",-16.07391,167.45203,9040,say,talem,talem,,ho-βuɾai,,,0
48741758909,"Uripiv: Potnambe",-16.07391,167.45203,9050,scratch,sikrasem,sikrasem,,o-rorsi,,,0
48741758909,"Uripiv: Potnambe",-16.07391,167.45203,9060,stab,stikim,stikim,,o-ʧuʧi,,,0
48741758909,"Uripiv: Potnambe",-16.07391,167.45203,9120,buy,pem,pem,,o-wuli,,,0
48741758909,"Uripiv: Potnambe",-16.07391,167.45203,9130,steal,stilim,stilim,,ɛ-vɛnai,,,0
48741758909,"Uripiv: Potnambe",-16.07391,167.45203,9180,plant,planem,planem,,pu-ruwi,,,0
48741758909,"Uripiv: Potnambe",-16.07391,167.45203,9220,cook,kuk,kuk,,ɛ-taᵐbu,,,0
48741758909,"Uripiv: Potnambe",-16.07391,167.45203,9400,shoot,shutum,shutum,,ɛ-luwe,,,0
48741758909,"Uripiv: Potnambe",-16.07391,167.45203,9500,work,wok,wok,,-mʷaʧin,,,0
48741758909,"Uripiv: Potnambe",-16.07391,167.45203,9620,open,openem,openem,,ɛ-ɾaʧi,,,0
48741953109,"Wowo: Lesarmalas",-15.90733,167.17927,8020,come,kam,kam,,-ma,,,0
48741953109,"Wowo: Lesarmalas",-15.90733,167.17927,8030,walk,wokabaot,wokabaot,,-tia,,,0
48741953109,"Wowo: Lesarmalas",-15.90733,167.17927,8110,stand,stanap,stanap,,tu-toɾo,,,0
48741953109,"Wowo: Lesarmalas",-15.90733,167.17927,8120,sit,sidaon,sidaon,,ti-at,,,0
48741953109,"Wowo: Lesarmalas",-15.90733,167.17927,8130,fall,foldaon,foldaon,,tu-soð,,,0
48741953109,"Wowo: Lesarmalas",-15.90733,167.17927,8140,lie_down,ledaon,ledaon,,..,,,0
48741953109,"Wowo: Lesarmalas",-15.90733,167.17927,8150,turn,tanem,tanem,,ho-ror,,,0
48741953109,"Wowo: Lesarmalas",-15.90733,167.17927,8180,climb,klaem,klaem,,ti-hax,,,0
48741953109,"Wowo: Lesarmalas",-15.90733,167.17927,8210,swim,swim,swim,,hu-tial,,,0
48741953109,"Wowo: Lesarmalas",-15.90733,167.17927,8220,fly_verb,flae,flae,,ti-tahix,,,0
48741953109,"Wowo: Lesarmalas",-15.90733,167.17927,8260,throw,sakemaot,sakemaot,,tɪ-vɛɾɛn,,,0
48741953109,"Wowo: Lesarmalas",-15.90733,167.17927,8270,hide,haetem,haetem,,u-vtehuwun,,,0
48741953109,"Wowo: Lesarmalas",-15.90733,167.17927,8310,eat,kakae,kakae,,tu-or,,,0
48741953109,"Wowo: Lesarmalas",-15.90733,167.17927,8320,drink,drink,drink,,tu-num,,,0
48741953109,"Wowo: Lesarmalas",-15.90733,167.17927,8360,yawn,wantem_silip,wantem_silip,,ti-nanað,,,0
48741953109,"Wowo: Lesarmalas",-15.90733,167.17927,8370,spit,spet,spet,,tu-lutuð,,,0
48741953109,"Wowo: Lesarmalas",-15.90733,167.17927,8400,dream,drim,drim,,poɾpoɾ,,,0
48741953109,"Wowo: Lesarmalas",-15.90733,167.17927,8400,dream,drim,drim,,"ti-nutuɾ poɾpoɾ",,,0
48741953109,"Wowo: Lesarmalas",-15.90733,167.17927,8410,sleep,silip,silip,,ti-natuɾ,,,0
48741953109,"Wowo: Lesarmalas",-15.90733,167.17927,8420,live,laev,laev,,ti-nɛvəɾe,,,0
48741953109,"Wowo: Lesarmalas",-15.90733,167.17927,8430,die,ded,ded,,..,,,0
48741953109,"Wowo: Lesarmalas",-15.90733,167.17927,8440,kill,kilimded,kilimded,,tu-rum-vana,,,0
48741953109,"Wowo: Lesarmalas",-15.90733,167.17927,8510,see,luk,luk,,-la,,,0
48741953109,"Wowo: Lesarmalas",-15.90733,167.17927,8520,hear,harem,harem,,tu-roŋɔɸ,,,0
48741953109,"Wowo: Lesarmalas",-15.90733,167.17927,8540,sniff,smel,smel,,..,,,0
48741953109,"Wowo: Lesarmalas",-15.90733,167.17927,8580,laugh,laf,laf,,ti-ðaur,,,0
48741953109,"Wowo: Lesarmalas",-15.90733,167.17927,8590,cry,krae,krae,,ti-ŋaɾ,,,0
48741953109,"Wowo: Lesarmalas",-15.90733,167.17927,8670,blow,blo,blo,,..,,,0
48741953109,"Wowo: Lesarmalas",-15.90733,167.17927,8680,burn,bon,bon,,ti-gan,,,0
48741953109,"Wowo: Lesarmalas",-15.90733,167.17927,8740,sew,somap,somap,,..,,,0
48741953109,"Wowo: Lesarmalas",-15.90733,167.17927,8800,pound,kilkilim,kilkilim,,tu-ruᵐbuɾuᵐb,,,0
48741953109,"Wowo: Lesarmalas",-15.90733,167.17927,8810,hit,kilim,kilim,,tu-rump,,,0
48741953109,"Wowo: Lesarmalas",-15.90733,167.17927,8870,cut,katem,katem,,u-hinde,,,0
48741953109,"Wowo: Lesarmalas",-15.90733,167.17927,8880,split,spletem,spletem,,..,,,0
48741953109,"Wowo: Lesarmalas",-15.90733,167.17927,8890,dig,digim,digim,,ti-giɬ,,,0
48741953109,"Wowo: Lesarmalas",-15.90733,167.17927,8920,hunt,kasem,kasem,,tu-hoɣoɾ,,,0
48741953109,"Wowo: Lesarmalas",-15.90733,167.17927,8930,hold,holem,holem,,tu-vuɾu,,,0
48741953109,"Wowo: Lesarmalas",-15.90733,167.17927,8950,fear,fraet,fraet,,tu-luɣɔ,,,0
48741953109,"Wowo: Lesarmalas",-15.90733,167.17927,8960,count,kaontem,kaontem,,u-hɛrzɪn,,,0
48741953109,"Wowo: Lesarmalas",-15.90733,167.17927,8970,breathe,pulum_win,pulum_win,,..,,,0
48741953109,"Wowo: Lesarmalas",-15.90733,167.17927,9000,vomit,traot,traot,,tu-luluɛ,,,0
48741953109,"Wowo: Lesarmalas",-15.90733,167.17927,9010,tie,fasem_taet,fasem_taet,,..,,,0
48741953109,"Wowo: Lesarmalas",-15.90733,167.17927,9020,squeeze,skwisim,skwisim,,tɪ-vihiɣin,,,0
48741953109,"Wowo: Lesarmalas",-15.90733,167.17927,9030,swell,solap,solap,,tu-vuvun,,,0
48741953109,"Wowo: Lesarmalas",-15.90733,167.17927,9040,say,talem,talem,,ti-var,,,0
48741953109,"Wowo: Lesarmalas",-15.90733,167.17927,9050,scratch,sikrasem,sikrasem,,-koskos,,,0
48741953109,"Wowo: Lesarmalas",-15.90733,167.17927,9060,stab,stikim,stikim,,ti-haɾa,,,0
48741953109,"Wowo: Lesarmalas",-15.90733,167.17927,9120,buy,pem,pem,,tu-vol,,,0
48741953109,"Wowo: Lesarmalas",-15.90733,167.17927,9130,steal,stilim,stilim,,-aðma,,,0
48741953109,"Wowo: Lesarmalas",-15.90733,167.17927,9180,plant,planem,planem,,tu-ɾuɸ,,,0
48741953109,"Wowo: Lesarmalas",-15.90733,167.17927,9220,cook,kuk,kuk,,..,,,0
48741953109,"Wowo: Lesarmalas",-15.90733,167.17927,9400,shoot,shutum,shutum,,..,,,0
48741953109,"Wowo: Lesarmalas",-15.90733,167.17927,9500,work,wok,wok,,tɪ-ðeahax,,,0
48741953109,"Wowo: Lesarmalas",-15.90733,167.17927,9620,open,openem,openem,,..,,,0
48741954109,"Wowo: Wowo",-15.90224,167.18459,8020,come,kam,kam,,-ma,,,0
48741954109,"Wowo: Wowo",-15.90224,167.18459,8030,walk,wokabaot,wokabaot,,-tia,,,0
48741954109,"Wowo: Wowo",-15.90224,167.18459,8110,stand,stanap,stanap,,tu-toɾo,,,0
48741954109,"Wowo: Wowo",-15.90224,167.18459,8120,sit,sidaon,sidaon,,ti-at,,,0
48741954109,"Wowo: Wowo",-15.90224,167.18459,8130,fall,foldaon,foldaon,,tu-soð,,,0
48741954109,"Wowo: Wowo",-15.90224,167.18459,8140,lie_down,ledaon,ledaon,,..,,,0
48741954109,"Wowo: Wowo",-15.90224,167.18459,8150,turn,tanem,tanem,,ho-ror,,,0
48741954109,"Wowo: Wowo",-15.90224,167.18459,8180,climb,klaem,klaem,,ti-hax,,,0
48741954109,"Wowo: Wowo",-15.90224,167.18459,8210,swim,swim,swim,,..,,,0
48741954109,"Wowo: Wowo",-15.90224,167.18459,8220,fly_verb,flae,flae,,ti-tahix,,,0
48741954109,"Wowo: Wowo",-15.90224,167.18459,8260,throw,sakemaot,sakemaot,,ho-vɛrɪn,,,0
48741954109,"Wowo: Wowo",-15.90224,167.18459,8270,hide,haetem,haetem,,u-tehuwun,,,0
48741954109,"Wowo: Wowo",-15.90224,167.18459,8310,eat,kakae,kakae,,tu-or,,,0
48741954109,"Wowo: Wowo",-15.90224,167.18459,8320,drink,drink,drink,,tu-num,,,0
48741954109,"Wowo: Wowo",-15.90224,167.18459,8360,yawn,wantem_silip,wantem_silip,,ti-nanað,,,0
48741954109,"Wowo: Wowo",-15.90224,167.18459,8370,spit,spet,spet,,tu-lutuð,,,0
48741954109,"Wowo: Wowo",-15.90224,167.18459,8400,dream,drim,drim,,poɾpoɾ,,,0
48741954109,"Wowo: Wowo",-15.90224,167.18459,8400,dream,drim,drim,,"ti-natuɾ poɾpoɾ",,,0
48741954109,"Wowo: Wowo",-15.90224,167.18459,8410,sleep,silip,silip,,ti-natuɾ,,,0
48741954109,"Wowo: Wowo",-15.90224,167.18459,8420,live,laev,laev,,ti-nɛvɘre,,,0
48741954109,"Wowo: Wowo",-15.90224,167.18459,8430,die,ded,ded,,ti-na,,,0
48741954109,"Wowo: Wowo",-15.90224,167.18459,8440,kill,kilimded,kilimded,,tu-rum-vana,,,0
48741954109,"Wowo: Wowo",-15.90224,167.18459,8510,see,luk,luk,,ti-lɛ,,,0
48741954109,"Wowo: Wowo",-15.90224,167.18459,8520,hear,harem,harem,,tu-roŋɔ,,,0
48741954109,"Wowo: Wowo",-15.90224,167.18459,8540,sniff,smel,smel,,ho-ᵐbuno,,,0
48741954109,"Wowo: Wowo",-15.90224,167.18459,8580,laugh,laf,laf,,ti-ðaur,,,0
48741954109,"Wowo: Wowo",-15.90224,167.18459,8590,cry,krae,krae,,ti-ŋar,,,0
48741954109,"Wowo: Wowo",-15.90224,167.18459,8670,blow,blo,blo,,ti-her,,,0
48741954109,"Wowo: Wowo",-15.90224,167.18459,8680,burn,bon,bon,,..,,,0
48741954109,"Wowo: Wowo",-15.90224,167.18459,8740,sew,somap,somap,,-rur,,,0
48741954109,"Wowo: Wowo",-15.90224,167.18459,8800,pound,kilkilim,kilkilim,,to-rumrum,,,0
48741954109,"Wowo: Wowo",-15.90224,167.18459,8810,hit,kilim,kilim,,tu-rum,,,0
48741954109,"Wowo: Wowo",-15.90224,167.18459,8870,cut,katem,katem,,ti-hinde,,,0
48741954109,"Wowo: Wowo",-15.90224,167.18459,8880,split,spletem,spletem,,..,,,0
48741954109,"Wowo: Wowo",-15.90224,167.18459,8890,dig,digim,digim,,ti-gil,,,0
48741954109,"Wowo: Wowo",-15.90224,167.18459,8920,hunt,kasem,kasem,,tu-xoroɾ,,,0
48741954109,"Wowo: Wowo",-15.90224,167.18459,8930,hold,holem,holem,,tu-vuɾu,,,0
48741954109,"Wowo: Wowo",-15.90224,167.18459,8950,fear,fraet,fraet,,tu-luwɔ,,,0
48741954109,"Wowo: Wowo",-15.90224,167.18459,8960,count,kaontem,kaontem,,ho-hɛrtɪn,,,0
48741954109,"Wowo: Wowo",-15.90224,167.18459,8970,breathe,pulum_win,pulum_win,,..,,,0
48741954109,"Wowo: Wowo",-15.90224,167.18459,9000,vomit,traot,traot,,tu-lulue,,,0
48741954109,"Wowo: Wowo",-15.90224,167.18459,9010,tie,fasem_taet,fasem_taet,,ho-sal,,,0
48741954109,"Wowo: Wowo",-15.90224,167.18459,9020,squeeze,skwisim,skwisim,,ti-vihiɣin,,,0
48741954109,"Wowo: Wowo",-15.90224,167.18459,9030,swell,solap,solap,,tu-wuwun,,,0
48741954109,"Wowo: Wowo",-15.90224,167.18459,9040,say,talem,talem,,ho-var,,,0
48741954109,"Wowo: Wowo",-15.90224,167.18459,9050,scratch,sikrasem,sikrasem,,tu-koskos,,,0
48741954109,"Wowo: Wowo",-15.90224,167.18459,9060,stab,stikim,stikim,,ti-haɾa,,,0
48741954109,"Wowo: Wowo",-15.90224,167.18459,9120,buy,pem,pem,,tu-wʊl,,,0
48741954109,"Wowo: Wowo",-15.90224,167.18459,9130,steal,stilim,stilim,,ti-ðanaɣin,,,0
48741954109,"Wowo: Wowo",-15.90224,167.18459,9180,plant,planem,planem,,tu-hurup,,,0
48741954109,"Wowo: Wowo",-15.90224,167.18459,9220,cook,kuk,kuk,,..,,,0
48741954109,"Wowo: Wowo",-15.90224,167.18459,9400,shoot,shutum,shutum,,..,,,0
48741954109,"Wowo: Wowo",-15.90224,167.18459,9500,work,wok,wok,,tɪ-ðeax,,,0
48741954109,"Wowo: Wowo",-15.90224,167.18459,9620,open,openem,openem,,..,,,0
48741956109,"Alavas: Wowo",-15.90293,167.18499,8020,come,kam,kam,,-ma,,,0
48741956109,"Alavas: Wowo",-15.90293,167.18499,8030,walk,wokabaot,wokabaot,,ni-tia,,,0
48741956109,"Alavas: Wowo",-15.90293,167.18499,8110,stand,stanap,stanap,,ho-turo,,,0
48741956109,"Alavas: Wowo",-15.90293,167.18499,8110,stand,stanap,stanap,,"ho-turo maro",,,0
48741956109,"Alavas: Wowo",-15.90293,167.18499,8120,sit,sidaon,sidaon,,nitiat,,,0
48741956109,"Alavas: Wowo",-15.90293,167.18499,8130,fall,foldaon,foldaon,,..,,,0
48741956109,"Alavas: Wowo",-15.90293,167.18499,8140,lie_down,ledaon,ledaon,,..,,,0
48741956109,"Alavas: Wowo",-15.90293,167.18499,8150,turn,tanem,tanem,,ho-roro,,,0
48741956109,"Alavas: Wowo",-15.90293,167.18499,8180,climb,klaem,klaem,,-hax,,,0
48741956109,"Alavas: Wowo",-15.90293,167.18499,8180,climb,klaem,klaem,,"-hax maro",,,0
48741956109,"Alavas: Wowo",-15.90293,167.18499,8210,swim,swim,swim,,ni-tial,,,0
48741956109,"Alavas: Wowo",-15.90293,167.18499,8220,fly_verb,flae,flae,,ti-tahiɣ,,,0
48741956109,"Alavas: Wowo",-15.90293,167.18499,8260,throw,sakemaot,sakemaot,,ho-vɛrɪn,,,0
48741956109,"Alavas: Wowo",-15.90293,167.18499,8270,hide,haetem,haetem,,u-vtehuwun,,,0
48741956109,"Alavas: Wowo",-15.90293,167.18499,8310,eat,kakae,kakae,,nutu-or,,,0
48741956109,"Alavas: Wowo",-15.90293,167.18499,8320,drink,drink,drink,,nu-num,,,0
48741956109,"Alavas: Wowo",-15.90293,167.18499,8360,yawn,wantem_silip,wantem_silip,,ninanað,,,0
48741956109,"Alavas: Wowo",-15.90293,167.18499,8370,spit,spet,spet,,nu-lutʊð,,,0
48741956109,"Alavas: Wowo",-15.90293,167.18499,8400,dream,drim,drim,,poɾpoɾo,,,0
48741956109,"Alavas: Wowo",-15.90293,167.18499,8400,dream,drim,drim,,"-nutur poɾpoɾo",,,0
48741956109,"Alavas: Wowo",-15.90293,167.18499,8410,sleep,silip,silip,,na-tuɾu,,,0
48741956109,"Alavas: Wowo",-15.90293,167.18499,8420,live,laev,laev,,ti-nevəɾe,,,0
48741956109,"Alavas: Wowo",-15.90293,167.18499,8430,die,ded,ded,,ti-na,,,0
48741956109,"Alavas: Wowo",-15.90293,167.18499,8440,kill,kilimded,kilimded,,ho-rum-bana,,,0
48741956109,"Alavas: Wowo",-15.90293,167.18499,8510,see,luk,luk,,..,,,0
48741956109,"Alavas: Wowo",-15.90293,167.18499,8520,hear,harem,harem,,nu-roŋɔ,,,0
48741956109,"Alavas: Wowo",-15.90293,167.18499,8540,sniff,smel,smel,,..,,,0
48741956109,"Alavas: Wowo",-15.90293,167.18499,8580,laugh,laf,laf,,ni-ðauru,,,0
48741956109,"Alavas: Wowo",-15.90293,167.18499,8590,cry,krae,krae,,niti-ŋara,,,0
48741956109,"Alavas: Wowo",-15.90293,167.18499,8670,blow,blo,blo,,..,,,0
48741956109,"Alavas: Wowo",-15.90293,167.18499,8680,burn,bon,bon,,ti-ɣam,,,0
48741956109,"Alavas: Wowo",-15.90293,167.18499,8740,sew,somap,somap,,o-rur,,,0
48741956109,"Alavas: Wowo",-15.90293,167.18499,8800,pound,kilkilim,kilkilim,,u-ruᵐburuᵐb,,,0
48741956109,"Alavas: Wowo",-15.90293,167.18499,8810,hit,kilim,kilim,,o-rump,,,0
48741956109,"Alavas: Wowo",-15.90293,167.18499,8870,cut,katem,katem,,wu-hinde,,,0
48741956109,"Alavas: Wowo",-15.90293,167.18499,8880,split,spletem,spletem,,..,,,0
48741956109,"Alavas: Wowo",-15.90293,167.18499,8890,dig,digim,digim,,ho-giɬ,,,0
48741956109,"Alavas: Wowo",-15.90293,167.18499,8920,hunt,kasem,kasem,,ho-xoroɾɔ,,,0
48741956109,"Alavas: Wowo",-15.90293,167.18499,8930,hold,holem,holem,,..,,,0
48741956109,"Alavas: Wowo",-15.90293,167.18499,8950,fear,fraet,fraet,,nu-tulɣɔ,,,0
48741956109,"Alavas: Wowo",-15.90293,167.18499,8960,count,kaontem,kaontem,,wo-hɛrtɪn,,,0
48741956109,"Alavas: Wowo",-15.90293,167.18499,8970,breathe,pulum_win,pulum_win,,..,,,0
48741956109,"Alavas: Wowo",-15.90293,167.18499,9000,vomit,traot,traot,,nu-lulue,,,0
48741956109,"Alavas: Wowo",-15.90293,167.18499,9010,tie,fasem_taet,fasem_taet,,..,,,0
48741956109,"Alavas: Wowo",-15.90293,167.18499,9020,squeeze,skwisim,skwisim,,u-vihiɣil,,,0
48741956109,"Alavas: Wowo",-15.90293,167.18499,9030,swell,solap,solap,,tu-vuwun,,,0
48741956109,"Alavas: Wowo",-15.90293,167.18499,9040,say,talem,talem,,ho-vʷaɾa,,,0
48741956109,"Alavas: Wowo",-15.90293,167.18499,9050,scratch,sikrasem,sikrasem,,..,,,0
48741956109,"Alavas: Wowo",-15.90293,167.18499,9060,stab,stikim,stikim,,o-haɾa,,,0
48741956109,"Alavas: Wowo",-15.90293,167.18499,9120,buy,pem,pem,,hovo-wʊɬ,,,0
48741956109,"Alavas: Wowo",-15.90293,167.18499,9130,steal,stilim,stilim,,-ðanax,,,0
48741956109,"Alavas: Wowo",-15.90293,167.18499,9180,plant,planem,planem,,o-ruɸ,,,0
48741956109,"Alavas: Wowo",-15.90293,167.18499,9220,cook,kuk,kuk,,..,,,0
48741956109,"Alavas: Wowo",-15.90293,167.18499,9400,shoot,shutum,shutum,,..,,,0
48741956109,"Alavas: Wowo",-15.90293,167.18499,9500,work,wok,wok,,wo-ðɛahax,,,0
48741956109,"Alavas: Wowo",-15.90293,167.18499,9620,open,openem,openem,,-ware,,,0
48741957109,"Alavas: Alavas",-15.89046,167.24151,8020,come,kam,kam,,..,,,0
48741957109,"Alavas: Alavas",-15.89046,167.24151,8030,walk,wokabaot,wokabaot,,..,,,0
48741957109,"Alavas: Alavas",-15.89046,167.24151,8110,stand,stanap,stanap,,nu-tutoro,,,0
48741957109,"Alavas: Alavas",-15.89046,167.24151,8120,sit,sidaon,sidaon,,niti-at,,,0
48741957109,"Alavas: Alavas",-15.89046,167.24151,8130,fall,foldaon,foldaon,,tu-soð,,,0
48741957109,"Alavas: Alavas",-15.89046,167.24151,8140,lie_down,ledaon,ledaon,,..,,,0
48741957109,"Alavas: Alavas",-15.89046,167.24151,8150,turn,tanem,tanem,,nu-ror,,,0
48741957109,"Alavas: Alavas",-15.89046,167.24151,8180,climb,klaem,klaem,,wa-hax,,,0
48741957109,"Alavas: Alavas",-15.89046,167.24151,8210,swim,swim,swim,,ni-tial,,,0
48741957109,"Alavas: Alavas",-15.89046,167.24151,8220,fly_verb,flae,flae,,ti-tahix,,,0
48741957109,"Alavas: Alavas",-15.89046,167.24151,8260,throw,sakemaot,sakemaot,,u-vis,,,0
48741957109,"Alavas: Alavas",-15.89046,167.24151,8270,hide,haetem,haetem,,wu-vtehuwun,,,0
48741957109,"Alavas: Alavas",-15.89046,167.24151,8310,eat,kakae,kakae,,nutu-or,,,0
48741957109,"Alavas: Alavas",-15.89046,167.24151,8320,drink,drink,drink,,nu-num,,,0
48741957109,"Alavas: Alavas",-15.89046,167.24151,8360,yawn,wantem_silip,wantem_silip,,ni-nanað,,,0
48741957109,"Alavas: Alavas",-15.89046,167.24151,8370,spit,spet,spet,,nu-luvtuθ,,,0
48741957109,"Alavas: Alavas",-15.89046,167.24151,8400,dream,drim,drim,,poɾpoɾ,,,0
48741957109,"Alavas: Alavas",-15.89046,167.24151,8400,dream,drim,drim,,"nu-nutuɾ poɾpoɾ",,,0
48741957109,"Alavas: Alavas",-15.89046,167.24151,8410,sleep,silip,silip,,nu-tuɾu-ɛl,,,0
48741957109,"Alavas: Alavas",-15.89046,167.24151,8420,live,laev,laev,,ti-nɛvere,,,0
48741957109,"Alavas: Alavas",-15.89046,167.24151,8430,die,ded,ded,,ti-na,,,0
48741957109,"Alavas: Alavas",-15.89046,167.24151,8440,kill,kilimded,kilimded,,u-ɾum-bana,,,0
48741957109,"Alavas: Alavas",-15.89046,167.24151,8510,see,luk,luk,,ni-lɛ,,,0
48741957109,"Alavas: Alavas",-15.89046,167.24151,8520,hear,harem,harem,,nu-roŋɔ,,,0
48741957109,"Alavas: Alavas",-15.89046,167.24151,8540,sniff,smel,smel,,..,,,0
48741957109,"Alavas: Alavas",-15.89046,167.24151,8580,laugh,laf,laf,,nɛ-ðauru,,,0
48741957109,"Alavas: Alavas",-15.89046,167.24151,8590,cry,krae,krae,,niti-ŋara,,,0
48741957109,"Alavas: Alavas",-15.89046,167.24151,8670,blow,blo,blo,,ti-hiɾi,,,0
48741957109,"Alavas: Alavas",-15.89046,167.24151,8680,burn,bon,bon,,ti-gan,,,0
48741957109,"Alavas: Alavas",-15.89046,167.24151,8740,sew,somap,somap,,wu-ruɾu,,,0
48741957109,"Alavas: Alavas",-15.89046,167.24151,8800,pound,kilkilim,kilkilim,,u-ruᵐbuɾuᵐb,,,0
48741957109,"Alavas: Alavas",-15.89046,167.24151,8810,hit,kilim,kilim,,u-ɾumbə,,,0
48741957109,"Alavas: Alavas",-15.89046,167.24151,8870,cut,katem,katem,,wu-hinde,,,0
48741957109,"Alavas: Alavas",-15.89046,167.24151,8880,split,spletem,spletem,,..,,,0
48741957109,"Alavas: Alavas",-15.89046,167.24151,8890,dig,digim,digim,,wo-ɣil,,,0
48741957109,"Alavas: Alavas",-15.89046,167.24151,8920,hunt,kasem,kasem,,..,,,0
48741957109,"Alavas: Alavas",-15.89046,167.24151,8930,hold,holem,holem,,u-vuɾuʰ,,,0
48741957109,"Alavas: Alavas",-15.89046,167.24151,8950,fear,fraet,fraet,,nu-tulɣɔ,,,0
48741957109,"Alavas: Alavas",-15.89046,167.24151,8960,count,kaontem,kaontem,,wɛ-hɛrtɪn,,,0
48741957109,"Alavas: Alavas",-15.89046,167.24151,8970,breathe,pulum_win,pulum_win,,..,,,0
48741957109,"Alavas: Alavas",-15.89046,167.24151,9000,vomit,traot,traot,,nu-nulue,,,0
48741957109,"Alavas: Alavas",-15.89046,167.24151,9010,tie,fasem_taet,fasem_taet,,wo-sal,,,0
48741957109,"Alavas: Alavas",-15.89046,167.24151,9020,squeeze,skwisim,skwisim,,o-vihiɣɪn,,,0
48741957109,"Alavas: Alavas",-15.89046,167.24151,9030,swell,solap,solap,,tu-wuwun,,,0
48741957109,"Alavas: Alavas",-15.89046,167.24151,9040,say,talem,talem,,o-vaɾa,,,0
48741957109,"Alavas: Alavas",-15.89046,167.24151,9050,scratch,sikrasem,sikrasem,,o-koskos,,,0
48741957109,"Alavas: Alavas",-15.89046,167.24151,9060,stab,stikim,stikim,,wo-haɾa,,,0
48741957109,"Alavas: Alavas",-15.89046,167.24151,9120,buy,pem,pem,,wo-vol,,,0
48741957109,"Alavas: Alavas",-15.89046,167.24151,9130,steal,stilim,stilim,,wu-ðanax,,,0
48741957109,"Alavas: Alavas",-15.89046,167.24151,9180,plant,planem,planem,,u-ruɸ,,,0
48741957109,"Alavas: Alavas",-15.89046,167.24151,9220,cook,kuk,kuk,,..,,,0
48741957109,"Alavas: Alavas",-15.89046,167.24151,9400,shoot,shutum,shutum,,wu-ðin,,,0
48741957109,"Alavas: Alavas",-15.89046,167.24151,9500,work,wok,wok,,wo-ðehax,,,0
48741957109,"Alavas: Alavas",-15.89046,167.24151,9620,open,openem,openem,,..,,,0
