LanguageId,LanguageName,Latitude,Longitude,WordId,WordModernName1,WordModernName2,WordProtoName1,WordProtoName2,Phonetic,SpellingAltv1,SpellingAltv2,NotCognateWithMainWordInThisFamily
48741151109,"V’ënen Taute: Alpalak",-15.99722,167.1825,10,one,wan,wan,,i-amk,,,0
48741151109,"V’ënen Taute: Alpalak",-15.99722,167.1825,20,two,tu,tu,,i-ru,,,0
48741151109,"V’ënen Taute: Alpalak",-15.99722,167.1825,30,three,tri,tri,,i-tl,,,0
48741151109,"V’ënen Taute: Alpalak",-15.99722,167.1825,40,four,fo,fo,,i-ð̼a,,,0
48741151109,"V’ënen Taute: Alpalak",-15.99722,167.1825,50,five,faiv,faiv,,i-lɪm,,,0
48741151109,"V’ënen Taute: Alpalak",-15.99722,167.1825,60,six,sikis,sikis,,i-lɪmse,,,0
48741151109,"V’ënen Taute: Alpalak",-15.99722,167.1825,70,seven,seven,seven,,i-saru,,,0
48741151109,"V’ënen Taute: Alpalak",-15.99722,167.1825,80,eight,eit,eit,,i-satl,,,0
48741151109,"V’ënen Taute: Alpalak",-15.99722,167.1825,90,nine,naen,naen,,i-savɛt,,,0
48741151109,"V’ënen Taute: Alpalak",-15.99722,167.1825,100,ten,ten,ten,,i-naɬ,,,0
48741151109,"V’ënen Taute: Alpalak",-15.99722,167.1825,110,twenty,twenti,twenti,,i-nɛl-ru,,,0
48741151109,"V’ënen Taute: Alpalak",-15.99722,167.1825,150,fifty,fifti,fifti,,i-nɛ-lɪm,,,0
48741151109,"V’ënen Taute: Alpalak",-15.99722,167.1825,200,one_hundred,wan_hundred,wan_hundred,,i-nɛɬnalivamk,,,0
48741151109,"V’ënen Taute: Alpalak",-15.99722,167.1825,210,one_thousand,wan_taosan,wan_taosan,,..,,,0
48741153209,"V’ënen Taute: Benenavet",-16.02038,167.17671,10,one,wan,wan,,iamk,,,0
48741153209,"V’ënen Taute: Benenavet",-16.02038,167.17671,20,two,tu,tu,,iru,,,0
48741153209,"V’ënen Taute: Benenavet",-16.02038,167.17671,30,three,tri,tri,,artl,,,0
48741153209,"V’ënen Taute: Benenavet",-16.02038,167.17671,40,four,fo,fo,,arɪð̼a,,,0
48741153209,"V’ënen Taute: Benenavet",-16.02038,167.17671,50,five,faiv,faiv,,arɪlɪm,,,0
48741153209,"V’ënen Taute: Benenavet",-16.02038,167.17671,60,six,sikis,sikis,,..,,,0
48741153209,"V’ënen Taute: Benenavet",-16.02038,167.17671,70,seven,seven,seven,,saru,,,0
48741153209,"V’ënen Taute: Benenavet",-16.02038,167.17671,80,eight,eit,eit,,..,,,0
48741153209,"V’ënen Taute: Benenavet",-16.02038,167.17671,90,nine,naen,naen,,..,,,0
48741153209,"V’ënen Taute: Benenavet",-16.02038,167.17671,100,ten,ten,ten,,..,,,0
48741153209,"V’ënen Taute: Benenavet",-16.02038,167.17671,110,twenty,twenti,twenti,,..,,,0
48741153209,"V’ënen Taute: Benenavet",-16.02038,167.17671,150,fifty,fifti,fifti,,..,,,0
48741153209,"V’ënen Taute: Benenavet",-16.02038,167.17671,200,one_hundred,wan_hundred,wan_hundred,,..,,,0
48741153209,"V’ënen Taute: Benenavet",-16.02038,167.17671,210,one_thousand,wan_taosan,wan_taosan,,..,,,0
48741155209,"V’ënen Taute: Benmara",-16.05552,167.23261,10,one,wan,wan,,i-amk,,,0
48741155209,"V’ënen Taute: Benmara",-16.05552,167.23261,20,two,tu,tu,,i-ru,,,0
48741155209,"V’ënen Taute: Benmara",-16.05552,167.23261,30,three,tri,tri,,i-tl,,,0
48741155209,"V’ënen Taute: Benmara",-16.05552,167.23261,40,four,fo,fo,,i-ð̼a,,,0
48741155209,"V’ënen Taute: Benmara",-16.05552,167.23261,50,five,faiv,faiv,,i-lɪm,,,0
48741155209,"V’ënen Taute: Benmara",-16.05552,167.23261,60,six,sikis,sikis,,i-lɪmse,,,0
48741155209,"V’ënen Taute: Benmara",-16.05552,167.23261,70,seven,seven,seven,,i-saru,,,0
48741155209,"V’ënen Taute: Benmara",-16.05552,167.23261,80,eight,eit,eit,,i-satl,,,0
48741155209,"V’ënen Taute: Benmara",-16.05552,167.23261,90,nine,naen,naen,,i-savɛð̼,,,0
48741155209,"V’ënen Taute: Benmara",-16.05552,167.23261,100,ten,ten,ten,,i-naɬ,,,0
48741155209,"V’ënen Taute: Benmara",-16.05552,167.23261,110,twenty,twenti,twenti,,i-nɛl-ru,,,0
48741155209,"V’ënen Taute: Benmara",-16.05552,167.23261,150,fifty,fifti,fifti,,i-nɛ-lɪm,,,0
48741155209,"V’ënen Taute: Benmara",-16.05552,167.23261,200,one_hundred,wan_hundred,wan_hundred,,-nɛɬnalɪvamk,,,0
48741155209,"V’ënen Taute: Benmara",-16.05552,167.23261,210,one_thousand,wan_taosan,wan_taosan,,..,,,0
48741157409,"V’ënen Taute: Unmet",-16.15371,167.26022,10,one,wan,wan,,isɪt,,,0
48741157409,"V’ënen Taute: Unmet",-16.15371,167.26022,20,two,tu,tu,,iru,,,0
48741157409,"V’ënen Taute: Unmet",-16.15371,167.26022,30,three,tri,tri,,i-tl,,,0
48741157409,"V’ënen Taute: Unmet",-16.15371,167.26022,40,four,fo,fo,,i-va,,,0
48741157409,"V’ënen Taute: Unmet",-16.15371,167.26022,50,five,faiv,faiv,,i-lɪm,,,0
48741157409,"V’ënen Taute: Unmet",-16.15371,167.26022,60,six,sikis,sikis,,lɪmse,,,0
48741157409,"V’ënen Taute: Unmet",-16.15371,167.26022,70,seven,seven,seven,,saru,,,0
48741157409,"V’ënen Taute: Unmet",-16.15371,167.26022,80,eight,eit,eit,,satl,,,0
48741157409,"V’ënen Taute: Unmet",-16.15371,167.26022,90,nine,naen,naen,,savɛt,,,0
48741157409,"V’ënen Taute: Unmet",-16.15371,167.26022,100,ten,ten,ten,,snaɬ,,,0
48741157409,"V’ënen Taute: Unmet",-16.15371,167.26022,110,twenty,twenti,twenti,,i-nɛl-ru,,,0
48741157409,"V’ënen Taute: Unmet",-16.15371,167.26022,150,fifty,fifti,fifti,,i-nɛ-lɪm,,,0
48741157409,"V’ënen Taute: Unmet",-16.15371,167.26022,200,one_hundred,wan_hundred,wan_hundred,,i-nɛɬnalivank,,,0
48741157409,"V’ënen Taute: Unmet",-16.15371,167.26022,210,one_thousand,wan_taosan,wan_taosan,,..,,,0
48741158409,"V’ënen Taute: Hamax",-16.111,167.249,10,one,wan,wan,,i-amk,,,0
48741158409,"V’ënen Taute: Hamax",-16.111,167.249,20,two,tu,tu,,i-ru,,,0
48741158409,"V’ënen Taute: Hamax",-16.111,167.249,30,three,tri,tri,,ar-tl,,,0
48741158409,"V’ënen Taute: Hamax",-16.111,167.249,40,four,fo,fo,,arɪ-ð̼a,,,0
48741158409,"V’ënen Taute: Hamax",-16.111,167.249,50,five,faiv,faiv,,arɪ-lɪm,,,0
48741158409,"V’ënen Taute: Hamax",-16.111,167.249,60,six,sikis,sikis,,..,,,0
48741158409,"V’ënen Taute: Hamax",-16.111,167.249,70,seven,seven,seven,,saru,,,0
48741158409,"V’ënen Taute: Hamax",-16.111,167.249,80,eight,eit,eit,,..,,,0
48741158409,"V’ënen Taute: Hamax",-16.111,167.249,90,nine,naen,naen,,..,,,0
48741158409,"V’ënen Taute: Hamax",-16.111,167.249,100,ten,ten,ten,,..,,,0
48741158409,"V’ënen Taute: Hamax",-16.111,167.249,110,twenty,twenti,twenti,,..,,,0
48741158409,"V’ënen Taute: Hamax",-16.111,167.249,150,fifty,fifti,fifti,,..,,,0
48741158409,"V’ënen Taute: Hamax",-16.111,167.249,200,one_hundred,wan_hundred,wan_hundred,,..,,,0
48741158409,"V’ënen Taute: Hamax",-16.111,167.249,210,one_thousand,wan_taosan,wan_taosan,,..,,,0
48741322109,"Espiegel’s Bay: Solwota",-15.979,167.192,10,one,wan,wan,,-səɣal,,,0
48741322109,"Espiegel’s Bay: Solwota",-15.979,167.192,20,two,tu,tu,,-ru,,,0
48741322109,"Espiegel’s Bay: Solwota",-15.979,167.192,30,three,tri,tri,,-til,,,0
48741322109,"Espiegel’s Bay: Solwota",-15.979,167.192,40,four,fo,fo,,-vat,,,0
48741322109,"Espiegel’s Bay: Solwota",-15.979,167.192,50,five,faiv,faiv,,-lɪm,,,0
48741322109,"Espiegel’s Bay: Solwota",-15.979,167.192,60,six,sikis,sikis,,-ɣoɛn,,,0
48741322109,"Espiegel’s Bay: Solwota",-15.979,167.192,70,seven,seven,seven,,-xɪmbit,,,0
48741322109,"Espiegel’s Bay: Solwota",-15.979,167.192,80,eight,eit,eit,,-xuil,,,0
48741322109,"Espiegel’s Bay: Solwota",-15.979,167.192,90,nine,naen,naen,,-xasəv,,,0
48741322109,"Espiegel’s Bay: Solwota",-15.979,167.192,100,ten,ten,ten,,-siŋavil,,,0
48741322109,"Espiegel’s Bay: Solwota",-15.979,167.192,110,twenty,twenti,twenti,,"ŋovil i-ru",,,0
48741322109,"Espiegel’s Bay: Solwota",-15.979,167.192,150,fifty,fifti,fifti,,"ŋov i-lɪm",,,0
48741322109,"Espiegel’s Bay: Solwota",-15.979,167.192,200,one_hundred,wan_hundred,wan_hundred,,ŋovsɛŋavil,,,0
48741322109,"Espiegel’s Bay: Solwota",-15.979,167.192,210,one_thousand,wan_taosan,wan_taosan,,..,,,0
48741324209,"Espiegel’s Bay: Litebral",-15.974,167.193,10,one,wan,wan,,-səɣal,,,0
48741324209,"Espiegel’s Bay: Litebral",-15.974,167.193,20,two,tu,tu,,-ru,,,0
48741324209,"Espiegel’s Bay: Litebral",-15.974,167.193,30,three,tri,tri,,-til,,,0
48741324209,"Espiegel’s Bay: Litebral",-15.974,167.193,40,four,fo,fo,,-vat,,,0
48741324209,"Espiegel’s Bay: Litebral",-15.974,167.193,50,five,faiv,faiv,,-lɪm,,,0
48741324209,"Espiegel’s Bay: Litebral",-15.974,167.193,60,six,sikis,sikis,,-ɣoɛn,,,0
48741324209,"Espiegel’s Bay: Litebral",-15.974,167.193,70,seven,seven,seven,,-ɣɪmbit,,,0
48741324209,"Espiegel’s Bay: Litebral",-15.974,167.193,80,eight,eit,eit,,-ɣuil,,,0
48741324209,"Espiegel’s Bay: Litebral",-15.974,167.193,90,nine,naen,naen,,-ɣasəv,,,0
48741324209,"Espiegel’s Bay: Litebral",-15.974,167.193,100,ten,ten,ten,,-siŋavil,,,0
48741324209,"Espiegel’s Bay: Litebral",-15.974,167.193,110,twenty,twenti,twenti,,"ŋovil i-ru",,,0
48741324209,"Espiegel’s Bay: Litebral",-15.974,167.193,150,fifty,fifti,fifti,,"ŋov i-lim",,,0
48741324209,"Espiegel’s Bay: Litebral",-15.974,167.193,200,one_hundred,wan_hundred,wan_hundred,,ŋovsɛŋavil,,,0
48741324209,"Espiegel’s Bay: Litebral",-15.974,167.193,210,one_thousand,wan_taosan,wan_taosan,,..,,,0
48741324309,"Espiegel’s Bay: Unspecified",-15.98228,167.19103,150,fifty,fifti,fifti,,"mov i-lim",,,0
48741324309,"Espiegel’s Bay: Unspecified",-15.98228,167.19103,200,one_hundred,wan_hundred,wan_hundred,,movsiŋavil,,,0
48741324309,"Espiegel’s Bay: Unspecified",-15.98228,167.19103,210,one_thousand,wan_taosan,wan_taosan,,"movsiŋavil lu",,,0
48741326309,"Malua Bay: Coast",-15.98334,167.18798,10,one,wan,wan,,-saɣal,,,0
48741326309,"Malua Bay: Coast",-15.98334,167.18798,20,two,tu,tu,,i-ru,,,0
48741326309,"Malua Bay: Coast",-15.98334,167.18798,30,three,tri,tri,,i-til,,,0
48741326309,"Malua Bay: Coast",-15.98334,167.18798,40,four,fo,fo,,i-vat,,,0
48741326309,"Malua Bay: Coast",-15.98334,167.18798,50,five,faiv,faiv,,i-lɪm,,,0
48741326309,"Malua Bay: Coast",-15.98334,167.18798,60,six,sikis,sikis,,-ɣoɛn,,,0
48741326309,"Malua Bay: Coast",-15.98334,167.18798,70,seven,seven,seven,,-ɣɛᵐbit,,,0
48741326309,"Malua Bay: Coast",-15.98334,167.18798,80,eight,eit,eit,,-ɣoɛl,,,0
48741326309,"Malua Bay: Coast",-15.98334,167.18798,90,nine,naen,naen,,-ɣɛsɪf,,,0
48741326309,"Malua Bay: Coast",-15.98334,167.18798,100,ten,ten,ten,,-sɪŋavul,,,0
48741326309,"Malua Bay: Coast",-15.98334,167.18798,110,twenty,twenti,twenti,,"movɪl i-ru",,,0
48741326309,"Malua Bay: Coast",-15.98334,167.18798,150,fifty,fifti,fifti,,"mov ɪ-lɪm",,,0
48741326309,"Malua Bay: Coast",-15.98334,167.18798,200,one_hundred,wan_hundred,wan_hundred,,hovsiŋavul,,,0
48741326309,"Malua Bay: Coast",-15.98334,167.18798,210,one_thousand,wan_taosan,wan_taosan,,..,,,0
48741327409,"Malua Bay: Petarmul",-16.00022,167.22137,10,one,wan,wan,,-saɣal,,,0
48741327409,"Malua Bay: Petarmul",-16.00022,167.22137,20,two,tu,tu,,i-ru,,,0
48741327409,"Malua Bay: Petarmul",-16.00022,167.22137,30,three,tri,tri,,i-til,,,0
48741327409,"Malua Bay: Petarmul",-16.00022,167.22137,40,four,fo,fo,,i-vat,,,0
48741327409,"Malua Bay: Petarmul",-16.00022,167.22137,50,five,faiv,faiv,,i-lɪm,,,0
48741327409,"Malua Bay: Petarmul",-16.00022,167.22137,60,six,sikis,sikis,,i-ɣoɛn,,,0
48741327409,"Malua Bay: Petarmul",-16.00022,167.22137,70,seven,seven,seven,,i-ɣɛpɪt,,,0
48741327409,"Malua Bay: Petarmul",-16.00022,167.22137,80,eight,eit,eit,,i-ɣuil,,,0
48741327409,"Malua Bay: Petarmul",-16.00022,167.22137,90,nine,naen,naen,,i-ɣɛsɪv,,,0
48741327409,"Malua Bay: Petarmul",-16.00022,167.22137,100,ten,ten,ten,,i-sɛŋavɪl,,,0
48741327409,"Malua Bay: Petarmul",-16.00022,167.22137,110,twenty,twenti,twenti,,"ŋovul i-ru",,,0
48741327409,"Malua Bay: Petarmul",-16.00022,167.22137,150,fifty,fifti,fifti,,"ŋov ɪ-lɪm",,,0
48741327409,"Malua Bay: Petarmul",-16.00022,167.22137,200,one_hundred,wan_hundred,wan_hundred,,ŋovsɛŋavul,,,0
48741327409,"Malua Bay: Petarmul",-16.00022,167.22137,210,one_thousand,wan_taosan,wan_taosan,,..,,,0
48741328309,"Malua Bay: Tiptir",-15.9905,167.21991,10,one,wan,wan,,-saɣal,,,0
48741328309,"Malua Bay: Tiptir",-15.9905,167.21991,20,two,tu,tu,,i-ru,,,0
48741328309,"Malua Bay: Tiptir",-15.9905,167.21991,30,three,tri,tri,,i-til,,,0
48741328309,"Malua Bay: Tiptir",-15.9905,167.21991,40,four,fo,fo,,i-vat,,,0
48741328309,"Malua Bay: Tiptir",-15.9905,167.21991,50,five,faiv,faiv,,i-lɪm,,,0
48741328309,"Malua Bay: Tiptir",-15.9905,167.21991,60,six,sikis,sikis,,-ɣoɛn,,,0
48741328309,"Malua Bay: Tiptir",-15.9905,167.21991,70,seven,seven,seven,,-ɣɛᵐbit,,,0
48741328309,"Malua Bay: Tiptir",-15.9905,167.21991,80,eight,eit,eit,,-ɣoil,,,0
48741328309,"Malua Bay: Tiptir",-15.9905,167.21991,90,nine,naen,naen,,-ɣasɪv,,,0
48741328309,"Malua Bay: Tiptir",-15.9905,167.21991,100,ten,ten,ten,,-sɛŋavil,,,0
48741328309,"Malua Bay: Tiptir",-15.9905,167.21991,110,twenty,twenti,twenti,,"ŋovul i-ɾu",,,0
48741328309,"Malua Bay: Tiptir",-15.9905,167.21991,150,fifty,fifti,fifti,,"ŋov u-lɪm",,,0
48741328309,"Malua Bay: Tiptir",-15.9905,167.21991,200,one_hundred,wan_hundred,wan_hundred,,ŋovsɛŋavil,,,0
48741328309,"Malua Bay: Tiptir",-15.9905,167.21991,210,one_thousand,wan_taosan,wan_taosan,,..,,,0
48741328409,"Malua Bay: Marasup",-15.99098,167.2198,10,one,wan,wan,,-saɣal,,,0
48741328409,"Malua Bay: Marasup",-15.99098,167.2198,20,two,tu,tu,,i-ru,,,0
48741328409,"Malua Bay: Marasup",-15.99098,167.2198,30,three,tri,tri,,i-til,,,0
48741328409,"Malua Bay: Marasup",-15.99098,167.2198,40,four,fo,fo,,i-vat,,,0
48741328409,"Malua Bay: Marasup",-15.99098,167.2198,50,five,faiv,faiv,,i-lim,,,0
48741328409,"Malua Bay: Marasup",-15.99098,167.2198,60,six,sikis,sikis,,-xɔn,,,0
48741328409,"Malua Bay: Marasup",-15.99098,167.2198,70,seven,seven,seven,,-xɛᵐbit,,,0
48741328409,"Malua Bay: Marasup",-15.99098,167.2198,80,eight,eit,eit,,-xuil,,,0
48741328409,"Malua Bay: Marasup",-15.99098,167.2198,90,nine,naen,naen,,-ɣɛsiv,,,0
48741328409,"Malua Bay: Marasup",-15.99098,167.2198,100,ten,ten,ten,,-sɛŋavil,,,0
48741328409,"Malua Bay: Marasup",-15.99098,167.2198,110,twenty,twenti,twenti,,"movil i-ru",,,0
48741328409,"Malua Bay: Marasup",-15.99098,167.2198,150,fifty,fifti,fifti,,"mov i-lim",,,0
48741328409,"Malua Bay: Marasup",-15.99098,167.2198,200,one_hundred,wan_hundred,wan_hundred,,movsaŋavil,,,0
48741328409,"Malua Bay: Marasup",-15.99098,167.2198,210,one_thousand,wan_taosan,wan_taosan,,..,,,0
48741345109,"Najit: Tanmial",-15.94786,167.18226,10,one,wan,wan,,-saɣal,,,0
48741345109,"Najit: Tanmial",-15.94786,167.18226,20,two,tu,tu,,-ru,,,0
48741345109,"Najit: Tanmial",-15.94786,167.18226,30,three,tri,tri,,-til,,,0
48741345109,"Najit: Tanmial",-15.94786,167.18226,40,four,fo,fo,,-vat,,,0
48741345109,"Najit: Tanmial",-15.94786,167.18226,50,five,faiv,faiv,,-lɪm,,,0
48741345109,"Najit: Tanmial",-15.94786,167.18226,60,six,sikis,sikis,,-hoɛn,,,0
48741345109,"Najit: Tanmial",-15.94786,167.18226,70,seven,seven,seven,,-xɛᵐbit,,,0
48741345109,"Najit: Tanmial",-15.94786,167.18226,80,eight,eit,eit,,-xoɛl,,,0
48741345109,"Najit: Tanmial",-15.94786,167.18226,90,nine,naen,naen,,-xasɪf,,,0
48741345109,"Najit: Tanmial",-15.94786,167.18226,100,ten,ten,ten,,-siŋavil,,,0
48741345109,"Najit: Tanmial",-15.94786,167.18226,110,twenty,twenti,twenti,,"ŋovɪl i-ru",,,0
48741345109,"Najit: Tanmial",-15.94786,167.18226,150,fifty,fifti,fifti,,"ŋov ɪ-lɪm",,,0
48741345109,"Najit: Tanmial",-15.94786,167.18226,200,one_hundred,wan_hundred,wan_hundred,,"ŋov siŋavil",,,0
48741345109,"Najit: Tanmial",-15.94786,167.18226,210,one_thousand,wan_taosan,wan_taosan,,..,,,0
48741365109,"Nese: Tanmial",-15.9305,167.17653,10,one,wan,wan,,-saɣal,,,0
48741365109,"Nese: Tanmial",-15.9305,167.17653,20,two,tu,tu,,-ru,,,0
48741365109,"Nese: Tanmial",-15.9305,167.17653,30,three,tri,tri,,-til,,,0
48741365109,"Nese: Tanmial",-15.9305,167.17653,40,four,fo,fo,,-vat,,,0
48741365109,"Nese: Tanmial",-15.9305,167.17653,50,five,faiv,faiv,,-line,,,0
48741365109,"Nese: Tanmial",-15.9305,167.17653,60,six,sikis,sikis,,-ɣon,,,0
48741365109,"Nese: Tanmial",-15.9305,167.17653,70,seven,seven,seven,,-ɣoⁿdit,,,0
48741365109,"Nese: Tanmial",-15.9305,167.17653,80,eight,eit,eit,,-ɣoal,,,0
48741365109,"Nese: Tanmial",-15.9305,167.17653,90,nine,naen,naen,,-ɣɛsβe,,,0
48741365109,"Nese: Tanmial",-15.9305,167.17653,100,ten,ten,ten,,-saŋavil,,,0
48741365109,"Nese: Tanmial",-15.9305,167.17653,110,twenty,twenti,twenti,,"wovil ru",,,0
48741365109,"Nese: Tanmial",-15.9305,167.17653,150,fifty,fifti,fifti,,"wovul nɛ",,,0
48741365109,"Nese: Tanmial",-15.9305,167.17653,200,one_hundred,wan_hundred,wan_hundred,,"wov saŋavil",,,0
48741365109,"Nese: Tanmial",-15.9305,167.17653,210,one_thousand,wan_taosan,wan_taosan,,..,,,0
48741367209,"Nese: Sanboise",-15.91461,167.17833,10,one,wan,wan,,-saɣal,,,0
48741367209,"Nese: Sanboise",-15.91461,167.17833,20,two,tu,tu,,-ru,,,0
48741367209,"Nese: Sanboise",-15.91461,167.17833,30,three,tri,tri,,-til,,,0
48741367209,"Nese: Sanboise",-15.91461,167.17833,40,four,fo,fo,,-vat,,,0
48741367209,"Nese: Sanboise",-15.91461,167.17833,50,five,faiv,faiv,,-line,,,0
48741367209,"Nese: Sanboise",-15.91461,167.17833,60,six,sikis,sikis,,..,,,0
48741367209,"Nese: Sanboise",-15.91461,167.17833,70,seven,seven,seven,,-ɣoⁿdit,,,0
48741367209,"Nese: Sanboise",-15.91461,167.17833,80,eight,eit,eit,,-xoal,,,0
48741367209,"Nese: Sanboise",-15.91461,167.17833,90,nine,naen,naen,,..,,,0
48741367209,"Nese: Sanboise",-15.91461,167.17833,100,ten,ten,ten,,-saŋavil,,,0
48741367209,"Nese: Sanboise",-15.91461,167.17833,110,twenty,twenti,twenti,,"movil ru",,,0
48741367209,"Nese: Sanboise",-15.91461,167.17833,150,fifty,fifti,fifti,,..,,,0
48741367209,"Nese: Sanboise",-15.91461,167.17833,200,one_hundred,wan_hundred,wan_hundred,,..,,,0
48741367209,"Nese: Sanboise",-15.91461,167.17833,210,one_thousand,wan_taosan,wan_taosan,,..,,,0
48741556509,"Vao: Beetehul",-15.89728,167.30443,10,one,wan,wan,,ɣɛte,,,0
48741556509,"Vao: Beetehul",-15.89728,167.30443,20,two,tu,tu,,ɣɛru,,,0
48741556509,"Vao: Beetehul",-15.89728,167.30443,30,three,tri,tri,,ɣɛ-tul,,,0
48741556509,"Vao: Beetehul",-15.89728,167.30443,40,four,fo,fo,,ɣɛ-ð̼̼at,,,0
48741556509,"Vao: Beetehul",-15.89728,167.30443,50,five,faiv,faiv,,ɣɪ-lin̼ɛ,,,0
48741556509,"Vao: Beetehul",-15.89728,167.30443,60,six,sikis,sikis,,ɣi-jon,,,0
48741556509,"Vao: Beetehul",-15.89728,167.30443,70,seven,seven,seven,,ɣɛ-ᵐbʉt,,,0
48741556509,"Vao: Beetehul",-15.89728,167.30443,80,eight,eit,eit,,ɣo-al,,,0
48741556509,"Vao: Beetehul",-15.89728,167.30443,90,nine,naen,naen,,ɣe-hiβɛ,,,0
48741556509,"Vao: Beetehul",-15.89728,167.30443,100,ten,ten,ten,,-haŋaβul,,,0
48741556509,"Vao: Beetehul",-15.89728,167.30443,110,twenty,twenti,twenti,,"mʷovul ɣɛ-ru",,,0
48741556509,"Vao: Beetehul",-15.89728,167.30443,150,fifty,fifti,fifti,,"mʷovul ɣɛ-lin̼ɛ",,,0
48741556509,"Vao: Beetehul",-15.89728,167.30443,200,one_hundred,wan_hundred,wan_hundred,,mʷopaŋavul,,,0
48741556509,"Vao: Beetehul",-15.89728,167.30443,210,one_thousand,wan_taosan,wan_taosan,,..,,,0
48741557509,"Vao: Canada",-15.89978,167.30731,10,one,wan,wan,,ɣɛte,,,0
48741557509,"Vao: Canada",-15.89978,167.30731,20,two,tu,tu,,ɣi-ru,,,0
48741557509,"Vao: Canada",-15.89978,167.30731,30,three,tri,tri,,ɣe-tul,,,0
48741557509,"Vao: Canada",-15.89978,167.30731,40,four,fo,fo,,ɣɛ-ð̼at,,,0
48741557509,"Vao: Canada",-15.89978,167.30731,50,five,faiv,faiv,,ɣɪ-lin̼ɛ,,,0
48741557509,"Vao: Canada",-15.89978,167.30731,60,six,sikis,sikis,,ɣi-jon,,,0
48741557509,"Vao: Canada",-15.89978,167.30731,70,seven,seven,seven,,ɣɛ-ᵐbʉt,,,0
48741557509,"Vao: Canada",-15.89978,167.30731,80,eight,eit,eit,,ɣo-al,,,0
48741557509,"Vao: Canada",-15.89978,167.30731,90,nine,naen,naen,,iɣɪ-xive,,,0
48741557509,"Vao: Canada",-15.89978,167.30731,100,ten,ten,ten,,-haŋavul,,,0
48741557509,"Vao: Canada",-15.89978,167.30731,110,twenty,twenti,twenti,,"momol rul ri-ru ɣɛ-ru",,,0
48741557509,"Vao: Canada",-15.89978,167.30731,150,fifty,fifti,fifti,,"momol rul ɣɛ-lin̼ɛ",,,0
48741557509,"Vao: Canada",-15.89978,167.30731,200,one_hundred,wan_hundred,wan_hundred,,"mofu aŋanavul",,,0
48741557509,"Vao: Canada",-15.89978,167.30731,210,one_thousand,wan_taosan,wan_taosan,,..,,,0
48741557609,"Vao: Peteri",-15.89887,167.3051,10,one,wan,wan,,inɣɔ,,,0
48741557609,"Vao: Peteri",-15.89887,167.3051,20,two,tu,tu,,xe-ru,,,0
48741557609,"Vao: Peteri",-15.89887,167.3051,30,three,tri,tri,,ɣɛ-tul,,,0
48741557609,"Vao: Peteri",-15.89887,167.3051,40,four,fo,fo,,ɣɛ-ð̼̼at,,,0
48741557609,"Vao: Peteri",-15.89887,167.3051,50,five,faiv,faiv,,ɣɪ-lin̼ɛ,,,0
48741557609,"Vao: Peteri",-15.89887,167.3051,60,six,sikis,sikis,,ɣi-jon,,,0
48741557609,"Vao: Peteri",-15.89887,167.3051,70,seven,seven,seven,,ɣɛ-ᵐbʉt,,,0
48741557609,"Vao: Peteri",-15.89887,167.3051,80,eight,eit,eit,,ɣo-al,,,0
48741557609,"Vao: Peteri",-15.89887,167.3051,90,nine,naen,naen,,ɣi-hiβe,,,0
48741557609,"Vao: Peteri",-15.89887,167.3051,100,ten,ten,ten,,-haŋavul,,,0
48741557609,"Vao: Peteri",-15.89887,167.3051,110,twenty,twenti,twenti,,"movul go-ru",,,0
48741557609,"Vao: Peteri",-15.89887,167.3051,150,fifty,fifti,fifti,,"mʷovul ɣɛ-lin̼ɛ",,,0
48741557609,"Vao: Peteri",-15.89887,167.3051,200,one_hundred,wan_hundred,wan_hundred,,mʷofaŋavul,,,0
48741557609,"Vao: Peteri",-15.89887,167.3051,210,one_thousand,wan_taosan,wan_taosan,,..,,,0
48741557709,"Vao: Torono",-15.89986,167.30819,10,one,wan,wan,,ɣɛte,,,0
48741557709,"Vao: Torono",-15.89986,167.30819,20,two,tu,tu,,ɣe-ru,,,0
48741557709,"Vao: Torono",-15.89986,167.30819,30,three,tri,tri,,ɣɛ-tul,,,0
48741557709,"Vao: Torono",-15.89986,167.30819,40,four,fo,fo,,ɣɛ-ð̼̼at,,,0
48741557709,"Vao: Torono",-15.89986,167.30819,50,five,faiv,faiv,,ɣɪ-lin̼ɛ,,,0
48741557709,"Vao: Torono",-15.89986,167.30819,60,six,sikis,sikis,,ɣi-jon,,,0
48741557709,"Vao: Torono",-15.89986,167.30819,70,seven,seven,seven,,ɣɛ-ᵐbʉt,,,0
48741557709,"Vao: Torono",-15.89986,167.30819,80,eight,eit,eit,,ɣo-al,,,0
48741557709,"Vao: Torono",-15.89986,167.30819,90,nine,naen,naen,,ɣi-hiβe,,,0
48741557709,"Vao: Torono",-15.89986,167.30819,100,ten,ten,ten,,-haŋaβul,,,0
48741557709,"Vao: Torono",-15.89986,167.30819,110,twenty,twenti,twenti,,"mʷovul ɣɛ-ru",,,0
48741557709,"Vao: Torono",-15.89986,167.30819,150,fifty,fifti,fifti,,"mʷovul ɣɛ-lin̼ɛ",,,0
48741557709,"Vao: Torono",-15.89986,167.30819,200,one_hundred,wan_hundred,wan_hundred,,mʷofaŋavul,,,0
48741557709,"Vao: Torono",-15.89986,167.30819,210,one_thousand,wan_taosan,wan_taosan,,..,,,0
48741733509,"Tirax: Botmelesnial",-16.0583,167.369,10,one,wan,wan,,i-ɣal,,,0
48741733509,"Tirax: Botmelesnial",-16.0583,167.369,20,two,tu,tu,,i-ru,,,0
48741733509,"Tirax: Botmelesnial",-16.0583,167.369,30,three,tri,tri,,i-til,,,0
48741733509,"Tirax: Botmelesnial",-16.0583,167.369,40,four,fo,fo,,i-vat,,,0
48741733509,"Tirax: Botmelesnial",-16.0583,167.369,50,five,faiv,faiv,,i-lin,,,0
48741733509,"Tirax: Botmelesnial",-16.0583,167.369,60,six,sikis,sikis,,i-ɣoɛn,,,0
48741733509,"Tirax: Botmelesnial",-16.0583,167.369,70,seven,seven,seven,,i-gendit,,,0
48741733509,"Tirax: Botmelesnial",-16.0583,167.369,80,eight,eit,eit,,i-gɛwɛl,,,0
48741733509,"Tirax: Botmelesnial",-16.0583,167.369,90,nine,naen,naen,,i-gesiv,,,0
48741733509,"Tirax: Botmelesnial",-16.0583,167.369,100,ten,ten,ten,,i-hiŋavil,,,0
48741733509,"Tirax: Botmelesnial",-16.0583,167.369,110,twenty,twenti,twenti,,"i-ŋovil i-ru",,,0
48741733509,"Tirax: Botmelesnial",-16.0583,167.369,150,fifty,fifti,fifti,,"i-ŋov i-lin",,,0
48741733509,"Tirax: Botmelesnial",-16.0583,167.369,200,one_hundred,wan_hundred,wan_hundred,,"i-ŋo siŋavil",,,0
48741733509,"Tirax: Botmelesnial",-16.0583,167.369,210,one_thousand,wan_taosan,wan_taosan,,..,,,0
48741733609,"Tirax: Mae",-16.05839,167.36953,10,one,wan,wan,,haɣal,,,0
48741733609,"Tirax: Mae",-16.05839,167.36953,20,two,tu,tu,,i-ru,,,0
48741733609,"Tirax: Mae",-16.05839,167.36953,30,three,tri,tri,,i-til,,,0
48741733609,"Tirax: Mae",-16.05839,167.36953,40,four,fo,fo,,i-vat,,,0
48741733609,"Tirax: Mae",-16.05839,167.36953,50,five,faiv,faiv,,i-lin,,,0
48741733609,"Tirax: Mae",-16.05839,167.36953,60,six,sikis,sikis,,i-ɣoɛn,,,0
48741733609,"Tirax: Mae",-16.05839,167.36953,70,seven,seven,seven,,i-ɣɛⁿdit,,,0
48741733609,"Tirax: Mae",-16.05839,167.36953,80,eight,eit,eit,,i-ɣewel,,,0
48741733609,"Tirax: Mae",-16.05839,167.36953,90,nine,naen,naen,,i-ɣesiɸ,,,0
48741733609,"Tirax: Mae",-16.05839,167.36953,100,ten,ten,ten,,i-hiŋavil,,,0
48741733609,"Tirax: Mae",-16.05839,167.36953,110,twenty,twenti,twenti,,i-ŋovil-ru,,,0
48741733609,"Tirax: Mae",-16.05839,167.36953,150,fifty,fifti,fifti,,"i-ŋov i-lin",,,0
48741733609,"Tirax: Mae",-16.05839,167.36953,200,one_hundred,wan_hundred,wan_hundred,,i-ŋosiŋavil,,,0
48741733609,"Tirax: Mae",-16.05839,167.36953,210,one_thousand,wan_taosan,wan_taosan,,..,,,0
48741735809,"Tirax: Bethel",-16.03923,167.40186,10,one,wan,wan,,..,,,0
48741735809,"Tirax: Bethel",-16.03923,167.40186,20,two,tu,tu,,-ru,,,0
48741735809,"Tirax: Bethel",-16.03923,167.40186,20,two,tu,tu,,ⁿdœ-ru,,,0
48741735809,"Tirax: Bethel",-16.03923,167.40186,30,three,tri,tri,,-til,,,0
48741735809,"Tirax: Bethel",-16.03923,167.40186,30,three,tri,tri,,ⁿde-til,,,0
48741735809,"Tirax: Bethel",-16.03923,167.40186,40,four,fo,fo,,-vat,,,0
48741735809,"Tirax: Bethel",-16.03923,167.40186,40,four,fo,fo,,ⁿde-vat,,,0
48741735809,"Tirax: Bethel",-16.03923,167.40186,50,five,faiv,faiv,,-lin,,,0
48741735809,"Tirax: Bethel",-16.03923,167.40186,50,five,faiv,faiv,,ⁿde-lin,,,0
48741735809,"Tirax: Bethel",-16.03923,167.40186,60,six,sikis,sikis,,-ɣoɛn,,,0
48741735809,"Tirax: Bethel",-16.03923,167.40186,60,six,sikis,sikis,,ⁿdɪ-ɣoɛn,,,0
48741735809,"Tirax: Bethel",-16.03923,167.40186,70,seven,seven,seven,,-ɡɛⁿdit,,,0
48741735809,"Tirax: Bethel",-16.03923,167.40186,70,seven,seven,seven,,ⁿdɪ-ɡɛⁿdit,,,0
48741735809,"Tirax: Bethel",-16.03923,167.40186,80,eight,eit,eit,,-ɡewel,,,0
48741735809,"Tirax: Bethel",-16.03923,167.40186,80,eight,eit,eit,,ⁿdɪ-ɡewel,,,0
48741735809,"Tirax: Bethel",-16.03923,167.40186,90,nine,naen,naen,,-ɡesiɸ,,,0
48741735809,"Tirax: Bethel",-16.03923,167.40186,90,nine,naen,naen,,ⁿde-ɡesiɸ,,,0
48741735809,"Tirax: Bethel",-16.03923,167.40186,100,ten,ten,ten,,-hiŋavil,,,0
48741735809,"Tirax: Bethel",-16.03923,167.40186,100,ten,ten,ten,,ⁿde-hiŋavil,,,0
48741735809,"Tirax: Bethel",-16.03923,167.40186,110,twenty,twenti,twenti,,-ŋovil-iru,,,0
48741735809,"Tirax: Bethel",-16.03923,167.40186,110,twenty,twenti,twenti,,ⁿdɪ-ŋovil-iru,,,0
48741735809,"Tirax: Bethel",-16.03923,167.40186,150,fifty,fifti,fifti,,"i-ŋov i-lin",,,0
48741735809,"Tirax: Bethel",-16.03923,167.40186,200,one_hundred,wan_hundred,wan_hundred,,ⁿde-ŋosiŋavil,,,0
48741735809,"Tirax: Bethel",-16.03923,167.40186,210,one_thousand,wan_taosan,wan_taosan,,..,,,0
48741736409,"Tirax: Olamb",-15.98701,167.26154,10,one,wan,wan,,-haɣal,,,0
48741736409,"Tirax: Olamb",-15.98701,167.26154,20,two,tu,tu,,i-ru,,,0
48741736409,"Tirax: Olamb",-15.98701,167.26154,30,three,tri,tri,,i-til,,,0
48741736409,"Tirax: Olamb",-15.98701,167.26154,40,four,fo,fo,,i-vat,,,0
48741736409,"Tirax: Olamb",-15.98701,167.26154,50,five,faiv,faiv,,i-lin,,,0
48741736409,"Tirax: Olamb",-15.98701,167.26154,60,six,sikis,sikis,,i-ɣoɛn,,,0
48741736409,"Tirax: Olamb",-15.98701,167.26154,70,seven,seven,seven,,i-ɣɛⁿdit,,,0
48741736409,"Tirax: Olamb",-15.98701,167.26154,80,eight,eit,eit,,i-ɣowɛl,,,0
48741736409,"Tirax: Olamb",-15.98701,167.26154,90,nine,naen,naen,,i-ɣesif,,,0
48741736409,"Tirax: Olamb",-15.98701,167.26154,100,ten,ten,ten,,i-hiŋavil,,,0
48741736409,"Tirax: Olamb",-15.98701,167.26154,110,twenty,twenti,twenti,,"ŋovil -ru",,,0
48741736409,"Tirax: Olamb",-15.98701,167.26154,150,fifty,fifti,fifti,,"ŋov i-lin",,,0
48741736409,"Tirax: Olamb",-15.98701,167.26154,200,one_hundred,wan_hundred,wan_hundred,,"ŋo hɪŋavil",,,0
48741736409,"Tirax: Olamb",-15.98701,167.26154,210,one_thousand,wan_taosan,wan_taosan,,..,,,0
48741736509,"Tirax: Bakru",-16.00354,167.29696,10,one,wan,wan,,-haɣal,,,0
48741736509,"Tirax: Bakru",-16.00354,167.29696,20,two,tu,tu,,i-ru,,,0
48741736509,"Tirax: Bakru",-16.00354,167.29696,30,three,tri,tri,,i-til,,,0
48741736509,"Tirax: Bakru",-16.00354,167.29696,40,four,fo,fo,,i-vat,,,0
48741736509,"Tirax: Bakru",-16.00354,167.29696,50,five,faiv,faiv,,i-lin,,,0
48741736509,"Tirax: Bakru",-16.00354,167.29696,60,six,sikis,sikis,,i-ɣoɛn,,,0
48741736509,"Tirax: Bakru",-16.00354,167.29696,70,seven,seven,seven,,i-ɣɛⁿdit,,,0
48741736509,"Tirax: Bakru",-16.00354,167.29696,80,eight,eit,eit,,i-ɣowɛl,,,0
48741736509,"Tirax: Bakru",-16.00354,167.29696,90,nine,naen,naen,,i-ɣesiɸ,,,0
48741736509,"Tirax: Bakru",-16.00354,167.29696,100,ten,ten,ten,,-hiŋavil,,,0
48741736509,"Tirax: Bakru",-16.00354,167.29696,110,twenty,twenti,twenti,,"i-ŋovil i-ru",,,0
48741736509,"Tirax: Bakru",-16.00354,167.29696,150,fifty,fifti,fifti,,..,,,0
48741736509,"Tirax: Bakru",-16.00354,167.29696,200,one_hundred,wan_hundred,wan_hundred,,"i-ŋo sɪŋavil",,,0
48741736509,"Tirax: Bakru",-16.00354,167.29696,210,one_thousand,wan_taosan,wan_taosan,,..,,,0
48741737809,"Tirax: Orap",-15.97,167.34464,10,one,wan,wan,,haɣal,,,0
48741737809,"Tirax: Orap",-15.97,167.34464,20,two,tu,tu,,i-ru,,,0
48741737809,"Tirax: Orap",-15.97,167.34464,30,three,tri,tri,,i-til,,,0
48741737809,"Tirax: Orap",-15.97,167.34464,40,four,fo,fo,,i-vat,,,0
48741737809,"Tirax: Orap",-15.97,167.34464,50,five,faiv,faiv,,..,,,0
48741737809,"Tirax: Orap",-15.97,167.34464,60,six,sikis,sikis,,i-ɣoɛn,,,0
48741737809,"Tirax: Orap",-15.97,167.34464,70,seven,seven,seven,,i-ɣɛⁿdit,,,0
48741737809,"Tirax: Orap",-15.97,167.34464,80,eight,eit,eit,,i-ɣewel,,,0
48741737809,"Tirax: Orap",-15.97,167.34464,90,nine,naen,naen,,i-ɣesiɸ,,,0
48741737809,"Tirax: Orap",-15.97,167.34464,100,ten,ten,ten,,i-hiŋavil,,,0
48741737809,"Tirax: Orap",-15.97,167.34464,110,twenty,twenti,twenti,,i-ŋovil-ru,,,0
48741737809,"Tirax: Orap",-15.97,167.34464,150,fifty,fifti,fifti,,"i-ŋov i-lin",,,0
48741737809,"Tirax: Orap",-15.97,167.34464,200,one_hundred,wan_hundred,wan_hundred,,i-ŋosiŋavil,,,0
48741737809,"Tirax: Orap",-15.97,167.34464,210,one_thousand,wan_taosan,wan_taosan,,..,,,0
48741752709,"Atchin: Orap",-15.9156,167.30641,10,one,wan,wan,,-sa,,,0
48741752709,"Atchin: Orap",-15.9156,167.30641,20,two,tu,tu,,e-ru,,,0
48741752709,"Atchin: Orap",-15.9156,167.30641,30,three,tri,tri,,e-tol,,,0
48741752709,"Atchin: Orap",-15.9156,167.30641,40,four,fo,fo,,e-vat͡sʰ,,,0
48741752709,"Atchin: Orap",-15.9156,167.30641,50,five,faiv,faiv,,e-lim,,,0
48741752709,"Atchin: Orap",-15.9156,167.30641,60,six,sikis,sikis,,e-won,,,0
48741752709,"Atchin: Orap",-15.9156,167.30641,70,seven,seven,seven,,ɛᵐbʉt,,,0
48741752709,"Atchin: Orap",-15.9156,167.30641,80,eight,eit,eit,,o-al,,,0
48741752709,"Atchin: Orap",-15.9156,167.30641,90,nine,naen,naen,,ɛ-siu,,,0
48741752709,"Atchin: Orap",-15.9156,167.30641,100,ten,ten,ten,,ɛ-saŋavʉl,,,0
48741752709,"Atchin: Orap",-15.9156,167.30641,110,twenty,twenti,twenti,,"movil eru",,,0
48741752709,"Atchin: Orap",-15.9156,167.30641,150,fifty,fifti,fifti,,"movil elim",,,0
48741752709,"Atchin: Orap",-15.9156,167.30641,200,one_hundred,wan_hundred,wan_hundred,,"mov saŋavʉl",,,0
48741752709,"Atchin: Orap",-15.9156,167.30641,210,one_thousand,wan_taosan,wan_taosan,,..,,,0
48741752809,"Atchin: Small Island",-15.9439,167.33993,10,one,wan,wan,,-sa,,,0
48741752809,"Atchin: Small Island",-15.9439,167.33993,20,two,tu,tu,,e-ru,,,0
48741752809,"Atchin: Small Island",-15.9439,167.33993,30,three,tri,tri,,e-tol,,,0
48741752809,"Atchin: Small Island",-15.9439,167.33993,40,four,fo,fo,,e-vat͡s,,,0
48741752809,"Atchin: Small Island",-15.9439,167.33993,50,five,faiv,faiv,,e-lim,,,0
48741752809,"Atchin: Small Island",-15.9439,167.33993,60,six,sikis,sikis,,o-won,,,0
48741752809,"Atchin: Small Island",-15.9439,167.33993,70,seven,seven,seven,,ɛ-ᵐβʉt,,,0
48741752809,"Atchin: Small Island",-15.9439,167.33993,80,eight,eit,eit,,o-al,,,0
48741752809,"Atchin: Small Island",-15.9439,167.33993,90,nine,naen,naen,,ɛ-siu,,,0
48741752809,"Atchin: Small Island",-15.9439,167.33993,100,ten,ten,ten,,saŋavʉl,,,0
48741752809,"Atchin: Small Island",-15.9439,167.33993,110,twenty,twenti,twenti,,"movl e-ru",,,0
48741752809,"Atchin: Small Island",-15.9439,167.33993,150,fifty,fifti,fifti,,"movl e-lim",,,0
48741752809,"Atchin: Small Island",-15.9439,167.33993,200,one_hundred,wan_hundred,wan_hundred,,"mov saŋavʉl",,,0
48741752809,"Atchin: Small Island",-15.9439,167.33993,210,one_thousand,wan_taosan,wan_taosan,,..,,,0
48741754509,"Wala: Botku",-15.96841,167.29246,10,one,wan,wan,,-sa,,,0
48741754509,"Wala: Botku",-15.96841,167.29246,20,two,tu,tu,,ɔ-ru,,,0
48741754509,"Wala: Botku",-15.96841,167.29246,30,three,tri,tri,,e-tɪl,,,0
48741754509,"Wala: Botku",-15.96841,167.29246,40,four,fo,fo,,a-vʉt͡s,,,0
48741754509,"Wala: Botku",-15.96841,167.29246,50,five,faiv,faiv,,ɛ-lim,,,0
48741754509,"Wala: Botku",-15.96841,167.29246,60,six,sikis,sikis,,owɔn,,,0
48741754509,"Wala: Botku",-15.96841,167.29246,70,seven,seven,seven,,ɛ-pʉt,,,0
48741754509,"Wala: Botku",-15.96841,167.29246,80,eight,eit,eit,,e-wɪl,,,0
48741754509,"Wala: Botku",-15.96841,167.29246,90,nine,naen,naen,,ɛ-siʉ,,,0
48741754509,"Wala: Botku",-15.96841,167.29246,100,ten,ten,ten,,asɪŋavʉl,,,0
48741754509,"Wala: Botku",-15.96841,167.29246,110,twenty,twenti,twenti,,"oŋol o-ru",,,0
48741754509,"Wala: Botku",-15.96841,167.29246,150,fifty,fifti,fifti,,"oŋol ɛ-lim",,,0
48741754509,"Wala: Botku",-15.96841,167.29246,200,one_hundred,wan_hundred,wan_hundred,,"oŋo sɪŋavʉl",,,0
48741754509,"Wala: Botku",-15.96841,167.29246,210,one_thousand,wan_taosan,wan_taosan,,..,,,0
48741754709,"Wala: Worprev",-15.97775,167.37656,10,one,wan,wan,,i-saɣal,,,0
48741754709,"Wala: Worprev",-15.97775,167.37656,20,two,tu,tu,,i-ⁿdʳu,,,0
48741754709,"Wala: Worprev",-15.97775,167.37656,30,three,tri,tri,,i-ⁿdil,,,0
48741754709,"Wala: Worprev",-15.97775,167.37656,40,four,fo,fo,,i-ᵐbas,,,0
48741754709,"Wala: Worprev",-15.97775,167.37656,50,five,faiv,faiv,,i-lim,,,0
48741754709,"Wala: Worprev",-15.97775,167.37656,60,six,sikis,sikis,,iⁿdʳaxa-saɣal,,,0
48741754709,"Wala: Worprev",-15.97775,167.37656,70,seven,seven,seven,,iⁿdʳaxa-ru,,,0
48741754709,"Wala: Worprev",-15.97775,167.37656,80,eight,eit,eit,,iⁿdʳaɣa-til,,,0
48741754709,"Wala: Worprev",-15.97775,167.37656,90,nine,naen,naen,,iⁿdʳaxa-vas,,,0
48741754709,"Wala: Worprev",-15.97775,167.37656,100,ten,ten,ten,,i-laŋavul,,,0
48741754709,"Wala: Worprev",-15.97775,167.37656,110,twenty,twenti,twenti,,"ilaŋavul aⁿdʳu",,,0
48741754709,"Wala: Worprev",-15.97775,167.37656,150,fifty,fifti,fifti,,"oŋol ɛ-lim",,,0
48741754709,"Wala: Worprev",-15.97775,167.37656,200,one_hundred,wan_hundred,wan_hundred,,"oŋo sɪŋavil",,,0
48741754709,"Wala: Worprev",-15.97775,167.37656,210,one_thousand,wan_taosan,wan_taosan,,..,,,0
48741754809,"Wala: Petreros",-15.97544,167.37627,10,one,wan,wan,,-sa,,,0
48741754809,"Wala: Petreros",-15.97544,167.37627,20,two,tu,tu,,ɔ-ru,,,0
48741754809,"Wala: Petreros",-15.97544,167.37627,30,three,tri,tri,,ɛ-til,,,0
48741754809,"Wala: Petreros",-15.97544,167.37627,40,four,fo,fo,,a-vʉt͡s,,,0
48741754809,"Wala: Petreros",-15.97544,167.37627,50,five,faiv,faiv,,ɛ-lim,,,0
48741754809,"Wala: Petreros",-15.97544,167.37627,60,six,sikis,sikis,,o-wɔn,,,0
48741754809,"Wala: Petreros",-15.97544,167.37627,70,seven,seven,seven,,ɛ-pʉt,,,0
48741754809,"Wala: Petreros",-15.97544,167.37627,80,eight,eit,eit,,e-wil,,,0
48741754809,"Wala: Petreros",-15.97544,167.37627,90,nine,naen,naen,,ɛ-siʉ,,,0
48741754809,"Wala: Petreros",-15.97544,167.37627,100,ten,ten,ten,,asɪŋaβʉl,,,0
48741754809,"Wala: Petreros",-15.97544,167.37627,110,twenty,twenti,twenti,,"oŋol o-ru",,,0
48741754809,"Wala: Petreros",-15.97544,167.37627,150,fifty,fifti,fifti,,..,,,0
48741754809,"Wala: Petreros",-15.97544,167.37627,200,one_hundred,wan_hundred,wan_hundred,,"oŋol sɪŋavul",,,0
48741754809,"Wala: Petreros",-15.97544,167.37627,210,one_thousand,wan_taosan,wan_taosan,,..,,,0
48741754909,"Wala: Preng",-15.97342,167.37627,10,one,wan,wan,,-sa,,,0
48741754909,"Wala: Preng",-15.97342,167.37627,20,two,tu,tu,,ɔ-ru,,,0
48741754909,"Wala: Preng",-15.97342,167.37627,30,three,tri,tri,,e-tɪl,,,0
48741754909,"Wala: Preng",-15.97342,167.37627,40,four,fo,fo,,a-vʉt͡s,,,0
48741754909,"Wala: Preng",-15.97342,167.37627,50,five,faiv,faiv,,ɛ-lim,,,0
48741754909,"Wala: Preng",-15.97342,167.37627,60,six,sikis,sikis,,o-wɔn,,,0
48741754909,"Wala: Preng",-15.97342,167.37627,70,seven,seven,seven,,ɛ-pʉt,,,0
48741754909,"Wala: Preng",-15.97342,167.37627,80,eight,eit,eit,,e-wɪl,,,0
48741754909,"Wala: Preng",-15.97342,167.37627,90,nine,naen,naen,,ɛ-siʉ,,,0
48741754909,"Wala: Preng",-15.97342,167.37627,100,ten,ten,ten,,asɪŋavʉl,,,0
48741754909,"Wala: Preng",-15.97342,167.37627,110,twenty,twenti,twenti,,"oŋol o-ru",,,0
48741754909,"Wala: Preng",-15.97342,167.37627,150,fifty,fifti,fifti,,"oŋol ɛ-lim",,,0
48741754909,"Wala: Preng",-15.97342,167.37627,200,one_hundred,wan_hundred,wan_hundred,,"oŋo sɪŋavʉl",,,0
48741754909,"Wala: Preng",-15.97342,167.37627,210,one_thousand,wan_taosan,wan_taosan,,..,,,0
48741756709,"Rano: Twalung",-15.98389,167.38444,10,one,wan,wan,,ɛtɛs,,,0
48741756709,"Rano: Twalung",-15.98389,167.38444,20,two,tu,tu,,ɔ-ru,,,0
48741756709,"Rano: Twalung",-15.98389,167.38444,30,three,tri,tri,,ɛ-tɪl,,,0
48741756709,"Rano: Twalung",-15.98389,167.38444,40,four,fo,fo,,a-vʊt͡s,,,0
48741756709,"Rano: Twalung",-15.98389,167.38444,50,five,faiv,faiv,,ɛ-lim,,,0
48741756709,"Rano: Twalung",-15.98389,167.38444,60,six,sikis,sikis,,o-wɔn,,,0
48741756709,"Rano: Twalung",-15.98389,167.38444,70,seven,seven,seven,,ɛ-pʉt,,,0
48741756709,"Rano: Twalung",-15.98389,167.38444,80,eight,eit,eit,,o-wil,,,0
48741756709,"Rano: Twalung",-15.98389,167.38444,90,nine,naen,naen,,ɛ-siu,,,0
48741756709,"Rano: Twalung",-15.98389,167.38444,100,ten,ten,ten,,asɪŋavʊl,,,0
48741756709,"Rano: Twalung",-15.98389,167.38444,110,twenty,twenti,twenti,,"oŋol oru",,,0
48741756709,"Rano: Twalung",-15.98389,167.38444,150,fifty,fifti,fifti,,"oŋol ɛ-lɪm",,,0
48741756709,"Rano: Twalung",-15.98389,167.38444,200,one_hundred,wan_hundred,wan_hundred,,"oŋo sɪŋavʊl",,,0
48741756709,"Rano: Twalung",-15.98389,167.38444,210,one_thousand,wan_taosan,wan_taosan,,..,,,0
48741756809,"Rano: Potora",-15.98472,167.3866,10,one,wan,wan,,-sa,,,0
48741756809,"Rano: Potora",-15.98472,167.3866,20,two,tu,tu,,ɔ-ru,,,0
48741756809,"Rano: Potora",-15.98472,167.3866,30,three,tri,tri,,e-tɪl,,,0
48741756809,"Rano: Potora",-15.98472,167.3866,40,four,fo,fo,,a-vʉt͡s,,,0
48741756809,"Rano: Potora",-15.98472,167.3866,50,five,faiv,faiv,,e-lim,,,0
48741756809,"Rano: Potora",-15.98472,167.3866,60,six,sikis,sikis,,o-won,,,0
48741756809,"Rano: Potora",-15.98472,167.3866,70,seven,seven,seven,,hɛ-vʉt,,,0
48741756809,"Rano: Potora",-15.98472,167.3866,80,eight,eit,eit,,e-wil,,,0
48741756809,"Rano: Potora",-15.98472,167.3866,90,nine,naen,naen,,ɛ-siu,,,0
48741756809,"Rano: Potora",-15.98472,167.3866,100,ten,ten,ten,,asɪŋavʊl,,,0
48741756809,"Rano: Potora",-15.98472,167.3866,110,twenty,twenti,twenti,,..,,,0
48741756809,"Rano: Potora",-15.98472,167.3866,150,fifty,fifti,fifti,,"oŋol e-lim",,,0
48741756809,"Rano: Potora",-15.98472,167.3866,200,one_hundred,wan_hundred,wan_hundred,,"oŋo sɪŋavʊl",,,0
48741756809,"Rano: Potora",-15.98472,167.3866,210,one_thousand,wan_taosan,wan_taosan,,..,,,0
48741756909,"Rano: Chinambong",-15.99049,167.39063,10,one,wan,wan,,-sa,,,0
48741756909,"Rano: Chinambong",-15.99049,167.39063,20,two,tu,tu,,ɔ-ru,,,0
48741756909,"Rano: Chinambong",-15.99049,167.39063,30,three,tri,tri,,e-tɪl,,,0
48741756909,"Rano: Chinambong",-15.99049,167.39063,40,four,fo,fo,,a-viʧ,,,0
48741756909,"Rano: Chinambong",-15.99049,167.39063,50,five,faiv,faiv,,ɛ-lim,,,0
48741756909,"Rano: Chinambong",-15.99049,167.39063,60,six,sikis,sikis,,o-wɔn,,,0
48741756909,"Rano: Chinambong",-15.99049,167.39063,70,seven,seven,seven,,ɛ-βʉt,,,0
48741756909,"Rano: Chinambong",-15.99049,167.39063,80,eight,eit,eit,,e-wɪl,,,0
48741756909,"Rano: Chinambong",-15.99049,167.39063,90,nine,naen,naen,,ɛ-siu,,,0
48741756909,"Rano: Chinambong",-15.99049,167.39063,100,ten,ten,ten,,asɪŋavʊl,,,0
48741756909,"Rano: Chinambong",-15.99049,167.39063,110,twenty,twenti,twenti,,"oŋol oru",,,0
48741756909,"Rano: Chinambong",-15.99049,167.39063,150,fifty,fifti,fifti,,"oŋol e-lim",,,0
48741756909,"Rano: Chinambong",-15.99049,167.39063,200,one_hundred,wan_hundred,wan_hundred,,"oŋo sɪŋavʊl",,,0
48741756909,"Rano: Chinambong",-15.99049,167.39063,210,one_thousand,wan_taosan,wan_taosan,,..,,,0
48741757609,"Uripiv: Tautu Village",-16.06661,167.3975,10,one,wan,wan,,sansan,,,0
48741757609,"Uripiv: Tautu Village",-16.06661,167.3975,20,two,tu,tu,,o-ru,,,0
48741757609,"Uripiv: Tautu Village",-16.06661,167.3975,30,three,tri,tri,,ɛ-tɛl,,,0
48741757609,"Uripiv: Tautu Village",-16.06661,167.3975,40,four,fo,fo,,awɛt͡s,,,0
48741757609,"Uripiv: Tautu Village",-16.06661,167.3975,50,five,faiv,faiv,,elim,,,0
48741757609,"Uripiv: Tautu Village",-16.06661,167.3975,60,six,sikis,sikis,,o-won,,,0
48741757609,"Uripiv: Tautu Village",-16.06661,167.3975,70,seven,seven,seven,,e-put,,,0
48741757609,"Uripiv: Tautu Village",-16.06661,167.3975,80,eight,eit,eit,,ɛ-wɛl,,,0
48741757609,"Uripiv: Tautu Village",-16.06661,167.3975,90,nine,naen,naen,,ɛ-siu,,,0
48741757609,"Uripiv: Tautu Village",-16.06661,167.3975,100,ten,ten,ten,,asiŋaol,,,0
48741757609,"Uripiv: Tautu Village",-16.06661,167.3975,110,twenty,twenti,twenti,,..,,,0
48741757609,"Uripiv: Tautu Village",-16.06661,167.3975,150,fifty,fifti,fifti,,..,,,0
48741757609,"Uripiv: Tautu Village",-16.06661,167.3975,200,one_hundred,wan_hundred,wan_hundred,,..,,,0
48741757609,"Uripiv: Tautu Village",-16.06661,167.3975,210,one_thousand,wan_taosan,wan_taosan,,..,,,0
48741758709,"Uripiv: Tautu",-16.06778,167.40111,10,one,wan,wan,,sansan,,,0
48741758709,"Uripiv: Tautu",-16.06778,167.40111,20,two,tu,tu,,o-ru,,,0
48741758709,"Uripiv: Tautu",-16.06778,167.40111,30,three,tri,tri,,ɛ-tɛl,,,0
48741758709,"Uripiv: Tautu",-16.06778,167.40111,40,four,fo,fo,,a-wet͡s,,,0
48741758709,"Uripiv: Tautu",-16.06778,167.40111,50,five,faiv,faiv,,e-lim,,,0
48741758709,"Uripiv: Tautu",-16.06778,167.40111,60,six,sikis,sikis,,..,,,0
48741758709,"Uripiv: Tautu",-16.06778,167.40111,70,seven,seven,seven,,..,,,0
48741758709,"Uripiv: Tautu",-16.06778,167.40111,80,eight,eit,eit,,..,,,0
48741758709,"Uripiv: Tautu",-16.06778,167.40111,90,nine,naen,naen,,..,,,0
48741758709,"Uripiv: Tautu",-16.06778,167.40111,100,ten,ten,ten,,asɪŋaol,,,0
48741758709,"Uripiv: Tautu",-16.06778,167.40111,110,twenty,twenti,twenti,,..,,,0
48741758709,"Uripiv: Tautu",-16.06778,167.40111,150,fifty,fifti,fifti,,..,,,0
48741758709,"Uripiv: Tautu",-16.06778,167.40111,200,one_hundred,wan_hundred,wan_hundred,,..,,,0
48741758709,"Uripiv: Tautu",-16.06778,167.40111,210,one_thousand,wan_taosan,wan_taosan,,..,,,0
48741758809,"Uripiv: Durpif",-16.07265,167.447,10,one,wan,wan,,i-tɛs,,,0
48741758809,"Uripiv: Durpif",-16.07265,167.447,20,two,tu,tu,,ɛ-ɾu,,,0
48741758809,"Uripiv: Durpif",-16.07265,167.447,30,three,tri,tri,,i-tul,,,0
48741758809,"Uripiv: Durpif",-16.07265,167.447,40,four,fo,fo,,i-wiʧ,,,0
48741758809,"Uripiv: Durpif",-16.07265,167.447,50,five,faiv,faiv,,ɛ-lim,,,0
48741758809,"Uripiv: Durpif",-16.07265,167.447,60,six,sikis,sikis,,o-wɔn,,,0
48741758809,"Uripiv: Durpif",-16.07265,167.447,70,seven,seven,seven,,ɛ-ᵐbʉt,,,0
48741758809,"Uripiv: Durpif",-16.07265,167.447,80,eight,eit,eit,,o-wil,,,0
48741758809,"Uripiv: Durpif",-16.07265,167.447,90,nine,naen,naen,,ɛ-siu,,,0
48741758809,"Uripiv: Durpif",-16.07265,167.447,100,ten,ten,ten,,ɛ-sɪŋavʊl,,,0
48741758809,"Uripiv: Durpif",-16.07265,167.447,110,twenty,twenti,twenti,,"ŋavʊl e-ɾu",,,0
48741758809,"Uripiv: Durpif",-16.07265,167.447,150,fifty,fifti,fifti,,"ŋavʊl e-lim",,,0
48741758809,"Uripiv: Durpif",-16.07265,167.447,200,one_hundred,wan_hundred,wan_hundred,,oŋutuesam,,,0
48741758809,"Uripiv: Durpif",-16.07265,167.447,210,one_thousand,wan_taosan,wan_taosan,,..,,,0
48741758909,"Uripiv: Potnambe",-16.07391,167.45203,10,one,wan,wan,,-sansan,,,0
48741758909,"Uripiv: Potnambe",-16.07391,167.45203,20,two,tu,tu,,ɛ-ɾu,,,0
48741758909,"Uripiv: Potnambe",-16.07391,167.45203,30,three,tri,tri,,i-tul,,,0
48741758909,"Uripiv: Potnambe",-16.07391,167.45203,40,four,fo,fo,,i-viʧ,,,0
48741758909,"Uripiv: Potnambe",-16.07391,167.45203,50,five,faiv,faiv,,ɛ-lim,,,0
48741758909,"Uripiv: Potnambe",-16.07391,167.45203,60,six,sikis,sikis,,o-wɔn,,,0
48741758909,"Uripiv: Potnambe",-16.07391,167.45203,70,seven,seven,seven,,ɛᵐbʉt,,,0
48741758909,"Uripiv: Potnambe",-16.07391,167.45203,80,eight,eit,eit,,o-wil,,,0
48741758909,"Uripiv: Potnambe",-16.07391,167.45203,90,nine,naen,naen,,ɛ-siu,,,0
48741758909,"Uripiv: Potnambe",-16.07391,167.45203,100,ten,ten,ten,,ɛ-sɪŋavʊl,,,0
48741758909,"Uripiv: Potnambe",-16.07391,167.45203,110,twenty,twenti,twenti,,"ŋavʊl e-lɾu",,,0
48741758909,"Uripiv: Potnambe",-16.07391,167.45203,150,fifty,fifti,fifti,,"ŋavʊl e-lim",,,0
48741758909,"Uripiv: Potnambe",-16.07391,167.45203,200,one_hundred,wan_hundred,wan_hundred,,oŋutuesan,,,0
48741758909,"Uripiv: Potnambe",-16.07391,167.45203,210,one_thousand,wan_taosan,wan_taosan,,..,,,0
48741953109,"Wowo: Lesarmalas",-15.90733,167.17927,10,one,wan,wan,,-hual,,,0
48741953109,"Wowo: Lesarmalas",-15.90733,167.17927,20,two,tu,tu,,-rue,,,0
48741953109,"Wowo: Lesarmalas",-15.90733,167.17927,30,three,tri,tri,,-til,,,0
48741953109,"Wowo: Lesarmalas",-15.90733,167.17927,40,four,fo,fo,,-ðat,,,0
48741953109,"Wowo: Lesarmalas",-15.90733,167.17927,50,five,faiv,faiv,,-linɛ,,,0
48741953109,"Wowo: Lesarmalas",-15.90733,167.17927,60,six,sikis,sikis,,-ɣon,,,0
48741953109,"Wowo: Lesarmalas",-15.90733,167.17927,70,seven,seven,seven,,-ɣondit,,,0
48741953109,"Wowo: Lesarmalas",-15.90733,167.17927,80,eight,eit,eit,,-hoal,,,0
48741953109,"Wowo: Lesarmalas",-15.90733,167.17927,90,nine,naen,naen,,-ɣɛhɛvɛ,,,0
48741953109,"Wowo: Lesarmalas",-15.90733,167.17927,100,ten,ten,ten,,-haŋavil,,,0
48741953109,"Wowo: Lesarmalas",-15.90733,167.17927,110,twenty,twenti,twenti,,"hovul -rue",,,0
48741953109,"Wowo: Lesarmalas",-15.90733,167.17927,150,fifty,fifti,fifti,,hoðilne,,,0
48741953109,"Wowo: Lesarmalas",-15.90733,167.17927,200,one_hundred,wan_hundred,wan_hundred,,hoðaŋavil,,,0
48741953109,"Wowo: Lesarmalas",-15.90733,167.17927,210,one_thousand,wan_taosan,wan_taosan,,..,,,0
48741954109,"Wowo: Wowo",-15.90224,167.18459,10,one,wan,wan,,-hual,,,0
48741954109,"Wowo: Wowo",-15.90224,167.18459,20,two,tu,tu,,-rue,,,0
48741954109,"Wowo: Wowo",-15.90224,167.18459,30,three,tri,tri,,-til,,,0
48741954109,"Wowo: Wowo",-15.90224,167.18459,40,four,fo,fo,,-ðat,,,0
48741954109,"Wowo: Wowo",-15.90224,167.18459,50,five,faiv,faiv,,-linɛ,,,0
48741954109,"Wowo: Wowo",-15.90224,167.18459,60,six,sikis,sikis,,-ɣon,,,0
48741954109,"Wowo: Wowo",-15.90224,167.18459,70,seven,seven,seven,,-ɣondit,,,0
48741954109,"Wowo: Wowo",-15.90224,167.18459,80,eight,eit,eit,,-ɣoal,,,0
48741954109,"Wowo: Wowo",-15.90224,167.18459,90,nine,naen,naen,,-ɣeheve,,,0
48741954109,"Wowo: Wowo",-15.90224,167.18459,100,ten,ten,ten,,-haŋaðil,,,0
48741954109,"Wowo: Wowo",-15.90224,167.18459,110,twenty,twenti,twenti,,"novul u-ɾue",,,0
48741954109,"Wowo: Wowo",-15.90224,167.18459,150,fifty,fifti,fifti,,noðilne,,,0
48741954109,"Wowo: Wowo",-15.90224,167.18459,200,one_hundred,wan_hundred,wan_hundred,,noðaŋaðil,,,0
48741954109,"Wowo: Wowo",-15.90224,167.18459,210,one_thousand,wan_taosan,wan_taosan,,..,,,0
48741956109,"Alavas: Wowo",-15.90293,167.18499,10,one,wan,wan,,-hual,,,0
48741956109,"Alavas: Wowo",-15.90293,167.18499,20,two,tu,tu,,-rue,,,0
48741956109,"Alavas: Wowo",-15.90293,167.18499,30,three,tri,tri,,-til,,,0
48741956109,"Alavas: Wowo",-15.90293,167.18499,40,four,fo,fo,,-ðat,,,0
48741956109,"Alavas: Wowo",-15.90293,167.18499,50,five,faiv,faiv,,-linɛ,,,0
48741956109,"Alavas: Wowo",-15.90293,167.18499,60,six,sikis,sikis,,-ɣon,,,0
48741956109,"Alavas: Wowo",-15.90293,167.18499,70,seven,seven,seven,,-ɣondit,,,0
48741956109,"Alavas: Wowo",-15.90293,167.18499,80,eight,eit,eit,,-ɣoal,,,0
48741956109,"Alavas: Wowo",-15.90293,167.18499,90,nine,naen,naen,,-ɣeheve,,,0
48741956109,"Alavas: Wowo",-15.90293,167.18499,100,ten,ten,ten,,-haŋaðil,,,0
48741956109,"Alavas: Wowo",-15.90293,167.18499,110,twenty,twenti,twenti,,"novul u-ɾue",,,0
48741956109,"Alavas: Wowo",-15.90293,167.18499,150,fifty,fifti,fifti,,noðilne,,,0
48741956109,"Alavas: Wowo",-15.90293,167.18499,200,one_hundred,wan_hundred,wan_hundred,,noðaŋaðil,,,0
48741956109,"Alavas: Wowo",-15.90293,167.18499,210,one_thousand,wan_taosan,wan_taosan,,..,,,0
48741957109,"Alavas: Alavas",-15.89046,167.24151,10,one,wan,wan,,-hual,,,0
48741957109,"Alavas: Alavas",-15.89046,167.24151,20,two,tu,tu,,-rue,,,0
48741957109,"Alavas: Alavas",-15.89046,167.24151,30,three,tri,tri,,-til,,,0
48741957109,"Alavas: Alavas",-15.89046,167.24151,40,four,fo,fo,,-ðat,,,0
48741957109,"Alavas: Alavas",-15.89046,167.24151,50,five,faiv,faiv,,-linɛ,,,0
48741957109,"Alavas: Alavas",-15.89046,167.24151,60,six,sikis,sikis,,-ɣon,,,0
48741957109,"Alavas: Alavas",-15.89046,167.24151,70,seven,seven,seven,,-ɣondit,,,0
48741957109,"Alavas: Alavas",-15.89046,167.24151,80,eight,eit,eit,,-ɣoal,,,0
48741957109,"Alavas: Alavas",-15.89046,167.24151,90,nine,naen,naen,,-ɣɛhɛve,,,0
48741957109,"Alavas: Alavas",-15.89046,167.24151,100,ten,ten,ten,,-haŋaðil,,,0
48741957109,"Alavas: Alavas",-15.89046,167.24151,110,twenty,twenti,twenti,,"wovul u-rue",,,0
48741957109,"Alavas: Alavas",-15.89046,167.24151,150,fifty,fifti,fifti,,woðilne,,,0
48741957109,"Alavas: Alavas",-15.89046,167.24151,200,one_hundred,wan_hundred,wan_hundred,,woðaŋaðil,,,0
48741957109,"Alavas: Alavas",-15.89046,167.24151,210,one_thousand,wan_taosan,wan_taosan,,..,,,0
