LanguageId,LanguageName,Latitude,Longitude,WordId,WordModernName1,WordModernName2,WordProtoName1,WordProtoName2,Phonetic,SpellingAltv1,SpellingAltv2,NotCognateWithMainWordInThisFamily
48741151109,"V’ënen Taute: Alpalak",-15.99722,167.1825,4020,man,man,man,,ⁿdui,,,0
48741151109,"V’ënen Taute: Alpalak",-15.99722,167.1825,4030,woman,woman,woman,,tavɛt,,,0
48741151109,"V’ënen Taute: Alpalak",-15.99722,167.1825,4050,child,pikinini,pikinini,,mʷarⁿdɛl,,,0
48741151109,"V’ënen Taute: Alpalak",-15.99722,167.1825,4100,name,nem,nem,,naxa-,,,0
48741151109,"V’ënen Taute: Alpalak",-15.99722,167.1825,4310,mother,mama,mama,,une,,,0
48741151109,"V’ënen Taute: Alpalak",-15.99722,167.1825,4320,father,papa,papa,,tate,,,0
48741151109,"V’ënen Taute: Alpalak",-15.99722,167.1825,4350,husband,man_blong_mi,man_blong_mi,,nau-n,,,0
48741151109,"V’ënen Taute: Alpalak",-15.99722,167.1825,4360,wife,woman_blong_mi,woman_blong_mi,,tavɛta-k,,,0
48741153209,"V’ënen Taute: Benenavet",-16.02038,167.17671,4020,man,man,man,,ⁿdui,,,0
48741153209,"V’ënen Taute: Benenavet",-16.02038,167.17671,4030,woman,woman,woman,,tavɛt,,,0
48741153209,"V’ënen Taute: Benenavet",-16.02038,167.17671,4050,child,pikinini,pikinini,,marⁿdɛl,,,0
48741153209,"V’ënen Taute: Benenavet",-16.02038,167.17671,4100,name,nem,nem,,..,,,0
48741153209,"V’ënen Taute: Benenavet",-16.02038,167.17671,4310,mother,mama,mama,,une,,,0
48741153209,"V’ënen Taute: Benenavet",-16.02038,167.17671,4320,father,papa,papa,,tate,,,0
48741153209,"V’ënen Taute: Benenavet",-16.02038,167.17671,4350,husband,man_blong_mi,man_blong_mi,,naun,,,0
48741153209,"V’ënen Taute: Benenavet",-16.02038,167.17671,4360,wife,woman_blong_mi,woman_blong_mi,,tavɛt,,,0
48741155209,"V’ënen Taute: Benmara",-16.05552,167.23261,4020,man,man,man,,ⁿdui,,,0
48741155209,"V’ënen Taute: Benmara",-16.05552,167.23261,4030,woman,woman,woman,,davɛð̼,,,0
48741155209,"V’ënen Taute: Benmara",-16.05552,167.23261,4050,child,pikinini,pikinini,,marⁿdɛð̼,,,0
48741155209,"V’ënen Taute: Benmara",-16.05552,167.23261,4100,name,nem,nem,,naxa-,,,0
48741155209,"V’ënen Taute: Benmara",-16.05552,167.23261,4310,mother,mama,mama,,a-une,,,0
48741155209,"V’ënen Taute: Benmara",-16.05552,167.23261,4320,father,papa,papa,,tate,,,0
48741155209,"V’ënen Taute: Benmara",-16.05552,167.23261,4350,husband,man_blong_mi,man_blong_mi,,a-nauw-n,,,0
48741155209,"V’ënen Taute: Benmara",-16.05552,167.23261,4360,wife,woman_blong_mi,woman_blong_mi,,"a-nau-n davɛð̼",,,0
48741157409,"V’ënen Taute: Unmet",-16.15371,167.26022,4020,man,man,man,,ⁿdui,,,0
48741157409,"V’ënen Taute: Unmet",-16.15371,167.26022,4030,woman,woman,woman,,tavɛt,,,0
48741157409,"V’ënen Taute: Unmet",-16.15371,167.26022,4050,child,pikinini,pikinini,,marⁿdɛl,,,0
48741157409,"V’ënen Taute: Unmet",-16.15371,167.26022,4100,name,nem,nem,,naxa-,,,0
48741157409,"V’ënen Taute: Unmet",-16.15371,167.26022,4310,mother,mama,mama,,oune,,,0
48741157409,"V’ënen Taute: Unmet",-16.15371,167.26022,4320,father,papa,papa,,tate,,,0
48741157409,"V’ënen Taute: Unmet",-16.15371,167.26022,4350,husband,man_blong_mi,man_blong_mi,,nau-k,,,0
48741157409,"V’ënen Taute: Unmet",-16.15371,167.26022,4360,wife,woman_blong_mi,woman_blong_mi,,"noɛn tavɛt",,,0
48741158409,"V’ënen Taute: Hamax",-16.111,167.249,4020,man,man,man,,ⁿdui,,,0
48741158409,"V’ënen Taute: Hamax",-16.111,167.249,4030,woman,woman,woman,,tavɛt,,,0
48741158409,"V’ënen Taute: Hamax",-16.111,167.249,4050,child,pikinini,pikinini,,marⁿdɛl,,,0
48741158409,"V’ënen Taute: Hamax",-16.111,167.249,4100,name,nem,nem,,..,,,0
48741158409,"V’ënen Taute: Hamax",-16.111,167.249,4310,mother,mama,mama,,une,,,0
48741158409,"V’ënen Taute: Hamax",-16.111,167.249,4320,father,papa,papa,,tate,,,0
48741158409,"V’ënen Taute: Hamax",-16.111,167.249,4350,husband,man_blong_mi,man_blong_mi,,nau-n,,,0
48741158409,"V’ënen Taute: Hamax",-16.111,167.249,4360,wife,woman_blong_mi,woman_blong_mi,,tavɛt,,,0
48741322109,"Espiegel’s Bay: Solwota",-15.979,167.192,4020,man,man,man,,..,,,0
48741322109,"Espiegel’s Bay: Solwota",-15.979,167.192,4030,woman,woman,woman,,ⁿduat,,,0
48741322109,"Espiegel’s Bay: Solwota",-15.979,167.192,4050,child,pikinini,pikinini,,tiɣpis,,,0
48741322109,"Espiegel’s Bay: Solwota",-15.979,167.192,4100,name,nem,nem,,..,,,0
48741322109,"Espiegel’s Bay: Solwota",-15.979,167.192,4310,mother,mama,mama,,pɪpi,,,0
48741322109,"Espiegel’s Bay: Solwota",-15.979,167.192,4320,father,papa,papa,,tate,,,0
48741322109,"Espiegel’s Bay: Solwota",-15.979,167.192,4350,husband,man_blong_mi,man_blong_mi,,lax,,,0
48741322109,"Espiegel’s Bay: Solwota",-15.979,167.192,4360,wife,woman_blong_mi,woman_blong_mi,,"ⁿduat sɪ-n",,,0
48741324209,"Espiegel’s Bay: Litebral",-15.974,167.193,4020,man,man,man,,nɪ-mɪɾmɪɾ,,,0
48741324209,"Espiegel’s Bay: Litebral",-15.974,167.193,4030,woman,woman,woman,,ⁿduat,,,0
48741324209,"Espiegel’s Bay: Litebral",-15.974,167.193,4050,child,pikinini,pikinini,,ⁿdiɣbis,,,0
48741324209,"Espiegel’s Bay: Litebral",-15.974,167.193,4100,name,nem,nem,,..,,,0
48741324209,"Espiegel’s Bay: Litebral",-15.974,167.193,4310,mother,mama,mama,,pepe,,,0
48741324209,"Espiegel’s Bay: Litebral",-15.974,167.193,4320,father,papa,papa,,..,,,0
48741324209,"Espiegel’s Bay: Litebral",-15.974,167.193,4350,husband,man_blong_mi,man_blong_mi,,"laɣ sɛ-n",,,0
48741324209,"Espiegel’s Bay: Litebral",-15.974,167.193,4360,wife,woman_blong_mi,woman_blong_mi,,"ⁿduat sɛ-n",,,0
48741324309,"Espiegel’s Bay: Unspecified",-15.98228,167.19103,4020,man,man,man,,nɪ-mirmir,,,0
48741324309,"Espiegel’s Bay: Unspecified",-15.98228,167.19103,4030,woman,woman,woman,,ⁿdoat,,,0
48741324309,"Espiegel’s Bay: Unspecified",-15.98228,167.19103,4050,child,pikinini,pikinini,,ⁿdigpis,,,0
48741324309,"Espiegel’s Bay: Unspecified",-15.98228,167.19103,4100,name,nem,nem,,nɛŋ-sɛ-n,,,0
48741324309,"Espiegel’s Bay: Unspecified",-15.98228,167.19103,4310,mother,mama,mama,,pipi,,,0
48741324309,"Espiegel’s Bay: Unspecified",-15.98228,167.19103,4320,father,papa,papa,,tate,,,0
48741324309,"Espiegel’s Bay: Unspecified",-15.98228,167.19103,4350,husband,man_blong_mi,man_blong_mi,,ⁿduat-sɛ-n,,,0
48741324309,"Espiegel’s Bay: Unspecified",-15.98228,167.19103,4360,wife,woman_blong_mi,woman_blong_mi,,ⁿduatsɛn,,,0
48741326309,"Malua Bay: Coast",-15.98334,167.18798,4020,man,man,man,,nɪ-miarmɛr,,,0
48741326309,"Malua Bay: Coast",-15.98334,167.18798,4030,woman,woman,woman,,nɪ-miar,,,0
48741326309,"Malua Bay: Coast",-15.98334,167.18798,4050,child,pikinini,pikinini,,ⁿdavorəx,,,0
48741326309,"Malua Bay: Coast",-15.98334,167.18798,4100,name,nem,nem,,nɛ-ŋsa-n,,,0
48741326309,"Malua Bay: Coast",-15.98334,167.18798,4310,mother,mama,mama,,pepe,,,0
48741326309,"Malua Bay: Coast",-15.98334,167.18798,4320,father,papa,papa,,tate,,,0
48741326309,"Malua Bay: Coast",-15.98334,167.18798,4350,husband,man_blong_mi,man_blong_mi,,lilaɣ-sa-n,,,0
48741326309,"Malua Bay: Coast",-15.98334,167.18798,4360,wife,woman_blong_mi,woman_blong_mi,,nɪ-miar-sa-n,,,0
48741327409,"Malua Bay: Petarmul",-16.00022,167.22137,4020,man,man,man,,nɪ-miɾmiɾe,,,0
48741327409,"Malua Bay: Petarmul",-16.00022,167.22137,4030,woman,woman,woman,,nɪ-miar,,,0
48741327409,"Malua Bay: Petarmul",-16.00022,167.22137,4050,child,pikinini,pikinini,,ⁿdavorix,,,0
48741327409,"Malua Bay: Petarmul",-16.00022,167.22137,4100,name,nem,nem,,nɛ-ŋɪs,,,0
48741327409,"Malua Bay: Petarmul",-16.00022,167.22137,4310,mother,mama,mama,,"pipe su-k",,,0
48741327409,"Malua Bay: Petarmul",-16.00022,167.22137,4320,father,papa,papa,,tate,,,0
48741327409,"Malua Bay: Petarmul",-16.00022,167.22137,4350,husband,man_blong_mi,man_blong_mi,,"lilaɣ su-k",,,0
48741327409,"Malua Bay: Petarmul",-16.00022,167.22137,4360,wife,woman_blong_mi,woman_blong_mi,,"nɪ-miar su-k",,,0
48741328309,"Malua Bay: Tiptir",-15.9905,167.21991,4020,man,man,man,,nɪ-mɛrmiɾ,,,0
48741328309,"Malua Bay: Tiptir",-15.9905,167.21991,4030,woman,woman,woman,,ⁿduat,,,0
48741328309,"Malua Bay: Tiptir",-15.9905,167.21991,4050,child,pikinini,pikinini,,ⁿdiɣpis,,,0
48741328309,"Malua Bay: Tiptir",-15.9905,167.21991,4100,name,nem,nem,,nɛ-ŋɪs,,,0
48741328309,"Malua Bay: Tiptir",-15.9905,167.21991,4310,mother,mama,mama,,"pipe su-k",,,0
48741328309,"Malua Bay: Tiptir",-15.9905,167.21991,4320,father,papa,papa,,tate,,,0
48741328309,"Malua Bay: Tiptir",-15.9905,167.21991,4350,husband,man_blong_mi,man_blong_mi,,"lilaɣ su-k",,,0
48741328309,"Malua Bay: Tiptir",-15.9905,167.21991,4360,wife,woman_blong_mi,woman_blong_mi,,"ⁿduat su-k",,,0
48741328409,"Malua Bay: Marasup",-15.99098,167.2198,4020,man,man,man,,nɪ-miɾmiɾ,,,0
48741328409,"Malua Bay: Marasup",-15.99098,167.2198,4030,woman,woman,woman,,ni-vɛnar,,,0
48741328409,"Malua Bay: Marasup",-15.99098,167.2198,4050,child,pikinini,pikinini,,t͡sat͡sarɪmɛre,,,0
48741328409,"Malua Bay: Marasup",-15.99098,167.2198,4100,name,nem,nem,,na-ŋis,,,0
48741328409,"Malua Bay: Marasup",-15.99098,167.2198,4310,mother,mama,mama,,"pipe su-k",,,0
48741328409,"Malua Bay: Marasup",-15.99098,167.2198,4320,father,papa,papa,,"tate su-k",,,0
48741328409,"Malua Bay: Marasup",-15.99098,167.2198,4350,husband,man_blong_mi,man_blong_mi,,"lilɛɣ zu-k",,,0
48741328409,"Malua Bay: Marasup",-15.99098,167.2198,4360,wife,woman_blong_mi,woman_blong_mi,,"ni-naɣ zu-k",,,0
48741345109,"Najit: Tanmial",-15.94786,167.18226,4020,man,man,man,,mɛrmɛr,,,0
48741345109,"Najit: Tanmial",-15.94786,167.18226,4030,woman,woman,woman,,ⁿduat,,,0
48741345109,"Najit: Tanmial",-15.94786,167.18226,4050,child,pikinini,pikinini,,ⁿdipʷis,,,0
48741345109,"Najit: Tanmial",-15.94786,167.18226,4100,name,nem,nem,,nɛŋs-,,,0
48741345109,"Najit: Tanmial",-15.94786,167.18226,4310,mother,mama,mama,,məra-k,,,0
48741345109,"Najit: Tanmial",-15.94786,167.18226,4320,father,papa,papa,,tate,,,0
48741345109,"Najit: Tanmial",-15.94786,167.18226,4350,husband,man_blong_mi,man_blong_mi,,lɛlax,,,0
48741345109,"Najit: Tanmial",-15.94786,167.18226,4360,wife,woman_blong_mi,woman_blong_mi,,"ⁿduat sin",,,0
48741365109,"Nese: Tanmial",-15.9305,167.17653,4020,man,man,man,,nɛ-mɛrte,,,0
48741365109,"Nese: Tanmial",-15.9305,167.17653,4030,woman,woman,woman,,tavat,,,0
48741365109,"Nese: Tanmial",-15.9305,167.17653,4050,child,pikinini,pikinini,,ⁿdipʷis,,,0
48741365109,"Nese: Tanmial",-15.9305,167.17653,4100,name,nem,nem,,nɛŋ,,,0
48741365109,"Nese: Tanmial",-15.9305,167.17653,4310,mother,mama,mama,,ⁿdeβe,,,0
48741365109,"Nese: Tanmial",-15.9305,167.17653,4320,father,papa,papa,,tɛte,,,0
48741365109,"Nese: Tanmial",-15.9305,167.17653,4350,husband,man_blong_mi,man_blong_mi,,naume,,,0
48741365109,"Nese: Tanmial",-15.9305,167.17653,4360,wife,woman_blong_mi,woman_blong_mi,,nau-k,,,0
48741367209,"Nese: Sanboise",-15.91461,167.17833,4020,man,man,man,,nɛ-mɛrte,,,0
48741367209,"Nese: Sanboise",-15.91461,167.17833,4030,woman,woman,woman,,tavat,,,0
48741367209,"Nese: Sanboise",-15.91461,167.17833,4050,child,pikinini,pikinini,,teʧɪᵐblax,,,0
48741367209,"Nese: Sanboise",-15.91461,167.17833,4100,name,nem,nem,,..,,,0
48741367209,"Nese: Sanboise",-15.91461,167.17833,4310,mother,mama,mama,,..,,,0
48741367209,"Nese: Sanboise",-15.91461,167.17833,4320,father,papa,papa,,tɛte,,,0
48741367209,"Nese: Sanboise",-15.91461,167.17833,4350,husband,man_blong_mi,man_blong_mi,,deð̼e,,,0
48741367209,"Nese: Sanboise",-15.91461,167.17833,4360,wife,woman_blong_mi,woman_blong_mi,,..,,,0
48741556509,"Vao: Beetehul",-15.89728,167.30443,4020,man,man,man,,namɛr,,,0
48741556509,"Vao: Beetehul",-15.89728,167.30443,4030,woman,woman,woman,,ð̼̼að̼̼inɛ,,,0
48741556509,"Vao: Beetehul",-15.89728,167.30443,4050,child,pikinini,pikinini,,nasorik,,,0
48741556509,"Vao: Beetehul",-15.89728,167.30443,4100,name,nem,nem,,..,,,0
48741556509,"Vao: Beetehul",-15.89728,167.30443,4310,mother,mama,mama,,ᵐbee,,,0
48741556509,"Vao: Beetehul",-15.89728,167.30443,4320,father,papa,papa,,tɛɛ,,,0
48741556509,"Vao: Beetehul",-15.89728,167.30443,4350,husband,man_blong_mi,man_blong_mi,,"teð̼̼ena tu-k",,,0
48741556509,"Vao: Beetehul",-15.89728,167.30443,4360,wife,woman_blong_mi,woman_blong_mi,,"nuku ð̼̼að̼̼inɛ",,,0
48741557509,"Vao: Canada",-15.89978,167.30731,4020,man,man,man,,namɛr,,,0
48741557509,"Vao: Canada",-15.89978,167.30731,4030,woman,woman,woman,,ð̼að̼inɛ,,,0
48741557509,"Vao: Canada",-15.89978,167.30731,4050,child,pikinini,pikinini,,nasorik,,,0
48741557509,"Vao: Canada",-15.89978,167.30731,4100,name,nem,nem,,ne-ha-n,,,0
48741557509,"Vao: Canada",-15.89978,167.30731,4310,mother,mama,mama,,ᵐbi,,,0
48741557509,"Vao: Canada",-15.89978,167.30731,4320,father,papa,papa,,te,,,0
48741557509,"Vao: Canada",-15.89978,167.30731,4350,husband,man_blong_mi,man_blong_mi,,"nuku nahoᵐbɛ",,,0
48741557509,"Vao: Canada",-15.89978,167.30731,4360,wife,woman_blong_mi,woman_blong_mi,,"nuku ð̼að̼inɛ",,,0
48741557609,"Vao: Peteri",-15.89887,167.3051,4020,man,man,man,,namɛr,,,0
48741557609,"Vao: Peteri",-15.89887,167.3051,4030,woman,woman,woman,,ð̼̼avine,,,0
48741557609,"Vao: Peteri",-15.89887,167.3051,4050,child,pikinini,pikinini,,nasorik,,,0
48741557609,"Vao: Peteri",-15.89887,167.3051,4100,name,nem,nem,,nɪhɪɣan,,,0
48741557609,"Vao: Peteri",-15.89887,167.3051,4310,mother,mama,mama,,ᵐbi,,,0
48741557609,"Vao: Peteri",-15.89887,167.3051,4320,father,papa,papa,,te,,,0
48741557609,"Vao: Peteri",-15.89887,167.3051,4350,husband,man_blong_mi,man_blong_mi,,..,,,0
48741557609,"Vao: Peteri",-15.89887,167.3051,4360,wife,woman_blong_mi,woman_blong_mi,,"nuku ð̼̼avine",,,0
48741557709,"Vao: Torono",-15.89986,167.30819,4020,man,man,man,,namɛr,,,0
48741557709,"Vao: Torono",-15.89986,167.30819,4030,woman,woman,woman,,ð̼̼avʉnɛ,,,0
48741557709,"Vao: Torono",-15.89986,167.30819,4050,child,pikinini,pikinini,,nasorik,,,0
48741557709,"Vao: Torono",-15.89986,167.30819,4100,name,nem,nem,,nɪ-hɪɣa-n,,,0
48741557709,"Vao: Torono",-15.89986,167.30819,4310,mother,mama,mama,,pɪᵐbi,,,0
48741557709,"Vao: Torono",-15.89986,167.30819,4320,father,papa,papa,,nuku-te,,,0
48741557709,"Vao: Torono",-15.89986,167.30819,4350,husband,man_blong_mi,man_blong_mi,,"nuku nahoᵐbɛ",,,0
48741557709,"Vao: Torono",-15.89986,167.30819,4360,wife,woman_blong_mi,woman_blong_mi,,"nuku lɛktɛr",,,0
48741733509,"Tirax: Botmelesnial",-16.0583,167.369,4020,man,man,man,,..,,,0
48741733509,"Tirax: Botmelesnial",-16.0583,167.369,4030,woman,woman,woman,,vinaⁿdʳ,,,0
48741733509,"Tirax: Botmelesnial",-16.0583,167.369,4050,child,pikinini,pikinini,,tɛᵐbiᵐbi,,,0
48741733509,"Tirax: Botmelesnial",-16.0583,167.369,4100,name,nem,nem,,..,,,0
48741733509,"Tirax: Botmelesnial",-16.0583,167.369,4310,mother,mama,mama,,"ⁿdɪⁿde ho-k",,,0
48741733509,"Tirax: Botmelesnial",-16.0583,167.369,4320,father,papa,papa,,tate-ho-k,,,0
48741733509,"Tirax: Botmelesnial",-16.0583,167.369,4350,husband,man_blong_mi,man_blong_mi,,"mʷorti ho-k",,,0
48741733509,"Tirax: Botmelesnial",-16.0583,167.369,4360,wife,woman_blong_mi,woman_blong_mi,,"vinaⁿdʳ ho-k",,,0
48741733609,"Tirax: Mae",-16.05839,167.36953,4020,man,man,man,,nɛrnɛr,,,0
48741733609,"Tirax: Mae",-16.05839,167.36953,4030,woman,woman,woman,,finaⁿdʳ,,,0
48741733609,"Tirax: Mae",-16.05839,167.36953,4050,child,pikinini,pikinini,,tɛᵐbiʰ,,,0
48741733609,"Tirax: Mae",-16.05839,167.36953,4100,name,nem,nem,,na-haɣe,,,0
48741733609,"Tirax: Mae",-16.05839,167.36953,4310,mother,mama,mama,,ⁿdɪⁿde,,,0
48741733609,"Tirax: Mae",-16.05839,167.36953,4320,father,papa,papa,,tate,,,0
48741733609,"Tirax: Mae",-16.05839,167.36953,4320,father,papa,papa,,tata,,,0
48741733609,"Tirax: Mae",-16.05839,167.36953,4350,husband,man_blong_mi,man_blong_mi,,leəx,,,0
48741733609,"Tirax: Mae",-16.05839,167.36953,4360,wife,woman_blong_mi,woman_blong_mi,,finaⁿdʳ,,,0
48741735809,"Tirax: Bethel",-16.03923,167.40186,4020,man,man,man,,..,,,0
48741735809,"Tirax: Bethel",-16.03923,167.40186,4030,woman,woman,woman,,finaⁿdʳ,,,0
48741735809,"Tirax: Bethel",-16.03923,167.40186,4050,child,pikinini,pikinini,,ⁿtɛᵐbiᵐbih,,,0
48741735809,"Tirax: Bethel",-16.03923,167.40186,4100,name,nem,nem,,naɣe,,,0
48741735809,"Tirax: Bethel",-16.03923,167.40186,4310,mother,mama,mama,,ⁿdɪⁿde,,,0
48741735809,"Tirax: Bethel",-16.03923,167.40186,4320,father,papa,papa,,tate,,,0
48741735809,"Tirax: Bethel",-16.03923,167.40186,4350,husband,man_blong_mi,man_blong_mi,,..,,,0
48741735809,"Tirax: Bethel",-16.03923,167.40186,4360,wife,woman_blong_mi,woman_blong_mi,,finaⁿdʳa-n,,,0
48741736409,"Tirax: Olamb",-15.98701,167.26154,4020,man,man,man,,nɛrnɛr,,,0
48741736409,"Tirax: Olamb",-15.98701,167.26154,4030,woman,woman,woman,,vinaⁿdʳ,,,0
48741736409,"Tirax: Olamb",-15.98701,167.26154,4050,child,pikinini,pikinini,,tɛᵐbiᵐbiʰ,,,0
48741736409,"Tirax: Olamb",-15.98701,167.26154,4100,name,nem,nem,,naxa-m,,,0
48741736409,"Tirax: Olamb",-15.98701,167.26154,4310,mother,mama,mama,,nunu,,,0
48741736409,"Tirax: Olamb",-15.98701,167.26154,4320,father,papa,papa,,tata,,,0
48741736409,"Tirax: Olamb",-15.98701,167.26154,4350,husband,man_blong_mi,man_blong_mi,,"lɛɣ ha-m",,,0
48741736409,"Tirax: Olamb",-15.98701,167.26154,4360,wife,woman_blong_mi,woman_blong_mi,,"vinaⁿdʳ ha-m",,,0
48741736509,"Tirax: Bakru",-16.00354,167.29696,4020,man,man,man,,nɛrnɛr,,,0
48741736509,"Tirax: Bakru",-16.00354,167.29696,4030,woman,woman,woman,,vinaⁿdʳ,,,0
48741736509,"Tirax: Bakru",-16.00354,167.29696,4050,child,pikinini,pikinini,,tɛᵐbiʰ,,,0
48741736509,"Tirax: Bakru",-16.00354,167.29696,4100,name,nem,nem,,..,,,0
48741736509,"Tirax: Bakru",-16.00354,167.29696,4310,mother,mama,mama,,"nunu hʊ-k",,,0
48741736509,"Tirax: Bakru",-16.00354,167.29696,4320,father,papa,papa,,"tata hʊ-k",,,0
48741736509,"Tirax: Bakru",-16.00354,167.29696,4350,husband,man_blong_mi,man_blong_mi,,"leh hʊ-k",,,0
48741736509,"Tirax: Bakru",-16.00354,167.29696,4360,wife,woman_blong_mi,woman_blong_mi,,"vinaⁿdʳ hʊ-k",,,0
48741737809,"Tirax: Orap",-15.97,167.34464,4020,man,man,man,,nɛrnɛr,,,0
48741737809,"Tirax: Orap",-15.97,167.34464,4030,woman,woman,woman,,vinaⁿdʳ,,,0
48741737809,"Tirax: Orap",-15.97,167.34464,4050,child,pikinini,pikinini,,tɛᵐbiᵐbiʰ,,,0
48741737809,"Tirax: Orap",-15.97,167.34464,4100,name,nem,nem,,na-haɣa-k,,,0
48741737809,"Tirax: Orap",-15.97,167.34464,4310,mother,mama,mama,,ⁿdɪⁿde,,,0
48741737809,"Tirax: Orap",-15.97,167.34464,4320,father,papa,papa,,tate,,,0
48741737809,"Tirax: Orap",-15.97,167.34464,4350,husband,man_blong_mi,man_blong_mi,,"leəx ho-k",,,0
48741737809,"Tirax: Orap",-15.97,167.34464,4360,wife,woman_blong_mi,woman_blong_mi,,"vinaⁿdʳ ho-k",,,0
48741752709,"Atchin: Orap",-15.9156,167.30641,4020,man,man,man,,norman,,,0
48741752709,"Atchin: Orap",-15.9156,167.30641,4030,woman,woman,woman,,psevin,,,0
48741752709,"Atchin: Orap",-15.9156,167.30641,4050,child,pikinini,pikinini,,tipis,,,0
48741752709,"Atchin: Orap",-15.9156,167.30641,4100,name,nem,nem,,nɛ-sa-k,,,0
48741752709,"Atchin: Orap",-15.9156,167.30641,4310,mother,mama,mama,,"pe s-ak",,,0
48741752709,"Atchin: Orap",-15.9156,167.30641,4320,father,papa,papa,,"te s-ak",,,0
48741752709,"Atchin: Orap",-15.9156,167.30641,4350,husband,man_blong_mi,man_blong_mi,,"tɛwɛn s-ak",,,0
48741752709,"Atchin: Orap",-15.9156,167.30641,4360,wife,woman_blong_mi,woman_blong_mi,,"litɛr s-ak",,,0
48741752809,"Atchin: Small Island",-15.9439,167.33993,4020,man,man,man,,norman,,,0
48741752809,"Atchin: Small Island",-15.9439,167.33993,4030,woman,woman,woman,,wisevin,,,0
48741752809,"Atchin: Small Island",-15.9439,167.33993,4050,child,pikinini,pikinini,,tiβis,,,0
48741752809,"Atchin: Small Island",-15.9439,167.33993,4100,name,nem,nem,,nɛ-sɛ-n,,,0
48741752809,"Atchin: Small Island",-15.9439,167.33993,4310,mother,mama,mama,,pe,,,0
48741752809,"Atchin: Small Island",-15.9439,167.33993,4320,father,papa,papa,,te,,,0
48741752809,"Atchin: Small Island",-15.9439,167.33993,4350,husband,man_blong_mi,man_blong_mi,,"tɛwɛn s-ɛn",,,0
48741752809,"Atchin: Small Island",-15.9439,167.33993,4360,wife,woman_blong_mi,woman_blong_mi,,"letɛɾ s-ɛn",,,0
48741754509,"Wala: Botku",-15.96841,167.29246,4020,man,man,man,,norman,,,0
48741754509,"Wala: Botku",-15.96841,167.29246,4030,woman,woman,woman,,nɪ-vsevin,,,0
48741754509,"Wala: Botku",-15.96841,167.29246,4050,child,pikinini,pikinini,,bɪpɛriŋ,,,0
48741754509,"Wala: Botku",-15.96841,167.29246,4100,name,nem,nem,,nesɛ-k,,,0
48741754509,"Wala: Botku",-15.96841,167.29246,4310,mother,mama,mama,,mɪrɛ-k,,,0
48741754509,"Wala: Botku",-15.96841,167.29246,4320,father,papa,papa,,"tɛtɛ so-k",,,0
48741754509,"Wala: Botku",-15.96841,167.29246,4350,husband,man_blong_mi,man_blong_mi,,..,,,0
48741754509,"Wala: Botku",-15.96841,167.29246,4360,wife,woman_blong_mi,woman_blong_mi,,"lɛktɛr so-k",,,0
48741754709,"Wala: Worprev",-15.97775,167.37656,4020,man,man,man,,nɪ-maɣiᵐbʷariŋin,,,0
48741754709,"Wala: Worprev",-15.97775,167.37656,4030,woman,woman,woman,,nɪ-milevut,,,0
48741754709,"Wala: Worprev",-15.97775,167.37656,4050,child,pikinini,pikinini,,ni-tite,,,0
48741754709,"Wala: Worprev",-15.97775,167.37656,4100,name,nem,nem,,na-ɣasæ-n,,,0
48741754709,"Wala: Worprev",-15.97775,167.37656,4310,mother,mama,mama,,æsnan,,,0
48741754709,"Wala: Worprev",-15.97775,167.37656,4320,father,papa,papa,,atɪmæn,,,0
48741754709,"Wala: Worprev",-15.97775,167.37656,4350,husband,man_blong_mi,man_blong_mi,,asanɣaiut,,,0
48741754709,"Wala: Worprev",-15.97775,167.37656,4360,wife,woman_blong_mi,woman_blong_mi,,"minevut eɣai",,,0
48741754809,"Wala: Petreros",-15.97544,167.37627,4020,man,man,man,,noroman,,,0
48741754809,"Wala: Petreros",-15.97544,167.37627,4030,woman,woman,woman,,nɪ-vsevin,,,0
48741754809,"Wala: Petreros",-15.97544,167.37627,4050,child,pikinini,pikinini,,bɪbɛriŋ,,,0
48741754809,"Wala: Petreros",-15.97544,167.37627,4100,name,nem,nem,,ne-sɛ-m,,,0
48741754809,"Wala: Petreros",-15.97544,167.37627,4310,mother,mama,mama,,mɛrɛ-k,,,0
48741754809,"Wala: Petreros",-15.97544,167.37627,4320,father,papa,papa,,tɛte,,,0
48741754809,"Wala: Petreros",-15.97544,167.37627,4350,husband,man_blong_mi,man_blong_mi,,"ⁿdewɛn sɛ-n",,,0
48741754809,"Wala: Petreros",-15.97544,167.37627,4360,wife,woman_blong_mi,woman_blong_mi,,"lektɛr sɪ-n",,,0
48741754909,"Wala: Preng",-15.97342,167.37627,4020,man,man,man,,norman,,,0
48741754909,"Wala: Preng",-15.97342,167.37627,4030,woman,woman,woman,,nɪ-vsevin,,,0
48741754909,"Wala: Preng",-15.97342,167.37627,4050,child,pikinini,pikinini,,bɛperiŋ,,,0
48741754909,"Wala: Preng",-15.97342,167.37627,4100,name,nem,nem,,ne-sɛ-m,,,0
48741754909,"Wala: Preng",-15.97342,167.37627,4310,mother,mama,mama,,mɛrɛ-n,,,0
48741754909,"Wala: Preng",-15.97342,167.37627,4320,father,papa,papa,,"tɛtɛ se-n",,,0
48741754909,"Wala: Preng",-15.97342,167.37627,4350,husband,man_blong_mi,man_blong_mi,,"dewɛn sɛ-n",,,0
48741754909,"Wala: Preng",-15.97342,167.37627,4360,wife,woman_blong_mi,woman_blong_mi,,"nɪvsɛn se-n",,,0
48741756709,"Rano: Twalung",-15.98389,167.38444,4020,man,man,man,,norman,,,0
48741756709,"Rano: Twalung",-15.98389,167.38444,4030,woman,woman,woman,,nɪ-vsevin,,,0
48741756709,"Rano: Twalung",-15.98389,167.38444,4050,child,pikinini,pikinini,,bɪperiŋ,,,0
48741756709,"Rano: Twalung",-15.98389,167.38444,4100,name,nem,nem,,nɪ-sɛ-n,,,0
48741756709,"Rano: Twalung",-15.98389,167.38444,4310,mother,mama,mama,,mɛrɛ-n,,,0
48741756709,"Rano: Twalung",-15.98389,167.38444,4320,father,papa,papa,,tɛtɛ,,,0
48741756709,"Rano: Twalung",-15.98389,167.38444,4350,husband,man_blong_mi,man_blong_mi,,"duwɛn sɛ-n",,,0
48741756709,"Rano: Twalung",-15.98389,167.38444,4360,wife,woman_blong_mi,woman_blong_mi,,"lɪktɛr sɛ-n",,,0
48741756809,"Rano: Potora",-15.98472,167.3866,4020,man,man,man,,norman,,,0
48741756809,"Rano: Potora",-15.98472,167.3866,4030,woman,woman,woman,,nɪ-vsevin,,,0
48741756809,"Rano: Potora",-15.98472,167.3866,4050,child,pikinini,pikinini,,bopɘriŋ,,,0
48741756809,"Rano: Potora",-15.98472,167.3866,4100,name,nem,nem,,nɪ-sɛ-n,,,0
48741756809,"Rano: Potora",-15.98472,167.3866,4310,mother,mama,mama,,mɛrɛ-n,,,0
48741756809,"Rano: Potora",-15.98472,167.3866,4320,father,papa,papa,,tɛte,,,0
48741756809,"Rano: Potora",-15.98472,167.3866,4350,husband,man_blong_mi,man_blong_mi,,"dewɛn so-k",,,0
48741756809,"Rano: Potora",-15.98472,167.3866,4360,wife,woman_blong_mi,woman_blong_mi,,"nɪvsɛn sɛ-n",,,0
48741756909,"Rano: Chinambong",-15.99049,167.39063,4020,man,man,man,,norman,,,0
48741756909,"Rano: Chinambong",-15.99049,167.39063,4030,woman,woman,woman,,nɪ-vsevin,,,0
48741756909,"Rano: Chinambong",-15.99049,167.39063,4050,child,pikinini,pikinini,,ᵐbʷɛpɛriŋ,,,0
48741756909,"Rano: Chinambong",-15.99049,167.39063,4100,name,nem,nem,,nɪ-sɛ-m,,,0
48741756909,"Rano: Chinambong",-15.99049,167.39063,4310,mother,mama,mama,,mɪrɛ-n,,,0
48741756909,"Rano: Chinambong",-15.99049,167.39063,4320,father,papa,papa,,tɛte,,,0
48741756909,"Rano: Chinambong",-15.99049,167.39063,4350,husband,man_blong_mi,man_blong_mi,,"ⁿdewan sɛ-n",,,0
48741756909,"Rano: Chinambong",-15.99049,167.39063,4360,wife,woman_blong_mi,woman_blong_mi,,"nɪvsɛn so-k",,,0
48741757609,"Uripiv: Tautu Village",-16.06661,167.3975,4020,man,man,man,,norman,,,0
48741757609,"Uripiv: Tautu Village",-16.06661,167.3975,4030,woman,woman,woman,,nɛ-sewin,,,0
48741757609,"Uripiv: Tautu Village",-16.06661,167.3975,4050,child,pikinini,pikinini,,ᵐbɛpwariŋ,,,0
48741757609,"Uripiv: Tautu Village",-16.06661,167.3975,4100,name,nem,nem,,ni-sɛ-n,,,0
48741757609,"Uripiv: Tautu Village",-16.06661,167.3975,4310,mother,mama,mama,,mɛrɛn,,,0
48741757609,"Uripiv: Tautu Village",-16.06661,167.3975,4320,father,papa,papa,,tɛte,,,0
48741757609,"Uripiv: Tautu Village",-16.06661,167.3975,4350,husband,man_blong_mi,man_blong_mi,,ⁿdɛwɛnsɛn,,,0
48741757609,"Uripiv: Tautu Village",-16.06661,167.3975,4360,wife,woman_blong_mi,woman_blong_mi,,nɪsɛnʧɛn,,,0
48741758709,"Uripiv: Tautu",-16.06778,167.40111,4020,man,man,man,,norman,,,0
48741758709,"Uripiv: Tautu",-16.06778,167.40111,4030,woman,woman,woman,,nɛ-sewin,,,0
48741758709,"Uripiv: Tautu",-16.06778,167.40111,4050,child,pikinini,pikinini,,ᵐbɛpwariŋ,,,0
48741758709,"Uripiv: Tautu",-16.06778,167.40111,4100,name,nem,nem,,ni-sɛ-n,,,0
48741758709,"Uripiv: Tautu",-16.06778,167.40111,4310,mother,mama,mama,,mɛrɛn,,,0
48741758709,"Uripiv: Tautu",-16.06778,167.40111,4320,father,papa,papa,,tɛte,,,0
48741758709,"Uripiv: Tautu",-16.06778,167.40111,4350,husband,man_blong_mi,man_blong_mi,,"ⁿdɛwɛn sɛ-n",,,0
48741758709,"Uripiv: Tautu",-16.06778,167.40111,4360,wife,woman_blong_mi,woman_blong_mi,,nɪ-sɛn-ʧɛ-n,,,0
48741758809,"Uripiv: Durpif",-16.07265,167.447,4020,man,man,man,,norman,,,0
48741758809,"Uripiv: Durpif",-16.07265,167.447,4030,woman,woman,woman,,nɛ-sevin,,,0
48741758809,"Uripiv: Durpif",-16.07265,167.447,4050,child,pikinini,pikinini,,bipuarɛŋ,,,0
48741758809,"Uripiv: Durpif",-16.07265,167.447,4100,name,nem,nem,,ni-sɛ-k,,,0
48741758809,"Uripiv: Durpif",-16.07265,167.447,4310,mother,mama,mama,,tasu,,,0
48741758809,"Uripiv: Durpif",-16.07265,167.447,4320,father,papa,papa,,tata,,,0
48741758809,"Uripiv: Durpif",-16.07265,167.447,4350,husband,man_blong_mi,man_blong_mi,,ⁿdiwɛn,,,0
48741758809,"Uripiv: Durpif",-16.07265,167.447,4360,wife,woman_blong_mi,woman_blong_mi,,"nɛ-seβin sɛ-n",,,0
48741758909,"Uripiv: Potnambe",-16.07391,167.45203,4020,man,man,man,,..,,,0
48741758909,"Uripiv: Potnambe",-16.07391,167.45203,4030,woman,woman,woman,,nɛ-sevin,,,0
48741758909,"Uripiv: Potnambe",-16.07391,167.45203,4050,child,pikinini,pikinini,,ᵐbipiwariŋ,,,0
48741758909,"Uripiv: Potnambe",-16.07391,167.45203,4100,name,nem,nem,,ni-sɛ-n,,,0
48741758909,"Uripiv: Potnambe",-16.07391,167.45203,4310,mother,mama,mama,,tasu,,,0
48741758909,"Uripiv: Potnambe",-16.07391,167.45203,4320,father,papa,papa,,tata,,,0
48741758909,"Uripiv: Potnambe",-16.07391,167.45203,4350,husband,man_blong_mi,man_blong_mi,,"ⁿdiwɛn sɛ-n",,,0
48741758909,"Uripiv: Potnambe",-16.07391,167.45203,4360,wife,woman_blong_mi,woman_blong_mi,,"nɛ-sɛn sɛ-n",,,0
48741953109,"Wowo: Lesarmalas",-15.90733,167.17927,4020,man,man,man,,mɛɾɛte,,,0
48741953109,"Wowo: Lesarmalas",-15.90733,167.17927,4030,woman,woman,woman,,na-ðaðɛn,,,0
48741953109,"Wowo: Lesarmalas",-15.90733,167.17927,4050,child,pikinini,pikinini,,nɪ-tisiᵐblax,,,0
48741953109,"Wowo: Lesarmalas",-15.90733,167.17927,4100,name,nem,nem,,..,,,0
48741953109,"Wowo: Lesarmalas",-15.90733,167.17927,4310,mother,mama,mama,,nɛɾa-n,,,0
48741953109,"Wowo: Lesarmalas",-15.90733,167.17927,4320,father,papa,papa,,tana-n,,,0
48741953109,"Wowo: Lesarmalas",-15.90733,167.17927,4350,husband,man_blong_mi,man_blong_mi,,"nɛ-hɛl-ha n",,,0
48741953109,"Wowo: Lesarmalas",-15.90733,167.17927,4360,wife,woman_blong_mi,woman_blong_mi,,"lɪgtɛɾ-ha n",,,0
48741954109,"Wowo: Wowo",-15.90224,167.18459,4020,man,man,man,,nɛ-mɛrɛte,,,0
48741954109,"Wowo: Wowo",-15.90224,167.18459,4030,woman,woman,woman,,na-ðaðɛn,,,0
48741954109,"Wowo: Wowo",-15.90224,167.18459,4050,child,pikinini,pikinini,,nɛ-ʧimlax,,,0
48741954109,"Wowo: Wowo",-15.90224,167.18459,4100,name,nem,nem,,na-haɣe,,,0
48741954109,"Wowo: Wowo",-15.90224,167.18459,4310,mother,mama,mama,,deðe,,,0
48741954109,"Wowo: Wowo",-15.90224,167.18459,4320,father,papa,papa,,tɛte,,,0
48741954109,"Wowo: Wowo",-15.90224,167.18459,4350,husband,man_blong_mi,man_blong_mi,,"nɛ-hɛl ha-n",,,0
48741954109,"Wowo: Wowo",-15.90224,167.18459,4360,wife,woman_blong_mi,woman_blong_mi,,"lɛktɛr ha-n",,,0
48741956109,"Alavas: Wowo",-15.90293,167.18499,4020,man,man,man,,nɛ-mɛɾɛte,,,0
48741956109,"Alavas: Wowo",-15.90293,167.18499,4030,woman,woman,woman,,na-ðaðɛn,,,0
48741956109,"Alavas: Wowo",-15.90293,167.18499,4050,child,pikinini,pikinini,,ʧiᵐblax,,,0
48741956109,"Alavas: Wowo",-15.90293,167.18499,4100,name,nem,nem,,ne-haɣa-k,,,0
48741956109,"Alavas: Wowo",-15.90293,167.18499,4310,mother,mama,mama,,nɛra-k,,,0
48741956109,"Alavas: Wowo",-15.90293,167.18499,4320,father,papa,papa,,tɛte-ha-k,,,0
48741956109,"Alavas: Wowo",-15.90293,167.18499,4350,husband,man_blong_mi,man_blong_mi,,"nɛ-hɛl ha-k",,,0
48741956109,"Alavas: Wowo",-15.90293,167.18499,4360,wife,woman_blong_mi,woman_blong_mi,,"lɪgtɛr ha-k",,,0
48741957109,"Alavas: Alavas",-15.89046,167.24151,4020,man,man,man,,nɛ-mɛrɛte,,,0
48741957109,"Alavas: Alavas",-15.89046,167.24151,4030,woman,woman,woman,,na-ðaðɛn,,,0
48741957109,"Alavas: Alavas",-15.89046,167.24151,4050,child,pikinini,pikinini,,ni-ʧiᵐblax,,,0
48741957109,"Alavas: Alavas",-15.89046,167.24151,4100,name,nem,nem,,na-haɣe,,,0
48741957109,"Alavas: Alavas",-15.89046,167.24151,4310,mother,mama,mama,,ʃuʒu,,,0
48741957109,"Alavas: Alavas",-15.89046,167.24151,4320,father,papa,papa,,tɛte,,,0
48741957109,"Alavas: Alavas",-15.89046,167.24151,4350,husband,man_blong_mi,man_blong_mi,,oroŋɔ,,,0
48741957109,"Alavas: Alavas",-15.89046,167.24151,4360,wife,woman_blong_mi,woman_blong_mi,,"lɛgtɛr ha-k",,,0
