LanguageId,LanguageName,Latitude,Longitude,WordId,WordModernName1,WordModernName2,WordProtoName1,WordProtoName2,Phonetic,SpellingAltv1,SpellingAltv2,NotCognateWithMainWordInThisFamily
48741151109,"V’ënen Taute: Alpalak",-15.99722,167.1825,2010,head,hed,hed,,pət-n,,,0
48741151109,"V’ënen Taute: Alpalak",-15.99722,167.1825,2050,hair,hea,hea,,nil-,,,0
48741151109,"V’ënen Taute: Alpalak",-15.99722,167.1825,2110,eye,ae,ae,,n̼ata-,,,0
48741151109,"V’ënen Taute: Alpalak",-15.99722,167.1825,2120,nose,nus,nus,,suka-,,,0
48741151109,"V’ënen Taute: Alpalak",-15.99722,167.1825,2130,ear,sora,sora,,ⁿdʳɪlna-,,,0
48741151109,"V’ënen Taute: Alpalak",-15.99722,167.1825,2210,mouth,maot,maot,,pn-,,,0
48741151109,"V’ënen Taute: Alpalak",-15.99722,167.1825,2230,tongue,tang,tang,,lɪm-n,,,0
48741151109,"V’ënen Taute: Alpalak",-15.99722,167.1825,2240,tooth,tut,tut,,lu-,,,0
48741151109,"V’ënen Taute: Alpalak",-15.99722,167.1825,2310,hand,han,han,,lɪn̼a-,,,0
48741151109,"V’ënen Taute: Alpalak",-15.99722,167.1825,2330,shoulder,solda,solda,,fʷan,,,0
48741151109,"V’ënen Taute: Alpalak",-15.99722,167.1825,2410,neck,nek,nek,,natəf-,,,0
48741151109,"V’ënen Taute: Alpalak",-15.99722,167.1825,2420,back,baksaed,baksaed,,ⁿdu-n,,,0
48741151109,"V’ënen Taute: Alpalak",-15.99722,167.1825,2520,leg,lek,lek,,tl-,,,0
48741151109,"V’ënen Taute: Alpalak",-15.99722,167.1825,2610,blood,blad,blad,,na-ⁿde,,,0
48741151109,"V’ënen Taute: Alpalak",-15.99722,167.1825,2620,bone,bun,bun,,na-su-,,,0
48741151109,"V’ënen Taute: Alpalak",-15.99722,167.1825,2630,skin,sikin,sikin,,n-ilp’-k,,,0
48741151109,"V’ënen Taute: Alpalak",-15.99722,167.1825,2710,belly,bel,bel,,ð̼ɛt-,,,0
48741151109,"V’ënen Taute: Alpalak",-15.99722,167.1825,2720,intestines,kat,kat,,an-,,,0
48741151109,"V’ënen Taute: Alpalak",-15.99722,167.1825,2740,breast,titi,titi,,nunu,,,0
48741151109,"V’ënen Taute: Alpalak",-15.99722,167.1825,2840,liver,leva,leva,,arn-ən,,,0
48741153209,"V’ënen Taute: Benenavet",-16.02038,167.17671,2010,head,hed,hed,,pətk,,,0
48741153209,"V’ënen Taute: Benenavet",-16.02038,167.17671,2050,hair,hea,hea,,nil,,,0
48741153209,"V’ënen Taute: Benenavet",-16.02038,167.17671,2110,eye,ae,ae,,n̼ata,,,0
48741153209,"V’ënen Taute: Benenavet",-16.02038,167.17671,2120,nose,nus,nus,,ʃuka,,,0
48741153209,"V’ënen Taute: Benenavet",-16.02038,167.17671,2130,ear,sora,sora,,ⁿdʳɪlinam,,,0
48741153209,"V’ënen Taute: Benenavet",-16.02038,167.17671,2210,mouth,maot,maot,,pn,,,0
48741153209,"V’ënen Taute: Benenavet",-16.02038,167.17671,2230,tongue,tang,tang,,n̼ɛn̼ɛm,,,0
48741153209,"V’ënen Taute: Benenavet",-16.02038,167.17671,2240,tooth,tut,tut,,lun,,,0
48741153209,"V’ënen Taute: Benenavet",-16.02038,167.17671,2310,hand,han,han,,lɪmɛk,,,0
48741153209,"V’ënen Taute: Benenavet",-16.02038,167.17671,2330,shoulder,solda,solda,,..,,,0
48741153209,"V’ënen Taute: Benenavet",-16.02038,167.17671,2410,neck,nek,nek,,natv,,,0
48741153209,"V’ënen Taute: Benenavet",-16.02038,167.17671,2420,back,baksaed,baksaed,,ⁿdun,,,0
48741153209,"V’ënen Taute: Benenavet",-16.02038,167.17671,2520,leg,lek,lek,,tlk,,,0
48741153209,"V’ënen Taute: Benenavet",-16.02038,167.17671,2610,blood,blad,blad,,naⁿde,,,0
48741153209,"V’ënen Taute: Benenavet",-16.02038,167.17671,2620,bone,bun,bun,,ʃun,,,0
48741153209,"V’ënen Taute: Benenavet",-16.02038,167.17671,2630,skin,sikin,sikin,,nilɛpakn,,,0
48741153209,"V’ënen Taute: Benenavet",-16.02038,167.17671,2710,belly,bel,bel,,fatk,,,0
48741153209,"V’ënen Taute: Benenavet",-16.02038,167.17671,2720,intestines,kat,kat,,..,,,0
48741153209,"V’ënen Taute: Benenavet",-16.02038,167.17671,2740,breast,titi,titi,,nunu,,,0
48741153209,"V’ënen Taute: Benenavet",-16.02038,167.17671,2840,liver,leva,leva,,..,,,0
48741155209,"V’ënen Taute: Benmara",-16.05552,167.23261,2010,head,hed,hed,,pt-n,,,0
48741155209,"V’ënen Taute: Benmara",-16.05552,167.23261,2050,hair,hea,hea,,n-ið̼-n,,,0
48741155209,"V’ënen Taute: Benmara",-16.05552,167.23261,2110,eye,ae,ae,,lɪ-n̼aætɛ-n,,,0
48741155209,"V’ënen Taute: Benmara",-16.05552,167.23261,2120,nose,nus,nus,,suka-,,,0
48741155209,"V’ënen Taute: Benmara",-16.05552,167.23261,2130,ear,sora,sora,,ⁿdʳɪlina-n,,,0
48741155209,"V’ënen Taute: Benmara",-16.05552,167.23261,2210,mouth,maot,maot,,pn-,,,0
48741155209,"V’ënen Taute: Benmara",-16.05552,167.23261,2230,tongue,tang,tang,,n̼m-,,,0
48741155209,"V’ënen Taute: Benmara",-16.05552,167.23261,2240,tooth,tut,tut,,lu-,,,0
48741155209,"V’ënen Taute: Benmara",-16.05552,167.23261,2310,hand,han,han,,lɪn̼æ-,,,0
48741155209,"V’ënen Taute: Benmara",-16.05552,167.23261,2330,shoulder,solda,solda,,fa-,,,0
48741155209,"V’ënen Taute: Benmara",-16.05552,167.23261,2410,neck,nek,nek,,natəf-,,,0
48741155209,"V’ënen Taute: Benmara",-16.05552,167.23261,2420,back,baksaed,baksaed,,ⁿdu-,,,0
48741155209,"V’ënen Taute: Benmara",-16.05552,167.23261,2520,leg,lek,lek,,tl-,,,0
48741155209,"V’ënen Taute: Benmara",-16.05552,167.23261,2610,blood,blad,blad,,na-ⁿde,,,0
48741155209,"V’ënen Taute: Benmara",-16.05552,167.23261,2620,bone,bun,bun,,na-su-,,,0
48741155209,"V’ënen Taute: Benmara",-16.05552,167.23261,2630,skin,sikin,sikin,,n-ilɛpɛ-k,,,0
48741155209,"V’ënen Taute: Benmara",-16.05552,167.23261,2710,belly,bel,bel,,fɛð̼-,,,0
48741155209,"V’ënen Taute: Benmara",-16.05552,167.23261,2720,intestines,kat,kat,,ɛn-n,,,0
48741155209,"V’ënen Taute: Benmara",-16.05552,167.23261,2740,breast,titi,titi,,nunu,,,0
48741155209,"V’ënen Taute: Benmara",-16.05552,167.23261,2840,liver,leva,leva,,rɪnɛ-n,,,0
48741157409,"V’ënen Taute: Unmet",-16.15371,167.26022,2010,head,hed,hed,,pət-n,,,0
48741157409,"V’ënen Taute: Unmet",-16.15371,167.26022,2050,hair,hea,hea,,nil-k,,,0
48741157409,"V’ënen Taute: Unmet",-16.15371,167.26022,2110,eye,ae,ae,,mata-k,,,0
48741157409,"V’ënen Taute: Unmet",-16.15371,167.26022,2120,nose,nus,nus,,..,,,0
48741157409,"V’ënen Taute: Unmet",-16.15371,167.26022,2130,ear,sora,sora,,ⁿdʳɪlna-k,,,0
48741157409,"V’ënen Taute: Unmet",-16.15371,167.26022,2210,mouth,maot,maot,,pn-k,,,0
48741157409,"V’ënen Taute: Unmet",-16.15371,167.26022,2230,tongue,tang,tang,,nlm-k,,,0
48741157409,"V’ënen Taute: Unmet",-16.15371,167.26022,2240,tooth,tut,tut,,lu-k,,,0
48741157409,"V’ënen Taute: Unmet",-16.15371,167.26022,2310,hand,han,han,,lɪma-k,,,0
48741157409,"V’ënen Taute: Unmet",-16.15371,167.26022,2330,shoulder,solda,solda,,vən,,,0
48741157409,"V’ënen Taute: Unmet",-16.15371,167.26022,2410,neck,nek,nek,,natəv-,,,0
48741157409,"V’ënen Taute: Unmet",-16.15371,167.26022,2420,back,baksaed,baksaed,,ⁿdu-n,,,0
48741157409,"V’ënen Taute: Unmet",-16.15371,167.26022,2520,leg,lek,lek,,tl-k,,,0
48741157409,"V’ënen Taute: Unmet",-16.15371,167.26022,2610,blood,blad,blad,,na-ⁿde,,,0
48741157409,"V’ënen Taute: Unmet",-16.15371,167.26022,2620,bone,bun,bun,,su-n,,,0
48741157409,"V’ënen Taute: Unmet",-16.15371,167.26022,2630,skin,sikin,sikin,,ni-lepa-kn,,,0
48741157409,"V’ënen Taute: Unmet",-16.15371,167.26022,2710,belly,bel,bel,,vat-n,,,0
48741157409,"V’ënen Taute: Unmet",-16.15371,167.26022,2720,intestines,kat,kat,,xɛn-,,,0
48741157409,"V’ënen Taute: Unmet",-16.15371,167.26022,2740,breast,titi,titi,,nunu,,,0
48741157409,"V’ënen Taute: Unmet",-16.15371,167.26022,2840,liver,leva,leva,,xarn-ən,,,0
48741158409,"V’ënen Taute: Hamax",-16.111,167.249,2010,head,hed,hed,,pət-k,,,0
48741158409,"V’ënen Taute: Hamax",-16.111,167.249,2050,hair,hea,hea,,nil-,,,0
48741158409,"V’ënen Taute: Hamax",-16.111,167.249,2110,eye,ae,ae,,n̼ata-,,,0
48741158409,"V’ënen Taute: Hamax",-16.111,167.249,2120,nose,nus,nus,,ʃuka-,,,0
48741158409,"V’ënen Taute: Hamax",-16.111,167.249,2130,ear,sora,sora,,ⁿdʳɪlina-m,,,0
48741158409,"V’ënen Taute: Hamax",-16.111,167.249,2210,mouth,maot,maot,,pn-,,,0
48741158409,"V’ënen Taute: Hamax",-16.111,167.249,2230,tongue,tang,tang,,n̼ɛn̼ɛ-m,,,0
48741158409,"V’ënen Taute: Hamax",-16.111,167.249,2240,tooth,tut,tut,,lu-n,,,0
48741158409,"V’ënen Taute: Hamax",-16.111,167.249,2310,hand,han,han,,lɪmɛ-k,,,0
48741158409,"V’ënen Taute: Hamax",-16.111,167.249,2330,shoulder,solda,solda,,..,,,0
48741158409,"V’ënen Taute: Hamax",-16.111,167.249,2410,neck,nek,nek,,natv-,,,0
48741158409,"V’ënen Taute: Hamax",-16.111,167.249,2420,back,baksaed,baksaed,,ⁿdu-n,,,0
48741158409,"V’ënen Taute: Hamax",-16.111,167.249,2520,leg,lek,lek,,tl-k,,,0
48741158409,"V’ënen Taute: Hamax",-16.111,167.249,2610,blood,blad,blad,,na-ⁿde,,,0
48741158409,"V’ënen Taute: Hamax",-16.111,167.249,2620,bone,bun,bun,,ʃu-n,,,0
48741158409,"V’ënen Taute: Hamax",-16.111,167.249,2630,skin,sikin,sikin,,ni-lɛpa-kn,,,0
48741158409,"V’ënen Taute: Hamax",-16.111,167.249,2710,belly,bel,bel,,fat-k,,,0
48741158409,"V’ënen Taute: Hamax",-16.111,167.249,2720,intestines,kat,kat,,..,,,0
48741158409,"V’ënen Taute: Hamax",-16.111,167.249,2740,breast,titi,titi,,nunu,,,0
48741158409,"V’ënen Taute: Hamax",-16.111,167.249,2840,liver,leva,leva,,..,,,0
48741322109,"Espiegel’s Bay: Solwota",-15.979,167.192,2010,head,hed,hed,,ᵐbatɪ-n,,,0
48741322109,"Espiegel’s Bay: Solwota",-15.979,167.192,2050,hair,hea,hea,,"nɪ-vulo-n ᵐbatɪ-n",,,0
48741322109,"Espiegel’s Bay: Solwota",-15.979,167.192,2110,eye,ae,ae,,nɪ-mto-m,,,0
48741322109,"Espiegel’s Bay: Solwota",-15.979,167.192,2120,nose,nus,nus,,ᵑgusu-n,,,0
48741322109,"Espiegel’s Bay: Solwota",-15.979,167.192,2130,ear,sora,sora,,ᵐboro-n,,,0
48741322109,"Espiegel’s Bay: Solwota",-15.979,167.192,2210,mouth,maot,maot,,ⁿʒoŋo-n,,,0
48741322109,"Espiegel’s Bay: Solwota",-15.979,167.192,2230,tongue,tang,tang,,nɪ-mɪmɛ-m,,,0
48741322109,"Espiegel’s Bay: Solwota",-15.979,167.192,2240,tooth,tut,tut,,luwo-n,,,0
48741322109,"Espiegel’s Bay: Solwota",-15.979,167.192,2310,hand,han,han,,nɪ-vəra-k,,,0
48741322109,"Espiegel’s Bay: Solwota",-15.979,167.192,2330,shoulder,solda,solda,,ᵐbəlɛ-,,,0
48741322109,"Espiegel’s Bay: Solwota",-15.979,167.192,2410,neck,nek,nek,,ⁿzɛlɣa-k,,,0
48741322109,"Espiegel’s Bay: Solwota",-15.979,167.192,2420,back,baksaed,baksaed,,ⁿʒɪpɪnu-k,,,0
48741322109,"Espiegel’s Bay: Solwota",-15.979,167.192,2520,leg,lek,lek,,ni-mila-k,,,0
48741322109,"Espiegel’s Bay: Solwota",-15.979,167.192,2610,blood,blad,blad,,ni-re,,,0
48741322109,"Espiegel’s Bay: Solwota",-15.979,167.192,2620,bone,bun,bun,,ⁿzɪ-n,,,0
48741322109,"Espiegel’s Bay: Solwota",-15.979,167.192,2630,skin,sikin,sikin,,..,,,0
48741322109,"Espiegel’s Bay: Solwota",-15.979,167.192,2710,belly,bel,bel,,lagwɔ-k,,,0
48741322109,"Espiegel’s Bay: Solwota",-15.979,167.192,2720,intestines,kat,kat,,ⁿdɛŋ-nɛtsɛ-n,,,0
48741322109,"Espiegel’s Bay: Solwota",-15.979,167.192,2740,breast,titi,titi,,na-sus,,,0
48741322109,"Espiegel’s Bay: Solwota",-15.979,167.192,2840,liver,leva,leva,,..,,,0
48741324209,"Espiegel’s Bay: Litebral",-15.974,167.193,2010,head,hed,hed,,ᵐbatə-r,,,0
48741324209,"Espiegel’s Bay: Litebral",-15.974,167.193,2050,hair,hea,hea,,"nlo ᵐbatɪr",,,0
48741324209,"Espiegel’s Bay: Litebral",-15.974,167.193,2110,eye,ae,ae,,lɛmtɛr,,,0
48741324209,"Espiegel’s Bay: Litebral",-15.974,167.193,2120,nose,nus,nus,,ᵑgəsɛ-r,,,0
48741324209,"Espiegel’s Bay: Litebral",-15.974,167.193,2130,ear,sora,sora,,ᵐboro-r,,,0
48741324209,"Espiegel’s Bay: Litebral",-15.974,167.193,2210,mouth,maot,maot,,sɪŋo-r,,,0
48741324209,"Espiegel’s Bay: Litebral",-15.974,167.193,2230,tongue,tang,tang,,nɪ-mɪmɛ-r,,,0
48741324209,"Espiegel’s Bay: Litebral",-15.974,167.193,2240,tooth,tut,tut,,luwo-r,,,0
48741324209,"Espiegel’s Bay: Litebral",-15.974,167.193,2310,hand,han,han,,no-voro-m,,,0
48741324209,"Espiegel’s Bay: Litebral",-15.974,167.193,2330,shoulder,solda,solda,,ᵐbəlɛ-r,,,0
48741324209,"Espiegel’s Bay: Litebral",-15.974,167.193,2410,neck,nek,nek,,ⁿʧɛlɣɛ-r,,,0
48741324209,"Espiegel’s Bay: Litebral",-15.974,167.193,2420,back,baksaed,baksaed,,ⁿʒɪpɪno-r,,,0
48741324209,"Espiegel’s Bay: Litebral",-15.974,167.193,2520,leg,lek,lek,,nə-mʷɛlo-m,,,0
48741324209,"Espiegel’s Bay: Litebral",-15.974,167.193,2610,blood,blad,blad,,ni-re,,,0
48741324209,"Espiegel’s Bay: Litebral",-15.974,167.193,2620,bone,bun,bun,,ⁿʒi-r,,,0
48741324209,"Espiegel’s Bay: Litebral",-15.974,167.193,2630,skin,sikin,sikin,,..,,,0
48741324209,"Espiegel’s Bay: Litebral",-15.974,167.193,2710,belly,bel,bel,,lɛvuɣɛ-r,,,0
48741324209,"Espiegel’s Bay: Litebral",-15.974,167.193,2720,intestines,kat,kat,,ⁿdɛŋ-nɛtsɛ-,,,0
48741324209,"Espiegel’s Bay: Litebral",-15.974,167.193,2740,breast,titi,titi,,na-sus,,,0
48741324209,"Espiegel’s Bay: Litebral",-15.974,167.193,2840,liver,leva,leva,,..,,,0
48741324309,"Espiegel’s Bay: Unspecified",-15.98228,167.19103,2050,hair,hea,hea,,"nɪ-vulo-n ᵐbatɪ-n",,,0
48741324309,"Espiegel’s Bay: Unspecified",-15.98228,167.19103,2110,eye,ae,ae,,lɪmtɛ-n,,,0
48741324309,"Espiegel’s Bay: Unspecified",-15.98228,167.19103,2120,nose,nus,nus,,ᵑgəsɪ-n,,,0
48741324309,"Espiegel’s Bay: Unspecified",-15.98228,167.19103,2130,ear,sora,sora,,ᵐboro-n,,,0
48741324309,"Espiegel’s Bay: Unspecified",-15.98228,167.19103,2210,mouth,maot,maot,,ⁿʒɪŋo-n,,,0
48741324309,"Espiegel’s Bay: Unspecified",-15.98228,167.19103,2230,tongue,tang,tang,,nɪ-mɪmɛ-n,,,0
48741324309,"Espiegel’s Bay: Unspecified",-15.98228,167.19103,2240,tooth,tut,tut,,luwo-n,,,0
48741324309,"Espiegel’s Bay: Unspecified",-15.98228,167.19103,2310,hand,han,han,,nɛ-vɛrɛ-n,,,0
48741324309,"Espiegel’s Bay: Unspecified",-15.98228,167.19103,2330,shoulder,solda,solda,,ᵐbɪlɪ-n,,,0
48741324309,"Espiegel’s Bay: Unspecified",-15.98228,167.19103,2410,neck,nek,nek,,ⁿʧɛlɣa-k,,,0
48741324309,"Espiegel’s Bay: Unspecified",-15.98228,167.19103,2420,back,baksaed,baksaed,,ⁿt͡sɪpɪnu-n,,,0
48741324309,"Espiegel’s Bay: Unspecified",-15.98228,167.19103,2520,leg,lek,lek,,nɪ-mʷilɛ-n,,,0
48741324309,"Espiegel’s Bay: Unspecified",-15.98228,167.19103,2610,blood,blad,blad,,ni-ɣe,,,0
48741324309,"Espiegel’s Bay: Unspecified",-15.98228,167.19103,2620,bone,bun,bun,,ⁿt͡sɪ-n,,,0
48741324309,"Espiegel’s Bay: Unspecified",-15.98228,167.19103,2630,skin,sikin,sikin,,nu-vulo-n,,,0
48741324309,"Espiegel’s Bay: Unspecified",-15.98228,167.19103,2710,belly,bel,bel,,lɛxuwɛ-n,,,0
48741324309,"Espiegel’s Bay: Unspecified",-15.98228,167.19103,2720,intestines,kat,kat,,teŋ-net͡sɪ-n,,,0
48741324309,"Espiegel’s Bay: Unspecified",-15.98228,167.19103,2740,breast,titi,titi,,na-susɛ-n,,,0
48741326309,"Malua Bay: Coast",-15.98334,167.18798,2010,head,hed,hed,,ᵐbat-n,,,0
48741326309,"Malua Bay: Coast",-15.98334,167.18798,2050,hair,hea,hea,,nɪ-vulo-n,,,0
48741326309,"Malua Bay: Coast",-15.98334,167.18798,2110,eye,ae,ae,,nɪ-mtæ-n,,,0
48741326309,"Malua Bay: Coast",-15.98334,167.18798,2120,nose,nus,nus,,ᵑguʒu-n,,,0
48741326309,"Malua Bay: Coast",-15.98334,167.18798,2130,ear,sora,sora,,ᵐboro-n,,,0
48741326309,"Malua Bay: Coast",-15.98334,167.18798,2210,mouth,maot,maot,,ⁿʒoŋo-n,,,0
48741326309,"Malua Bay: Coast",-15.98334,167.18798,2230,tongue,tang,tang,,nɪ-mɪmɛ-n,,,0
48741326309,"Malua Bay: Coast",-15.98334,167.18798,2240,tooth,tut,tut,,luvʷo-n,,,0
48741326309,"Malua Bay: Coast",-15.98334,167.18798,2310,hand,han,han,,nɪ-vura-n,,,0
48741326309,"Malua Bay: Coast",-15.98334,167.18798,2330,shoulder,solda,solda,,ᵐbɛtaɣpɛs,,,0
48741326309,"Malua Bay: Coast",-15.98334,167.18798,2410,neck,nek,nek,,..,,,0
48741326309,"Malua Bay: Coast",-15.98334,167.18798,2420,back,baksaed,baksaed,,ⁿdaɣa-n,,,0
48741326309,"Malua Bay: Coast",-15.98334,167.18798,2520,leg,lek,lek,,nɪ-malɛ-n,,,0
48741326309,"Malua Bay: Coast",-15.98334,167.18798,2610,blood,blad,blad,,na-re,,,0
48741326309,"Malua Bay: Coast",-15.98334,167.18798,2620,bone,bun,bun,,ⁿʒi-n,,,0
48741326309,"Malua Bay: Coast",-15.98334,167.18798,2630,skin,sikin,sikin,,nɪ-vulo-n,,,0
48741326309,"Malua Bay: Coast",-15.98334,167.18798,2710,belly,bel,bel,,lɪvɛɣa-n,,,0
48741326309,"Malua Bay: Coast",-15.98334,167.18798,2720,intestines,kat,kat,,ⁿʒɪnɛ-n,,,0
48741326309,"Malua Bay: Coast",-15.98334,167.18798,2740,breast,titi,titi,,na-ʃuʃ,,,0
48741326309,"Malua Bay: Coast",-15.98334,167.18798,2840,liver,leva,leva,,lalɛ-n,,,0
48741327409,"Malua Bay: Petarmul",-16.00022,167.22137,2010,head,hed,hed,,ᵐbat-n,,,0
48741327409,"Malua Bay: Petarmul",-16.00022,167.22137,2050,hair,hea,hea,,"nɪ-vɪlɛ-n ᵐbat-n",,,0
48741327409,"Malua Bay: Petarmul",-16.00022,167.22137,2110,eye,ae,ae,,nɪ-mta-k,,,0
48741327409,"Malua Bay: Petarmul",-16.00022,167.22137,2120,nose,nus,nus,,ᵑgusu-n,,,0
48741327409,"Malua Bay: Petarmul",-16.00022,167.22137,2130,ear,sora,sora,,ᵐboro-n,,,0
48741327409,"Malua Bay: Petarmul",-16.00022,167.22137,2210,mouth,maot,maot,,ⁿʒoŋo-n,,,0
48741327409,"Malua Bay: Petarmul",-16.00022,167.22137,2230,tongue,tang,tang,,nɪ-mɪmɛ-n,,,0
48741327409,"Malua Bay: Petarmul",-16.00022,167.22137,2240,tooth,tut,tut,,luvʷo-n,,,0
48741327409,"Malua Bay: Petarmul",-16.00022,167.22137,2310,hand,han,han,,nɪ-vura-k,,,0
48741327409,"Malua Bay: Petarmul",-16.00022,167.22137,2330,shoulder,solda,solda,,"ᵐbotokpas nɪ-vɛra-n",,,0
48741327409,"Malua Bay: Petarmul",-16.00022,167.22137,2410,neck,nek,nek,,..,,,0
48741327409,"Malua Bay: Petarmul",-16.00022,167.22137,2420,back,baksaed,baksaed,,ⁿdaɣ-n,,,0
48741327409,"Malua Bay: Petarmul",-16.00022,167.22137,2520,leg,lek,lek,,nɪ-malɛ-k,,,0
48741327409,"Malua Bay: Petarmul",-16.00022,167.22137,2610,blood,blad,blad,,na-re,,,0
48741327409,"Malua Bay: Petarmul",-16.00022,167.22137,2620,bone,bun,bun,,ⁿʒi-n,,,0
48741327409,"Malua Bay: Petarmul",-16.00022,167.22137,2630,skin,sikin,sikin,,nɪ-vɪlɛ-n,,,0
48741327409,"Malua Bay: Petarmul",-16.00022,167.22137,2710,belly,bel,bel,,lɛvəɣa-n,,,0
48741327409,"Malua Bay: Petarmul",-16.00022,167.22137,2720,intestines,kat,kat,,ⁿʒɪnɛ-n,,,0
48741327409,"Malua Bay: Petarmul",-16.00022,167.22137,2740,breast,titi,titi,,na-susa-n,,,0
48741327409,"Malua Bay: Petarmul",-16.00022,167.22137,2840,liver,leva,leva,,lalɛ-n,,,0
48741328309,"Malua Bay: Tiptir",-15.9905,167.21991,2010,head,hed,hed,,ᵐbat-k,,,0
48741328309,"Malua Bay: Tiptir",-15.9905,167.21991,2050,hair,hea,hea,,nɪ-vulo-k,,,0
48741328309,"Malua Bay: Tiptir",-15.9905,167.21991,2110,eye,ae,ae,,nɪ-mta-k,,,0
48741328309,"Malua Bay: Tiptir",-15.9905,167.21991,2120,nose,nus,nus,,ᵑgɪsɪ-k,,,0
48741328309,"Malua Bay: Tiptir",-15.9905,167.21991,2130,ear,sora,sora,,ᵐboro-k,,,0
48741328309,"Malua Bay: Tiptir",-15.9905,167.21991,2210,mouth,maot,maot,,ⁿʒɪno-k,,,0
48741328309,"Malua Bay: Tiptir",-15.9905,167.21991,2230,tongue,tang,tang,,nɪ-mɪmɛ-k,,,0
48741328309,"Malua Bay: Tiptir",-15.9905,167.21991,2240,tooth,tut,tut,,luvo-k,,,0
48741328309,"Malua Bay: Tiptir",-15.9905,167.21991,2310,hand,han,han,,nɪ-vura-k,,,0
48741328309,"Malua Bay: Tiptir",-15.9905,167.21991,2330,shoulder,solda,solda,,ᵐbotoɣpas,,,0
48741328309,"Malua Bay: Tiptir",-15.9905,167.21991,2410,neck,nek,nek,,ⁿʒɛlɣa-k,,,0
48741328309,"Malua Bay: Tiptir",-15.9905,167.21991,2420,back,baksaed,baksaed,,ⁿdah-k,,,0
48741328309,"Malua Bay: Tiptir",-15.9905,167.21991,2520,leg,lek,lek,,nɪ-mʷila-k,,,0
48741328309,"Malua Bay: Tiptir",-15.9905,167.21991,2610,blood,blad,blad,,ni-re,,,0
48741328309,"Malua Bay: Tiptir",-15.9905,167.21991,2620,bone,bun,bun,,ⁿʒi-k,,,0
48741328309,"Malua Bay: Tiptir",-15.9905,167.21991,2630,skin,sikin,sikin,,nɪ-vulo-k,,,0
48741328309,"Malua Bay: Tiptir",-15.9905,167.21991,2710,belly,bel,bel,,lɛvuɣa-k,,,0
48741328309,"Malua Bay: Tiptir",-15.9905,167.21991,2720,intestines,kat,kat,,ⁿʒɪnɛ-k,,,0
48741328309,"Malua Bay: Tiptir",-15.9905,167.21991,2740,breast,titi,titi,,na-sus,,,0
48741328309,"Malua Bay: Tiptir",-15.9905,167.21991,2840,liver,leva,leva,,nɛ-re,,,0
48741328409,"Malua Bay: Marasup",-15.99098,167.2198,2010,head,hed,hed,,ᵐbatu-,,,0
48741328409,"Malua Bay: Marasup",-15.99098,167.2198,2050,hair,hea,hea,,"fəlɛ-n ᵐbatu-k",,,0
48741328409,"Malua Bay: Marasup",-15.99098,167.2198,2110,eye,ae,ae,,mata-k,,,0
48741328409,"Malua Bay: Marasup",-15.99098,167.2198,2120,nose,nus,nus,,ᵑgusu-k,,,0
48741328409,"Malua Bay: Marasup",-15.99098,167.2198,2130,ear,sora,sora,,ᵐboro-m,,,0
48741328409,"Malua Bay: Marasup",-15.99098,167.2198,2210,mouth,maot,maot,,ⁿzoŋo-k,,,0
48741328409,"Malua Bay: Marasup",-15.99098,167.2198,2230,tongue,tang,tang,,mimɛ-k,,,0
48741328409,"Malua Bay: Marasup",-15.99098,167.2198,2240,tooth,tut,tut,,luwo-k,,,0
48741328409,"Malua Bay: Marasup",-15.99098,167.2198,2310,hand,han,han,,na-vɛɾ,,,0
48741328409,"Malua Bay: Marasup",-15.99098,167.2198,2330,shoulder,solda,solda,,ᵐbəli-k,,,0
48741328409,"Malua Bay: Marasup",-15.99098,167.2198,2410,neck,nek,nek,,ⁿt͡salɣa-k,,,0
48741328409,"Malua Bay: Marasup",-15.99098,167.2198,2420,back,baksaed,baksaed,,ⁿdaɣo-n,,,0
48741328409,"Malua Bay: Marasup",-15.99098,167.2198,2520,leg,lek,lek,,malɛ-k,,,0
48741328409,"Malua Bay: Marasup",-15.99098,167.2198,2610,blood,blad,blad,,na-re,,,0
48741328409,"Malua Bay: Marasup",-15.99098,167.2198,2620,bone,bun,bun,,ⁿʒi-n,,,0
48741328409,"Malua Bay: Marasup",-15.99098,167.2198,2630,skin,sikin,sikin,,vɪlɛ-n,,,0
48741328409,"Malua Bay: Marasup",-15.99098,167.2198,2710,belly,bel,bel,,lavoɣa-n,,,0
48741328409,"Malua Bay: Marasup",-15.99098,167.2198,2720,intestines,kat,kat,,ⁿʒɪnɛ-n,,,0
48741328409,"Malua Bay: Marasup",-15.99098,167.2198,2740,breast,titi,titi,,na-sus,,,0
48741328409,"Malua Bay: Marasup",-15.99098,167.2198,2840,liver,leva,leva,,"na-re lalɛ-n",,,0
48741345109,"Najit: Tanmial",-15.94786,167.18226,2010,head,hed,hed,,ᵐbatu-m,,,0
48741345109,"Najit: Tanmial",-15.94786,167.18226,2050,hair,hea,hea,,nɪ-vulo-m,,,0
48741345109,"Najit: Tanmial",-15.94786,167.18226,2110,eye,ae,ae,,nə-mto-m,,,0
48741345109,"Najit: Tanmial",-15.94786,167.18226,2120,nose,nus,nus,,gsʊ-m,,,0
48741345109,"Najit: Tanmial",-15.94786,167.18226,2130,ear,sora,sora,,ᵐboro-m,,,0
48741345109,"Najit: Tanmial",-15.94786,167.18226,2210,mouth,maot,maot,,ⁿʒoŋo-m,,,0
48741345109,"Najit: Tanmial",-15.94786,167.18226,2230,tongue,tang,tang,,nɪ-mɛmɛ-m,,,0
48741345109,"Najit: Tanmial",-15.94786,167.18226,2240,tooth,tut,tut,,luvo-m,,,0
48741345109,"Najit: Tanmial",-15.94786,167.18226,2310,hand,han,han,,nɪvar-om,,,0
48741345109,"Najit: Tanmial",-15.94786,167.18226,2330,shoulder,solda,solda,,ᵐbələ-m,,,0
48741345109,"Najit: Tanmial",-15.94786,167.18226,2410,neck,nek,nek,,ⁿʒɛlɣa-m,,,0
48741345109,"Najit: Tanmial",-15.94786,167.18226,2420,back,baksaed,baksaed,,ⁿʒɪpno-m,,,0
48741345109,"Najit: Tanmial",-15.94786,167.18226,2520,leg,lek,lek,,n̩ə-milo-m,,,0
48741345109,"Najit: Tanmial",-15.94786,167.18226,2610,blood,blad,blad,,ni-re,,,0
48741345109,"Najit: Tanmial",-15.94786,167.18226,2620,bone,bun,bun,,ⁿʒi-n,,,0
48741345109,"Najit: Tanmial",-15.94786,167.18226,2630,skin,sikin,sikin,,..,,,0
48741345109,"Najit: Tanmial",-15.94786,167.18226,2710,belly,bel,bel,,lɛvwa-m,,,0
48741345109,"Najit: Tanmial",-15.94786,167.18226,2720,intestines,kat,kat,,ⁿʒɪno-m,,,0
48741345109,"Najit: Tanmial",-15.94786,167.18226,2740,breast,titi,titi,,na-sus,,,0
48741345109,"Najit: Tanmial",-15.94786,167.18226,2840,liver,leva,leva,,..,,,0
48741365109,"Nese: Tanmial",-15.9305,167.17653,2010,head,hed,hed,,na-ᵐbat,,,0
48741365109,"Nese: Tanmial",-15.9305,167.17653,2050,hair,hea,hea,,nɪ-vulo-n,,,0
48741365109,"Nese: Tanmial",-15.9305,167.17653,2110,eye,ae,ae,,na-nata-n,,,0
48741365109,"Nese: Tanmial",-15.9305,167.17653,2120,nose,nus,nus,,no-gus,,,0
48741365109,"Nese: Tanmial",-15.9305,167.17653,2130,ear,sora,sora,,no-ᵐboro-n,,,0
48741365109,"Nese: Tanmial",-15.9305,167.17653,2210,mouth,maot,maot,,no-ʧuŋo-n,,,0
48741365109,"Nese: Tanmial",-15.9305,167.17653,2230,tongue,tang,tang,,nɛnɛ-n,,,0
48741365109,"Nese: Tanmial",-15.9305,167.17653,2240,tooth,tut,tut,,nɛ-luvo-n,,,0
48741365109,"Nese: Tanmial",-15.9305,167.17653,2310,hand,han,han,,na-vaɾa-n,,,0
48741365109,"Nese: Tanmial",-15.9305,167.17653,2330,shoulder,solda,solda,,nɛ-ᵐbil,,,0
48741365109,"Nese: Tanmial",-15.9305,167.17653,2410,neck,nek,nek,,na-salɣa-n,,,0
48741365109,"Nese: Tanmial",-15.9305,167.17653,2420,back,baksaed,baksaed,,no-ᵐbʊ-x,,,0
48741365109,"Nese: Tanmial",-15.9305,167.17653,2520,leg,lek,lek,,na-malɛ-n,,,0
48741365109,"Nese: Tanmial",-15.9305,167.17653,2610,blood,blad,blad,,na-re,,,0
48741365109,"Nese: Tanmial",-15.9305,167.17653,2620,bone,bun,bun,,t͡si-,,,0
48741365109,"Nese: Tanmial",-15.9305,167.17653,2630,skin,sikin,sikin,,nɪ-vulo-n,,,0
48741365109,"Nese: Tanmial",-15.9305,167.17653,2710,belly,bel,bel,,nɪ-sinɛ-n,,,0
48741365109,"Nese: Tanmial",-15.9305,167.17653,2720,intestines,kat,kat,,ⁿt͡ʃɪnɪn,,,0
48741365109,"Nese: Tanmial",-15.9305,167.17653,2740,breast,titi,titi,,na-sus,,,0
48741365109,"Nese: Tanmial",-15.9305,167.17653,2840,liver,leva,leva,,..,,,0
48741367209,"Nese: Sanboise",-15.91461,167.17833,2010,head,hed,hed,,na-ᵐbatu-k,,,0
48741367209,"Nese: Sanboise",-15.91461,167.17833,2050,hair,hea,hea,,"nɪ-vulo-n ᵐbatu-k",,,0
48741367209,"Nese: Sanboise",-15.91461,167.17833,2110,eye,ae,ae,,na-n̼ata-k,,,0
48741367209,"Nese: Sanboise",-15.91461,167.17833,2120,nose,nus,nus,,nu-kusu-k,,,0
48741367209,"Nese: Sanboise",-15.91461,167.17833,2130,ear,sora,sora,,no-ᵐboro-k,,,0
48741367209,"Nese: Sanboise",-15.91461,167.17833,2210,mouth,maot,maot,,no-ʧuŋo-k,,,0
48741367209,"Nese: Sanboise",-15.91461,167.17833,2230,tongue,tang,tang,,nɛ-n̼ɛn̼ɛ-k,,,0
48741367209,"Nese: Sanboise",-15.91461,167.17833,2240,tooth,tut,tut,,nu-luvʷo-k,,,0
48741367209,"Nese: Sanboise",-15.91461,167.17833,2310,hand,han,han,,na-vara-k,,,0
48741367209,"Nese: Sanboise",-15.91461,167.17833,2330,shoulder,solda,solda,,..,,,0
48741367209,"Nese: Sanboise",-15.91461,167.17833,2410,neck,nek,nek,,na-salɣa-k,,,0
48741367209,"Nese: Sanboise",-15.91461,167.17833,2420,back,baksaed,baksaed,,"no-ᵐbʊx ɪta-k",,,0
48741367209,"Nese: Sanboise",-15.91461,167.17833,2520,leg,lek,lek,,na-ᵐbalako-k,,,0
48741367209,"Nese: Sanboise",-15.91461,167.17833,2610,blood,blad,blad,,na-re,,,0
48741367209,"Nese: Sanboise",-15.91461,167.17833,2620,bone,bun,bun,,nɪ-ʧine-k,,,0
48741367209,"Nese: Sanboise",-15.91461,167.17833,2630,skin,sikin,sikin,,"nɪ-vulo-n ne-ɪmba",,,0
48741367209,"Nese: Sanboise",-15.91461,167.17833,2710,belly,bel,bel,,nɪ-sinɛ-k,,,0
48741367209,"Nese: Sanboise",-15.91461,167.17833,2720,intestines,kat,kat,,..,,,0
48741367209,"Nese: Sanboise",-15.91461,167.17833,2740,breast,titi,titi,,..,,,0
48741367209,"Nese: Sanboise",-15.91461,167.17833,2840,liver,leva,leva,,..,,,0
48741556509,"Vao: Beetehul",-15.89728,167.30443,2010,head,hed,hed,,ᵐbatu-nɛ,,,0
48741556509,"Vao: Beetehul",-15.89728,167.30443,2050,hair,hea,hea,,wulu-nɛ,,,0
48741556509,"Vao: Beetehul",-15.89728,167.30443,2110,eye,ae,ae,,n̼ata-n,,,0
48741556509,"Vao: Beetehul",-15.89728,167.30443,2120,nose,nus,nus,,wohori-nɛ,,,0
48741556509,"Vao: Beetehul",-15.89728,167.30443,2130,ear,sora,sora,,pororo-n,,,0
48741556509,"Vao: Beetehul",-15.89728,167.30443,2210,mouth,maot,maot,,siŋo-n,,,0
48741556509,"Vao: Beetehul",-15.89728,167.30443,2230,tongue,tang,tang,,n̼ɛn̼ɛ-n,,,0
48741556509,"Vao: Beetehul",-15.89728,167.30443,2240,tooth,tut,tut,,..,,,0
48741556509,"Vao: Beetehul",-15.89728,167.30443,2310,hand,han,han,,ni-n̼a-k,,,0
48741556509,"Vao: Beetehul",-15.89728,167.30443,2330,shoulder,solda,solda,,..,,,0
48741556509,"Vao: Beetehul",-15.89728,167.30443,2410,neck,nek,nek,,ᵐbulaɣaho-n,,,0
48741556509,"Vao: Beetehul",-15.89728,167.30443,2420,back,baksaed,baksaed,,wotura-n,,,0
48741556509,"Vao: Beetehul",-15.89728,167.30443,2520,leg,lek,lek,,karu-nɛ,,,0
48741556509,"Vao: Beetehul",-15.89728,167.30443,2610,blood,blad,blad,,nɛ-rɛ,,,0
48741556509,"Vao: Beetehul",-15.89728,167.30443,2620,bone,bun,bun,,hu-nɛ,,,0
48741556509,"Vao: Beetehul",-15.89728,167.30443,2630,skin,sikin,sikin,,ᵐbulvulu-nɛ ,,,0
48741556509,"Vao: Beetehul",-15.89728,167.30443,2710,belly,bel,bel,,..,,,0
48741556509,"Vao: Beetehul",-15.89728,167.30443,2720,intestines,kat,kat,,tinɛ-n,,,0
48741556509,"Vao: Beetehul",-15.89728,167.30443,2740,breast,titi,titi,,huhu-nɛ,,,0
48741556509,"Vao: Beetehul",-15.89728,167.30443,2840,liver,leva,leva,,ᵐbɛᵐbɛn,,,0
48741557509,"Vao: Canada",-15.89978,167.30731,2010,head,hed,hed,,ᵐbatu-ne,,,0
48741557509,"Vao: Canada",-15.89978,167.30731,2050,hair,hea,hea,,vulu-ne,,,0
48741557509,"Vao: Canada",-15.89978,167.30731,2110,eye,ae,ae,,n̼ata-n,,,0
48741557509,"Vao: Canada",-15.89978,167.30731,2120,nose,nus,nus,,ɲohori-ne,,,0
48741557509,"Vao: Canada",-15.89978,167.30731,2130,ear,sora,sora,,ᵐbororo-n,,,0
48741557509,"Vao: Canada",-15.89978,167.30731,2210,mouth,maot,maot,,..,,,0
48741557509,"Vao: Canada",-15.89978,167.30731,2230,tongue,tang,tang,,n̼ɛn̼ɪ-m,,,0
48741557509,"Vao: Canada",-15.89978,167.30731,2240,tooth,tut,tut,,wuru-ne,,,0
48741557509,"Vao: Canada",-15.89978,167.30731,2310,hand,han,han,,ni-n̼a-n,,,0
48741557509,"Vao: Canada",-15.89978,167.30731,2330,shoulder,solda,solda,,ᵐbili-nɛ,,,0
48741557509,"Vao: Canada",-15.89978,167.30731,2410,neck,nek,nek,,ᵐbulaɣaho-n,,,0
48741557509,"Vao: Canada",-15.89978,167.30731,2420,back,baksaed,baksaed,,hotura-n,,,0
48741557509,"Vao: Canada",-15.89978,167.30731,2520,leg,lek,lek,,karu-ne,,,0
48741557509,"Vao: Canada",-15.89978,167.30731,2610,blood,blad,blad,,ren,,,0
48741557509,"Vao: Canada",-15.89978,167.30731,2620,bone,bun,bun,,hu-nɛ,,,0
48741557509,"Vao: Canada",-15.89978,167.30731,2630,skin,sikin,sikin,,vulvulu-ne,,,0
48741557509,"Vao: Canada",-15.89978,167.30731,2710,belly,bel,bel,,taᵐbaŋɛ-n,,,0
48741557509,"Vao: Canada",-15.89978,167.30731,2720,intestines,kat,kat,,t͡ʃinɛn,,,0
48741557509,"Vao: Canada",-15.89978,167.30731,2740,breast,titi,titi,,huhu-nɛ,,,0
48741557509,"Vao: Canada",-15.89978,167.30731,2840,liver,leva,leva,,ᵐbɛᵐbɛn,,,0
48741557609,"Vao: Peteri",-15.89887,167.3051,2010,head,hed,hed,,ᵐbatu-m,,,0
48741557609,"Vao: Peteri",-15.89887,167.3051,2050,hair,hea,hea,,wulu-m,,,0
48741557609,"Vao: Peteri",-15.89887,167.3051,2110,eye,ae,ae,,n̼ata-m,,,0
48741557609,"Vao: Peteri",-15.89887,167.3051,2120,nose,nus,nus,,..,,,0
48741557609,"Vao: Peteri",-15.89887,167.3051,2130,ear,sora,sora,,ᵐbororo-m,,,0
48741557609,"Vao: Peteri",-15.89887,167.3051,2210,mouth,maot,maot,,..,,,0
48741557609,"Vao: Peteri",-15.89887,167.3051,2230,tongue,tang,tang,,n̼ɪn̼ɪ-m,,,0
48741557609,"Vao: Peteri",-15.89887,167.3051,2240,tooth,tut,tut,,huru-m,,,0
48741557609,"Vao: Peteri",-15.89887,167.3051,2310,hand,han,han,,ni-n̼a-r,,,0
48741557609,"Vao: Peteri",-15.89887,167.3051,2330,shoulder,solda,solda,,ᵐbutpɪli-m,,,0
48741557609,"Vao: Peteri",-15.89887,167.3051,2410,neck,nek,nek,,ᵐbulaɣaho-m,,,0
48741557609,"Vao: Peteri",-15.89887,167.3051,2420,back,baksaed,baksaed,,hotura-m,,,0
48741557609,"Vao: Peteri",-15.89887,167.3051,2520,leg,lek,lek,,karu-ve,,,0
48741557609,"Vao: Peteri",-15.89887,167.3051,2610,blood,blad,blad,,nɛ-re,,,0
48741557609,"Vao: Peteri",-15.89887,167.3051,2620,bone,bun,bun,,hu-um,,,0
48741557609,"Vao: Peteri",-15.89887,167.3051,2630,skin,sikin,sikin,,vulvulu-re,,,0
48741557609,"Vao: Peteri",-15.89887,167.3051,2710,belly,bel,bel,,taᵐbaŋɛ-m,,,0
48741557609,"Vao: Peteri",-15.89887,167.3051,2720,intestines,kat,kat,,tinɛn,,,0
48741557609,"Vao: Peteri",-15.89887,167.3051,2740,breast,titi,titi,,huhu-m,,,0
48741557609,"Vao: Peteri",-15.89887,167.3051,2840,liver,leva,leva,,ᵐbɪᵐbɪm,,,0
48741557709,"Vao: Torono",-15.89986,167.30819,2010,head,hed,hed,,ᵐbatu-m,,,0
48741557709,"Vao: Torono",-15.89986,167.30819,2050,hair,hea,hea,,wulu-m,,,0
48741557709,"Vao: Torono",-15.89986,167.30819,2110,eye,ae,ae,,n̼ata-m,,,0
48741557709,"Vao: Torono",-15.89986,167.30819,2120,nose,nus,nus,,gohori-m,,,0
48741557709,"Vao: Torono",-15.89986,167.30819,2130,ear,sora,sora,,ᵐbororo-m,,,0
48741557709,"Vao: Torono",-15.89986,167.30819,2210,mouth,maot,maot,,siŋo-m,,,0
48741557709,"Vao: Torono",-15.89986,167.30819,2230,tongue,tang,tang,,n̼ɪn̼ɪ-m,,,0
48741557709,"Vao: Torono",-15.89986,167.30819,2240,tooth,tut,tut,,uru-m,,,0
48741557709,"Vao: Torono",-15.89986,167.30819,2310,hand,han,han,,ni-n̼a-n,,,0
48741557709,"Vao: Torono",-15.89986,167.30819,2330,shoulder,solda,solda,,ᵐbili-nɛ,,,0
48741557709,"Vao: Torono",-15.89986,167.30819,2410,neck,nek,nek,,ᵐbulavaho-m,,,0
48741557709,"Vao: Torono",-15.89986,167.30819,2420,back,baksaed,baksaed,,wotura-n,,,0
48741557709,"Vao: Torono",-15.89986,167.30819,2520,leg,lek,lek,,karu-m,,,0
48741557709,"Vao: Torono",-15.89986,167.30819,2610,blood,blad,blad,,nɛ-re,,,0
48741557709,"Vao: Torono",-15.89986,167.30819,2620,bone,bun,bun,,hu-nɛ,,,0
48741557709,"Vao: Torono",-15.89986,167.30819,2630,skin,sikin,sikin,,wulwulu-m,,,0
48741557709,"Vao: Torono",-15.89986,167.30819,2710,belly,bel,bel,,taᵐbaŋɛ-n,,,0
48741557709,"Vao: Torono",-15.89986,167.30819,2720,intestines,kat,kat,,tinɛ-n,,,0
48741557709,"Vao: Torono",-15.89986,167.30819,2740,breast,titi,titi,,huhu-nɛ,,,0
48741557709,"Vao: Torono",-15.89986,167.30819,2840,liver,leva,leva,,pɛᵐbɛn,,,0
48741733509,"Tirax: Botmelesnial",-16.0583,167.369,2010,head,hed,hed,,ᵐbati-k,,,0
48741733509,"Tirax: Botmelesnial",-16.0583,167.369,2050,hair,hea,hea,,vlɛ-n,,,0
48741733509,"Tirax: Botmelesnial",-16.0583,167.369,2050,hair,hea,hea,,"vlɛ-n ᵐbati-k",,,0
48741733509,"Tirax: Botmelesnial",-16.0583,167.369,2110,eye,ae,ae,,məta-k,,,0
48741733509,"Tirax: Botmelesnial",-16.0583,167.369,2120,nose,nus,nus,,guhu-k,,,0
48741733509,"Tirax: Botmelesnial",-16.0583,167.369,2130,ear,sora,sora,,ⁿdʳɛlɪŋa-ŋ,,,0
48741733509,"Tirax: Botmelesnial",-16.0583,167.369,2210,mouth,maot,maot,,soŋo-ŋ,,,0
48741733509,"Tirax: Botmelesnial",-16.0583,167.369,2230,tongue,tang,tang,,nɛ-nɛ-ŋ,,,0
48741733509,"Tirax: Botmelesnial",-16.0583,167.369,2240,tooth,tut,tut,,lɪvo-k,,,0
48741733509,"Tirax: Botmelesnial",-16.0583,167.369,2310,hand,han,han,,fra-r,,,0
48741733509,"Tirax: Botmelesnial",-16.0583,167.369,2330,shoulder,solda,solda,,"betik ᵐboho-vra-k",,,0
48741733509,"Tirax: Botmelesnial",-16.0583,167.369,2410,neck,nek,nek,,ᵐbetig-ⁿdʳalɪ-k,,,0
48741733509,"Tirax: Botmelesnial",-16.0583,167.369,2420,back,baksaed,baksaed,,taho-k,,,0
48741733509,"Tirax: Botmelesnial",-16.0583,167.369,2520,leg,lek,lek,,male-,,,0
48741733509,"Tirax: Botmelesnial",-16.0583,167.369,2610,blood,blad,blad,,na-ⁿdʳe,,,0
48741733509,"Tirax: Botmelesnial",-16.0583,167.369,2620,bone,bun,bun,,su-,,,0
48741733509,"Tirax: Botmelesnial",-16.0583,167.369,2630,skin,sikin,sikin,,vlɛ-k,,,0
48741733509,"Tirax: Botmelesnial",-16.0583,167.369,2710,belly,bel,bel,,ᵐbaɣi-k,,,0
48741733509,"Tirax: Botmelesnial",-16.0583,167.369,2720,intestines,kat,kat,,hɛnɛ-k,,,0
48741733509,"Tirax: Botmelesnial",-16.0583,167.369,2740,breast,titi,titi,,ne-suso-k,,,0
48741733509,"Tirax: Botmelesnial",-16.0583,167.369,2840,liver,leva,leva,,"sal lalɛ-k",,,0
48741733609,"Tirax: Mae",-16.05839,167.36953,2010,head,hed,hed,,ᵐbɪt-,,,0
48741733609,"Tirax: Mae",-16.05839,167.36953,2050,hair,hea,hea,,"fɪlɪ-n ᵐbɪt",,,0
48741733609,"Tirax: Mae",-16.05839,167.36953,2110,eye,ae,ae,,məta-,,,0
48741733609,"Tirax: Mae",-16.05839,167.36953,2120,nose,nus,nus,,kuhu-,,,0
48741733609,"Tirax: Mae",-16.05839,167.36953,2130,ear,sora,sora,,ⁿdʳɪlɪŋe,,,0
48741733609,"Tirax: Mae",-16.05839,167.36953,2210,mouth,maot,maot,,soŋɔ-,,,0
48741733609,"Tirax: Mae",-16.05839,167.36953,2230,tongue,tang,tang,,nɛ-nɛ-,,,0
48741733609,"Tirax: Mae",-16.05839,167.36953,2240,tooth,tut,tut,,lɪvo-,,,0
48741733609,"Tirax: Mae",-16.05839,167.36953,2310,hand,han,han,,vra-,,,0
48741733609,"Tirax: Mae",-16.05839,167.36953,2330,shoulder,solda,solda,,"vtiɣ ᵐbo-vre",,,0
48741733609,"Tirax: Mae",-16.05839,167.36953,2410,neck,nek,nek,,ᵐbitir-ⁿdʳal,,,0
48741733609,"Tirax: Mae",-16.05839,167.36953,2420,back,baksaed,baksaed,,tox,,,0
48741733609,"Tirax: Mae",-16.05839,167.36953,2520,leg,lek,lek,,male-,,,0
48741733609,"Tirax: Mae",-16.05839,167.36953,2610,blood,blad,blad,,na-ⁿdʳe,,,0
48741733609,"Tirax: Mae",-16.05839,167.36953,2620,bone,bun,bun,,su-,,,0
48741733609,"Tirax: Mae",-16.05839,167.36953,2630,skin,sikin,sikin,,vle-,,,0
48741733609,"Tirax: Mae",-16.05839,167.36953,2710,belly,bel,bel,,tᵐbax,,,0
48741733609,"Tirax: Mae",-16.05839,167.36953,2720,intestines,kat,kat,,"tan hɛnɪ-na",,,0
48741733609,"Tirax: Mae",-16.05839,167.36953,2740,breast,titi,titi,,na-sus,,,0
48741733609,"Tirax: Mae",-16.05839,167.36953,2840,liver,leva,leva,,..,,,0
48741735809,"Tirax: Bethel",-16.03923,167.40186,2010,head,hed,hed,,ᵐbɪt-,,,0
48741735809,"Tirax: Bethel",-16.03923,167.40186,2050,hair,hea,hea,,fɪlɛ-n,,,0
48741735809,"Tirax: Bethel",-16.03923,167.40186,2050,hair,hea,hea,,"fɪlɛ-n ᵐbatir",,,0
48741735809,"Tirax: Bethel",-16.03923,167.40186,2110,eye,ae,ae,,məta-r,,,0
48741735809,"Tirax: Bethel",-16.03923,167.40186,2120,nose,nus,nus,,kuhu-r,,,0
48741735809,"Tirax: Bethel",-16.03923,167.40186,2130,ear,sora,sora,,ⁿdʳɪlɪŋa-r,,,0
48741735809,"Tirax: Bethel",-16.03923,167.40186,2210,mouth,maot,maot,,soŋo-r,,,0
48741735809,"Tirax: Bethel",-16.03923,167.40186,2230,tongue,tang,tang,,nɛ-nɛr,,,0
48741735809,"Tirax: Bethel",-16.03923,167.40186,2240,tooth,tut,tut,,lɪvo-,,,0
48741735809,"Tirax: Bethel",-16.03923,167.40186,2310,hand,han,han,,fra-,,,0
48741735809,"Tirax: Bethel",-16.03923,167.40186,2330,shoulder,solda,solda,,"ᵐbɪtix ᵐboho-vrar",,,0
48741735809,"Tirax: Bethel",-16.03923,167.40186,2410,neck,nek,nek,,ᵐbitir-ⁿdʳal,,,0
48741735809,"Tirax: Bethel",-16.03923,167.40186,2420,back,baksaed,baksaed,,tox,,,0
48741735809,"Tirax: Bethel",-16.03923,167.40186,2520,leg,lek,lek,,malɛ-r,,,0
48741735809,"Tirax: Bethel",-16.03923,167.40186,2610,blood,blad,blad,,na-ⁿdʳe,,,0
48741735809,"Tirax: Bethel",-16.03923,167.40186,2620,bone,bun,bun,,su-,,,0
48741735809,"Tirax: Bethel",-16.03923,167.40186,2630,skin,sikin,sikin,,fəle-,,,0
48741735809,"Tirax: Bethel",-16.03923,167.40186,2710,belly,bel,bel,,tᵐbax,,,0
48741735809,"Tirax: Bethel",-16.03923,167.40186,2720,intestines,kat,kat,,"nɛ-ltɛx hɛnɛr",,,0
48741735809,"Tirax: Bethel",-16.03923,167.40186,2740,breast,titi,titi,,na-suš,,,0
48741735809,"Tirax: Bethel",-16.03923,167.40186,2840,liver,leva,leva,,..,,,0
48741736409,"Tirax: Olamb",-15.98701,167.26154,2010,head,hed,hed,,ᵐbati-m,,,0
48741736409,"Tirax: Olamb",-15.98701,167.26154,2050,hair,hea,hea,,"vlɛ-n ᵐbati-m",,,0
48741736409,"Tirax: Olamb",-15.98701,167.26154,2110,eye,ae,ae,,məta-m,,,0
48741736409,"Tirax: Olamb",-15.98701,167.26154,2120,nose,nus,nus,,kuhu-m,,,0
48741736409,"Tirax: Olamb",-15.98701,167.26154,2130,ear,sora,sora,,ⁿdʳɪlɪŋa-m,,,0
48741736409,"Tirax: Olamb",-15.98701,167.26154,2210,mouth,maot,maot,,soŋo-m,,,0
48741736409,"Tirax: Olamb",-15.98701,167.26154,2230,tongue,tang,tang,,nɛ-nɛ-m,,,0
48741736409,"Tirax: Olamb",-15.98701,167.26154,2240,tooth,tut,tut,,lɪvo-m,,,0
48741736409,"Tirax: Olamb",-15.98701,167.26154,2310,hand,han,han,,vra-k,,,0
48741736409,"Tirax: Olamb",-15.98701,167.26154,2330,shoulder,solda,solda,,..,,,0
48741736409,"Tirax: Olamb",-15.98701,167.26154,2410,neck,nek,nek,,salɣa-m,,,0
48741736409,"Tirax: Olamb",-15.98701,167.26154,2420,back,baksaed,baksaed,,staɣu-m,,,0
48741736409,"Tirax: Olamb",-15.98701,167.26154,2520,leg,lek,lek,,malɛ-m,,,0
48741736409,"Tirax: Olamb",-15.98701,167.26154,2610,blood,blad,blad,,na-ⁿdʳe,,,0
48741736409,"Tirax: Olamb",-15.98701,167.26154,2620,bone,bun,bun,,su-na-n,,,0
48741736409,"Tirax: Olamb",-15.98701,167.26154,2630,skin,sikin,sikin,,vlɛ-n,,,0
48741736409,"Tirax: Olamb",-15.98701,167.26154,2710,belly,bel,bel,,tᵐbaɣi-m,,,0
48741736409,"Tirax: Olamb",-15.98701,167.26154,2720,intestines,kat,kat,,sɪnɛ-ne-a,,,0
48741736409,"Tirax: Olamb",-15.98701,167.26154,2740,breast,titi,titi,,"ne-sus ha-n",,,0
48741736409,"Tirax: Olamb",-15.98701,167.26154,2840,liver,leva,leva,,"na-ⁿdre lalɛ-n",,,0
48741736509,"Tirax: Bakru",-16.00354,167.29696,2010,head,hed,hed,,ᵐbati-k,,,0
48741736509,"Tirax: Bakru",-16.00354,167.29696,2050,hair,hea,hea,,"fəlɛ-n ᵐbati-k",,,0
48741736509,"Tirax: Bakru",-16.00354,167.29696,2110,eye,ae,ae,,məta-k,,,0
48741736509,"Tirax: Bakru",-16.00354,167.29696,2120,nose,nus,nus,,kuhu-k,,,0
48741736509,"Tirax: Bakru",-16.00354,167.29696,2130,ear,sora,sora,,ⁿdʳɪlɪŋa-ŋ,,,0
48741736509,"Tirax: Bakru",-16.00354,167.29696,2210,mouth,maot,maot,,soŋo-ŋk,,,0
48741736509,"Tirax: Bakru",-16.00354,167.29696,2230,tongue,tang,tang,,nɛ-nɛ-ŋk,,,0
48741736509,"Tirax: Bakru",-16.00354,167.29696,2240,tooth,tut,tut,,lɪvo-k,,,0
48741736509,"Tirax: Bakru",-16.00354,167.29696,2310,hand,han,han,,fəra-k,,,0
48741736509,"Tirax: Bakru",-16.00354,167.29696,2330,shoulder,solda,solda,,..,,,0
48741736509,"Tirax: Bakru",-16.00354,167.29696,2410,neck,nek,nek,,ᵐbeti-ⁿdʳalɛ-k,,,0
48741736509,"Tirax: Bakru",-16.00354,167.29696,2420,back,baksaed,baksaed,,taho-k,,,0
48741736509,"Tirax: Bakru",-16.00354,167.29696,2520,leg,lek,lek,,malɛ-k,,,0
48741736509,"Tirax: Bakru",-16.00354,167.29696,2610,blood,blad,blad,,na-ⁿdʳe,,,0
48741736509,"Tirax: Bakru",-16.00354,167.29696,2620,bone,bun,bun,,su-k,,,0
48741736509,"Tirax: Bakru",-16.00354,167.29696,2630,skin,sikin,sikin,,"flɛ-n ɪtʰɪm",,,0
48741736509,"Tirax: Bakru",-16.00354,167.29696,2710,belly,bel,bel,,tᵐbaɣi-k,,,0
48741736509,"Tirax: Bakru",-16.00354,167.29696,2720,intestines,kat,kat,,"nɛ-rtɛx sɪnɪ-ŋk",,,0
48741736509,"Tirax: Bakru",-16.00354,167.29696,2740,breast,titi,titi,,na-sus,,,0
48741736509,"Tirax: Bakru",-16.00354,167.29696,2840,liver,leva,leva,,..,,,0
48741737809,"Tirax: Orap",-15.97,167.34464,2010,head,hed,hed,,ᵐbati-m,,,0
48741737809,"Tirax: Orap",-15.97,167.34464,2050,hair,hea,hea,,vɪlɛ-n,,,0
48741737809,"Tirax: Orap",-15.97,167.34464,2050,hair,hea,hea,,"vɪlɛ-n ᵐbati-n",,,0
48741737809,"Tirax: Orap",-15.97,167.34464,2110,eye,ae,ae,,mta-m,,,0
48741737809,"Tirax: Orap",-15.97,167.34464,2120,nose,nus,nus,,kuhu-m,,,0
48741737809,"Tirax: Orap",-15.97,167.34464,2130,ear,sora,sora,,ⁿdʳɪlaŋa-m,,,0
48741737809,"Tirax: Orap",-15.97,167.34464,2210,mouth,maot,maot,,soŋo-n,,,0
48741737809,"Tirax: Orap",-15.97,167.34464,2230,tongue,tang,tang,,nɛ-nɛ-m,,,0
48741737809,"Tirax: Orap",-15.97,167.34464,2240,tooth,tut,tut,,lɪlɪvo-m,,,0
48741737809,"Tirax: Orap",-15.97,167.34464,2310,hand,han,han,,vra-r,,,0
48741737809,"Tirax: Orap",-15.97,167.34464,2330,shoulder,solda,solda,,..,,,0
48741737809,"Tirax: Orap",-15.97,167.34464,2410,neck,nek,nek,,ⁿdʳalɪ-m,,,0
48741737809,"Tirax: Orap",-15.97,167.34464,2420,back,baksaed,baksaed,,taɣu-m,,,0
48741737809,"Tirax: Orap",-15.97,167.34464,2520,leg,lek,lek,,male-r,,,0
48741737809,"Tirax: Orap",-15.97,167.34464,2610,blood,blad,blad,,na-ⁿdʳe,,,0
48741737809,"Tirax: Orap",-15.97,167.34464,2620,bone,bun,bun,,su-r,,,0
48741737809,"Tirax: Orap",-15.97,167.34464,2630,skin,sikin,sikin,,vlɛ-r,,,0
48741737809,"Tirax: Orap",-15.97,167.34464,2710,belly,bel,bel,,ᵐbaɣɪ-f,,,0
48741737809,"Tirax: Orap",-15.97,167.34464,2720,intestines,kat,kat,,hɛnɛ-na-nd,,,0
48741737809,"Tirax: Orap",-15.97,167.34464,2740,breast,titi,titi,,ne-susa-m,,,0
48741737809,"Tirax: Orap",-15.97,167.34464,2840,liver,leva,leva,,..,,,0
48741752709,"Atchin: Orap",-15.9156,167.30641,2010,head,hed,hed,,batu-k,,,0
48741752709,"Atchin: Orap",-15.9156,167.30641,2050,hair,hea,hea,,ron,,,0
48741752709,"Atchin: Orap",-15.9156,167.30641,2050,hair,hea,hea,,"ron batu-k",,,0
48741752709,"Atchin: Orap",-15.9156,167.30641,2110,eye,ae,ae,,mɛta-k,,,0
48741752709,"Atchin: Orap",-15.9156,167.30641,2120,nose,nus,nus,,kunʃu-k,,,0
48741752709,"Atchin: Orap",-15.9156,167.30641,2130,ear,sora,sora,,pora-k,,,0
48741752709,"Atchin: Orap",-15.9156,167.30641,2210,mouth,maot,maot,,ʧuŋa-k,,,0
48741752709,"Atchin: Orap",-15.9156,167.30641,2230,tongue,tang,tang,,mɛma-k,,,0
48741752709,"Atchin: Orap",-15.9156,167.30641,2240,tooth,tut,tut,,luwɔ-k,,,0
48741752709,"Atchin: Orap",-15.9156,167.30641,2310,hand,han,han,,vɛra-k,,,0
48741752709,"Atchin: Orap",-15.9156,167.30641,2330,shoulder,solda,solda,,pʷili-k,,,0
48741752709,"Atchin: Orap",-15.9156,167.30641,2410,neck,nek,nek,,sala-k,,,0
48741752709,"Atchin: Orap",-15.9156,167.30641,2420,back,baksaed,baksaed,,ru-k,,,0
48741752709,"Atchin: Orap",-15.9156,167.30641,2520,leg,lek,lek,,bala-k,,,0
48741752709,"Atchin: Orap",-15.9156,167.30641,2610,blood,blad,blad,,hra-k,,,0
48741752709,"Atchin: Orap",-15.9156,167.30641,2620,bone,bun,bun,,ʧi-k,,,0
48741752709,"Atchin: Orap",-15.9156,167.30641,2630,skin,sikin,sikin,,vilʉlʉ-k,,,0
48741752709,"Atchin: Orap",-15.9156,167.30641,2710,belly,bel,bel,,..,,,0
48741752709,"Atchin: Orap",-15.9156,167.30641,2720,intestines,kat,kat,,ʧina-k,,,0
48741752709,"Atchin: Orap",-15.9156,167.30641,2740,breast,titi,titi,,susu-k,,,0
48741752709,"Atchin: Orap",-15.9156,167.30641,2840,liver,leva,leva,,na-rɛ-k,,,0
48741752809,"Atchin: Small Island",-15.9439,167.33993,2010,head,hed,hed,,batu-n,,,0
48741752809,"Atchin: Small Island",-15.9439,167.33993,2050,hair,hea,hea,,ron,,,0
48741752809,"Atchin: Small Island",-15.9439,167.33993,2050,hair,hea,hea,,"ron batu-n",,,0
48741752809,"Atchin: Small Island",-15.9439,167.33993,2110,eye,ae,ae,,na-mɛt,,,0
48741752809,"Atchin: Small Island",-15.9439,167.33993,2120,nose,nus,nus,,kunsu-,,,0
48741752809,"Atchin: Small Island",-15.9439,167.33993,2130,ear,sora,sora,,na-ᵐbor,,,0
48741752809,"Atchin: Small Island",-15.9439,167.33993,2210,mouth,maot,maot,,ʧuŋo-n,,,0
48741752809,"Atchin: Small Island",-15.9439,167.33993,2230,tongue,tang,tang,,mɛmɛ-n,,,0
48741752809,"Atchin: Small Island",-15.9439,167.33993,2240,tooth,tut,tut,,na-liu,,,0
48741752809,"Atchin: Small Island",-15.9439,167.33993,2310,hand,han,han,,na-vɛrɛ,,,0
48741752809,"Atchin: Small Island",-15.9439,167.33993,2330,shoulder,solda,solda,,pʷili-n,,,0
48741752809,"Atchin: Small Island",-15.9439,167.33993,2410,neck,nek,nek,,sala-,,,0
48741752809,"Atchin: Small Island",-15.9439,167.33993,2420,back,baksaed,baksaed,,ru-b,,,0
48741752809,"Atchin: Small Island",-15.9439,167.33993,2520,leg,lek,lek,,..,,,0
48741752809,"Atchin: Small Island",-15.9439,167.33993,2610,blood,blad,blad,,ni-ra,,,0
48741752809,"Atchin: Small Island",-15.9439,167.33993,2620,bone,bun,bun,,na-ʧi,,,0
48741752809,"Atchin: Small Island",-15.9439,167.33993,2630,skin,sikin,sikin,,vilʉlʉ-,,,0
48741752809,"Atchin: Small Island",-15.9439,167.33993,2710,belly,bel,bel,,tapai-m,,,0
48741752809,"Atchin: Small Island",-15.9439,167.33993,2720,intestines,kat,kat,,ʧinɛ-n,,,0
48741752809,"Atchin: Small Island",-15.9439,167.33993,2740,breast,titi,titi,,na-sus,,,0
48741752809,"Atchin: Small Island",-15.9439,167.33993,2840,liver,leva,leva,,..,,,0
48741754509,"Wala: Botku",-15.96841,167.29246,2010,head,hed,hed,,batu-k,,,0
48741754509,"Wala: Botku",-15.96841,167.29246,2050,hair,hea,hea,,ron,,,0
48741754509,"Wala: Botku",-15.96841,167.29246,2050,hair,hea,hea,,"ron batu-k",,,0
48741754509,"Wala: Botku",-15.96841,167.29246,2110,eye,ae,ae,,nɛ-mtɛ-k,,,0
48741754509,"Wala: Botku",-15.96841,167.29246,2120,nose,nus,nus,,ᵑgunsi-k,,,0
48741754509,"Wala: Botku",-15.96841,167.29246,2130,ear,sora,sora,,ᵐboro-k,,,0
48741754509,"Wala: Botku",-15.96841,167.29246,2210,mouth,maot,maot,,ʧoŋo-k,,,0
48741754509,"Wala: Botku",-15.96841,167.29246,2230,tongue,tang,tang,,nɛ-mɛ-k,,,0
48741754509,"Wala: Botku",-15.96841,167.29246,2240,tooth,tut,tut,,ne-luwo-k,,,0
48741754509,"Wala: Botku",-15.96841,167.29246,2310,hand,han,han,,nɛvɛrɛ-k,,,0
48741754509,"Wala: Botku",-15.96841,167.29246,2330,shoulder,solda,solda,,bɛrpari-k,,,0
48741754509,"Wala: Botku",-15.96841,167.29246,2410,neck,nek,nek,,bot͡sɛla-k,,,0
48741754509,"Wala: Botku",-15.96841,167.29246,2420,back,baksaed,baksaed,,ⁿdotɛrɛ-k,,,0
48741754509,"Wala: Botku",-15.96841,167.29246,2520,leg,lek,lek,,bəla-k,,,0
48741754509,"Wala: Botku",-15.96841,167.29246,2610,blood,blad,blad,,hrak,,,0
48741754509,"Wala: Botku",-15.96841,167.29246,2620,bone,bun,bun,,ʧi-k,,,0
48741754509,"Wala: Botku",-15.96841,167.29246,2630,skin,sikin,sikin,,nɛ-vɛlɛvʉlʉ-k,,,0
48741754509,"Wala: Botku",-15.96841,167.29246,2710,belly,bel,bel,,ⁿdəpai-k,,,0
48741754509,"Wala: Botku",-15.96841,167.29246,2720,intestines,kat,kat,,ʧinɛ-k,,,0
48741754509,"Wala: Botku",-15.96841,167.29246,2740,breast,titi,titi,,ne-susu-k,,,0
48741754509,"Wala: Botku",-15.96841,167.29246,2840,liver,leva,leva,,nɛ-rɛ-k,,,0
48741754709,"Wala: Worprev",-15.97775,167.37656,2010,head,hed,hed,,ᵐbatu-n,,,0
48741754709,"Wala: Worprev",-15.97775,167.37656,2050,hair,hea,hea,,nɪ-sɛvul,,,0
48741754709,"Wala: Worprev",-15.97775,167.37656,2050,hair,hea,hea,,"ron batu-n",,,0
48741754709,"Wala: Worprev",-15.97775,167.37656,2110,eye,ae,ae,,nɪ-mɪtæ-n,,,0
48741754709,"Wala: Worprev",-15.97775,167.37656,2120,nose,nus,nus,,ᵑgarsu-n,,,0
48741754709,"Wala: Worprev",-15.97775,167.37656,2130,ear,sora,sora,,nɪ-ⁿdaliŋa-n,,,0
48741754709,"Wala: Worprev",-15.97775,167.37656,2210,mouth,maot,maot,,nɪ-ᵐboɣo-n,,,0
48741754709,"Wala: Worprev",-15.97775,167.37656,2230,tongue,tang,tang,,nɪ-mæᵐʙulɛ-n,,,0
48741754709,"Wala: Worprev",-15.97775,167.37656,2240,tooth,tut,tut,,ni-luvo-n,,,0
48741754709,"Wala: Worprev",-15.97775,167.37656,2310,hand,han,han,,nɛ-vɛra-ŋk,,,0
48741754709,"Wala: Worprev",-15.97775,167.37656,2330,shoulder,solda,solda,,ᵐbataɣava-n,,,0
48741754709,"Wala: Worprev",-15.97775,167.37656,2410,neck,nek,nek,,nɪ-ⁿdɛlʊ-n,,,0
48741754709,"Wala: Worprev",-15.97775,167.37656,2420,back,baksaed,baksaed,,nɪ-taɣo-n,,,0
48741754709,"Wala: Worprev",-15.97775,167.37656,2520,leg,lek,lek,,nɪ-ᵐbulɛ-n,,,0
48741754709,"Wala: Worprev",-15.97775,167.37656,2610,blood,blad,blad,,nɪ-ⁿdʳe,,,0
48741754709,"Wala: Worprev",-15.97775,167.37656,2620,bone,bun,bun,,nu-ᵐʙulᵐʙul,,,0
48741754709,"Wala: Worprev",-15.97775,167.37656,2630,skin,sikin,sikin,,no-ɣolɣol,,,0
48741754709,"Wala: Worprev",-15.97775,167.37656,2710,belly,bel,bel,,nɪ-ᵐbaɣavu-n,,,0
48741754709,"Wala: Worprev",-15.97775,167.37656,2720,intestines,kat,kat,,nɪ-sɪne,,,0
48741754709,"Wala: Worprev",-15.97775,167.37656,2740,breast,titi,titi,,nu-sus,,,0
48741754709,"Wala: Worprev",-15.97775,167.37656,2840,liver,leva,leva,,nɪ-mamb,,,0
48741754809,"Wala: Petreros",-15.97544,167.37627,2010,head,hed,hed,,ᵐbatu-k,,,0
48741754809,"Wala: Petreros",-15.97544,167.37627,2050,hair,hea,hea,,ron,,,0
48741754809,"Wala: Petreros",-15.97544,167.37627,2050,hair,hea,hea,,"ron batu-k",,,0
48741754809,"Wala: Petreros",-15.97544,167.37627,2110,eye,ae,ae,,nɛ-mtɛ-k,,,0
48741754809,"Wala: Petreros",-15.97544,167.37627,2120,nose,nus,nus,,ᵑgunsi-k,,,0
48741754809,"Wala: Petreros",-15.97544,167.37627,2130,ear,sora,sora,,ᵐboro-m,,,0
48741754809,"Wala: Petreros",-15.97544,167.37627,2210,mouth,maot,maot,,ʧoŋo-k,,,0
48741754809,"Wala: Petreros",-15.97544,167.37627,2230,tongue,tang,tang,,næmɛk,,,0
48741754809,"Wala: Petreros",-15.97544,167.37627,2240,tooth,tut,tut,,ne-luo-k,,,0
48741754809,"Wala: Petreros",-15.97544,167.37627,2310,hand,han,han,,na-βɛɾɛ,,,0
48741754809,"Wala: Petreros",-15.97544,167.37627,2330,shoulder,solda,solda,,..,,,0
48741754809,"Wala: Petreros",-15.97544,167.37627,2410,neck,nek,nek,,ᵐbot͡sɛra-k,,,0
48741754809,"Wala: Petreros",-15.97544,167.37627,2420,back,baksaed,baksaed,,ⁿdotɛrɛ-k,,,0
48741754809,"Wala: Petreros",-15.97544,167.37627,2520,leg,lek,lek,,ᵐbəla-k,,,0
48741754809,"Wala: Petreros",-15.97544,167.37627,2610,blood,blad,blad,,ha-ra-k,,,0
48741754809,"Wala: Petreros",-15.97544,167.37627,2620,bone,bun,bun,,ʧi-k,,,0
48741754809,"Wala: Petreros",-15.97544,167.37627,2630,skin,sikin,sikin,,nɛ-vɪluvɪlu-n,,,0
48741754809,"Wala: Petreros",-15.97544,167.37627,2710,belly,bel,bel,,ⁿdəvai-k,,,0
48741754809,"Wala: Petreros",-15.97544,167.37627,2720,intestines,kat,kat,,ʧinɛ-k,,,0
48741754809,"Wala: Petreros",-15.97544,167.37627,2740,breast,titi,titi,,nɛ-su-k,,,0
48741754809,"Wala: Petreros",-15.97544,167.37627,2840,liver,leva,leva,,nɛ-rɛ-k,,,0
48741754909,"Wala: Preng",-15.97342,167.37627,2010,head,hed,hed,,batu-k,,,0
48741754909,"Wala: Preng",-15.97342,167.37627,2050,hair,hea,hea,,ron,,,0
48741754909,"Wala: Preng",-15.97342,167.37627,2050,hair,hea,hea,,"ron batu-m",,,0
48741754909,"Wala: Preng",-15.97342,167.37627,2110,eye,ae,ae,,nɛ-mtɛ-k,,,0
48741754909,"Wala: Preng",-15.97342,167.37627,2120,nose,nus,nus,,ᵑgunʧi-m,,,0
48741754909,"Wala: Preng",-15.97342,167.37627,2130,ear,sora,sora,,ᵐboro-k,,,0
48741754909,"Wala: Preng",-15.97342,167.37627,2210,mouth,maot,maot,,..,,,0
48741754909,"Wala: Preng",-15.97342,167.37627,2230,tongue,tang,tang,,nɛ-mɛ-k,,,0
48741754909,"Wala: Preng",-15.97342,167.37627,2240,tooth,tut,tut,,nɛ-luwo-k,,,0
48741754909,"Wala: Preng",-15.97342,167.37627,2310,hand,han,han,,nɛ-vɛrɛ-k,,,0
48741754909,"Wala: Preng",-15.97342,167.37627,2330,shoulder,solda,solda,,berpari-k,,,0
48741754909,"Wala: Preng",-15.97342,167.37627,2410,neck,nek,nek,,boʧala-k,,,0
48741754909,"Wala: Preng",-15.97342,167.37627,2420,back,baksaed,baksaed,,ⁿdotɛrɛ-k,,,0
48741754909,"Wala: Preng",-15.97342,167.37627,2520,leg,lek,lek,,bəla-k,,,0
48741754909,"Wala: Preng",-15.97342,167.37627,2610,blood,blad,blad,,ra,,,0
48741754909,"Wala: Preng",-15.97342,167.37627,2620,bone,bun,bun,,ʧi-k,,,0
48741754909,"Wala: Preng",-15.97342,167.37627,2630,skin,sikin,sikin,,nɛ-vɛlʉlʉ-n,,,0
48741754909,"Wala: Preng",-15.97342,167.37627,2710,belly,bel,bel,,ⁿdepai-k,,,0
48741754909,"Wala: Preng",-15.97342,167.37627,2720,intestines,kat,kat,,ʧinɛ-k,,,0
48741754909,"Wala: Preng",-15.97342,167.37627,2740,breast,titi,titi,,..,,,0
48741754909,"Wala: Preng",-15.97342,167.37627,2840,liver,leva,leva,,nɛ-rɛ-k,,,0
48741756709,"Rano: Twalung",-15.98389,167.38444,2010,head,hed,hed,,ᵐbatu-n,,,0
48741756709,"Rano: Twalung",-15.98389,167.38444,2050,hair,hea,hea,,ron,,,0
48741756709,"Rano: Twalung",-15.98389,167.38444,2050,hair,hea,hea,,"ron ᵐbatu-n",,,0
48741756709,"Rano: Twalung",-15.98389,167.38444,2110,eye,ae,ae,,na-mɛt,,,0
48741756709,"Rano: Twalung",-15.98389,167.38444,2120,nose,nus,nus,,ᵑgunsi-n,,,0
48741756709,"Rano: Twalung",-15.98389,167.38444,2130,ear,sora,sora,,na-mbor,,,0
48741756709,"Rano: Twalung",-15.98389,167.38444,2210,mouth,maot,maot,,ʧoŋo-n,,,0
48741756709,"Rano: Twalung",-15.98389,167.38444,2230,tongue,tang,tang,,nɛ-mɛ-n,,,0
48741756709,"Rano: Twalung",-15.98389,167.38444,2240,tooth,tut,tut,,na-liu,,,0
48741756709,"Rano: Twalung",-15.98389,167.38444,2310,hand,han,han,,navɛr,,,0
48741756709,"Rano: Twalung",-15.98389,167.38444,2330,shoulder,solda,solda,,..,,,0
48741756709,"Rano: Twalung",-15.98389,167.38444,2410,neck,nek,nek,,ᵐbot͡sɛla-n,,,0
48741756709,"Rano: Twalung",-15.98389,167.38444,2420,back,baksaed,baksaed,,ⁿdotrɛ-n,,,0
48741756709,"Rano: Twalung",-15.98389,167.38444,2520,leg,lek,lek,,ᵐbəla-k,,,0
48741756709,"Rano: Twalung",-15.98389,167.38444,2610,blood,blad,blad,,hra,,,0
48741756709,"Rano: Twalung",-15.98389,167.38444,2620,bone,bun,bun,,ʧi-n,,,0
48741756709,"Rano: Twalung",-15.98389,167.38444,2630,skin,sikin,sikin,,nɛ-vɛlɛvʉlʉ-n,,,0
48741756709,"Rano: Twalung",-15.98389,167.38444,2710,belly,bel,bel,,ⁿdəpai-n,,,0
48741756709,"Rano: Twalung",-15.98389,167.38444,2720,intestines,kat,kat,,ʧinɛ-n,,,0
48741756709,"Rano: Twalung",-15.98389,167.38444,2740,breast,titi,titi,,na-sus,,,0
48741756709,"Rano: Twalung",-15.98389,167.38444,2840,liver,leva,leva,,nɛ-rɛ-n,,,0
48741756809,"Rano: Potora",-15.98472,167.3866,2010,head,hed,hed,,..,,,0
48741756809,"Rano: Potora",-15.98472,167.3866,2050,hair,hea,hea,,ron,,,0
48741756809,"Rano: Potora",-15.98472,167.3866,2050,hair,hea,hea,,"ron ᵐbatu-n",,,0
48741756809,"Rano: Potora",-15.98472,167.3866,2110,eye,ae,ae,,nɛ-mtɛ-m,,,0
48741756809,"Rano: Potora",-15.98472,167.3866,2120,nose,nus,nus,,ᵑgunsi-m,,,0
48741756809,"Rano: Potora",-15.98472,167.3866,2130,ear,sora,sora,,ᵐboro-m,,,0
48741756809,"Rano: Potora",-15.98472,167.3866,2210,mouth,maot,maot,,t͡soŋo-m,,,0
48741756809,"Rano: Potora",-15.98472,167.3866,2230,tongue,tang,tang,,nɛ-mɛ-m,,,0
48741756809,"Rano: Potora",-15.98472,167.3866,2240,tooth,tut,tut,,ni-luwo-m,,,0
48741756809,"Rano: Potora",-15.98472,167.3866,2310,hand,han,han,,navɛɾ,,,0
48741756809,"Rano: Potora",-15.98472,167.3866,2330,shoulder,solda,solda,,ᵐbepari-m,,,0
48741756809,"Rano: Potora",-15.98472,167.3866,2410,neck,nek,nek,,ᵐbotsɛla-,,,0
48741756809,"Rano: Potora",-15.98472,167.3866,2420,back,baksaed,baksaed,,ⁿdotɛrɛ-n,,,0
48741756809,"Rano: Potora",-15.98472,167.3866,2520,leg,lek,lek,,ᵐbəla-k,,,0
48741756809,"Rano: Potora",-15.98472,167.3866,2610,blood,blad,blad,,hra,,,0
48741756809,"Rano: Potora",-15.98472,167.3866,2620,bone,bun,bun,,ʧi-m,,,0
48741756809,"Rano: Potora",-15.98472,167.3866,2630,skin,sikin,sikin,,nɛ-vlʉlʉ-n,,,0
48741756809,"Rano: Potora",-15.98472,167.3866,2710,belly,bel,bel,,ⁿdupai-n,,,0
48741756809,"Rano: Potora",-15.98472,167.3866,2720,intestines,kat,kat,,ʧinɪ-m,,,0
48741756809,"Rano: Potora",-15.98472,167.3866,2740,breast,titi,titi,,na-sus,,,0
48741756809,"Rano: Potora",-15.98472,167.3866,2840,liver,leva,leva,,nɛ-rɛ-m,,,0
48741756909,"Rano: Chinambong",-15.99049,167.39063,2010,head,hed,hed,,ᵐbatu-n,,,0
48741756909,"Rano: Chinambong",-15.99049,167.39063,2050,hair,hea,hea,,ron,,,0
48741756909,"Rano: Chinambong",-15.99049,167.39063,2050,hair,hea,hea,,"ron ᵐbatu-n",,,0
48741756909,"Rano: Chinambong",-15.99049,167.39063,2110,eye,ae,ae,,nɛ-mtɛ-m,,,0
48741756909,"Rano: Chinambong",-15.99049,167.39063,2120,nose,nus,nus,,ᵑgunsi-n,,,0
48741756909,"Rano: Chinambong",-15.99049,167.39063,2130,ear,sora,sora,,ᵐboro-n,,,0
48741756909,"Rano: Chinambong",-15.99049,167.39063,2210,mouth,maot,maot,,ʧoŋo-n,,,0
48741756909,"Rano: Chinambong",-15.99049,167.39063,2230,tongue,tang,tang,,nɛ-mɛ-n,,,0
48741756909,"Rano: Chinambong",-15.99049,167.39063,2240,tooth,tut,tut,,nɛ-luwo-n,,,0
48741756909,"Rano: Chinambong",-15.99049,167.39063,2310,hand,han,han,,navɛɾ,,,0
48741756909,"Rano: Chinambong",-15.99049,167.39063,2330,shoulder,solda,solda,,bɛrfari-n,,,0
48741756909,"Rano: Chinambong",-15.99049,167.39063,2410,neck,nek,nek,,..,,,0
48741756909,"Rano: Chinambong",-15.99049,167.39063,2420,back,baksaed,baksaed,,ⁿdotrɛ-n,,,0
48741756909,"Rano: Chinambong",-15.99049,167.39063,2520,leg,lek,lek,,ᵐbɘla-n,,,0
48741756909,"Rano: Chinambong",-15.99049,167.39063,2610,blood,blad,blad,,hra,,,0
48741756909,"Rano: Chinambong",-15.99049,167.39063,2620,bone,bun,bun,,ʧi-n,,,0
48741756909,"Rano: Chinambong",-15.99049,167.39063,2630,skin,sikin,sikin,,nɛ-vɛlɛvʉlʉ-n,,,0
48741756909,"Rano: Chinambong",-15.99049,167.39063,2710,belly,bel,bel,,ⁿdupai-n,,,0
48741756909,"Rano: Chinambong",-15.99049,167.39063,2720,intestines,kat,kat,,ʧinɛ-n,,,0
48741756909,"Rano: Chinambong",-15.99049,167.39063,2740,breast,titi,titi,,ne-su-n,,,0
48741756909,"Rano: Chinambong",-15.99049,167.39063,2840,liver,leva,leva,,nɛ-rɛ-n,,,0
48741757609,"Uripiv: Tautu Village",-16.06661,167.3975,2010,head,hed,hed,,ᵐbatu-n,,,0
48741757609,"Uripiv: Tautu Village",-16.06661,167.3975,2050,hair,hea,hea,,ron,,,0
48741757609,"Uripiv: Tautu Village",-16.06661,167.3975,2110,eye,ae,ae,,..,,,0
48741757609,"Uripiv: Tautu Village",-16.06661,167.3975,2120,nose,nus,nus,,ᵑgunsi-n,,,0
48741757609,"Uripiv: Tautu Village",-16.06661,167.3975,2130,ear,sora,sora,,ᵐborɔ-n,,,0
48741757609,"Uripiv: Tautu Village",-16.06661,167.3975,2210,mouth,maot,maot,,ʧiŋɔ-n,,,0
48741757609,"Uripiv: Tautu Village",-16.06661,167.3975,2230,tongue,tang,tang,,nɛ-mɛ-n,,,0
48741757609,"Uripiv: Tautu Village",-16.06661,167.3975,2240,tooth,tut,tut,,liwɛ-n,,,0
48741757609,"Uripiv: Tautu Village",-16.06661,167.3975,2310,hand,han,han,,neurɛ-n,,,0
48741757609,"Uripiv: Tautu Village",-16.06661,167.3975,2330,shoulder,solda,solda,,ᵐbɛrpari-n,,,0
48741757609,"Uripiv: Tautu Village",-16.06661,167.3975,2410,neck,nek,nek,,no-wɛ-n,,,0
48741757609,"Uripiv: Tautu Village",-16.06661,167.3975,2420,back,baksaed,baksaed,,ⁿdao-n,,,0
48741757609,"Uripiv: Tautu Village",-16.06661,167.3975,2520,leg,lek,lek,,ᵐbila-n,,,0
48741757609,"Uripiv: Tautu Village",-16.06661,167.3975,2610,blood,blad,blad,,ⁿdʳa-n,,,0
48741757609,"Uripiv: Tautu Village",-16.06661,167.3975,2620,bone,bun,bun,,ʧi-n,,,0
48741757609,"Uripiv: Tautu Village",-16.06661,167.3975,2630,skin,sikin,sikin,,ne-olɛ-n,,,0
48741757609,"Uripiv: Tautu Village",-16.06661,167.3975,2710,belly,bel,bel,,ⁿdopai-n,,,0
48741757609,"Uripiv: Tautu Village",-16.06661,167.3975,2720,intestines,kat,kat,,ʧinɛ-n,,,0
48741757609,"Uripiv: Tautu Village",-16.06661,167.3975,2740,breast,titi,titi,,na-sus,,,0
48741757609,"Uripiv: Tautu Village",-16.06661,167.3975,2840,liver,leva,leva,,nɛ-rɛn,,,0
48741758709,"Uripiv: Tautu",-16.06778,167.40111,2010,head,hed,hed,,ᵐbatu-n,,,0
48741758709,"Uripiv: Tautu",-16.06778,167.40111,2050,hair,hea,hea,,ron,,,0
48741758709,"Uripiv: Tautu",-16.06778,167.40111,2050,hair,hea,hea,,"ron ᵐbatu-n",,,0
48741758709,"Uripiv: Tautu",-16.06778,167.40111,2110,eye,ae,ae,,nɛ-mtɛ-n,,,0
48741758709,"Uripiv: Tautu",-16.06778,167.40111,2120,nose,nus,nus,,ᵑgunsi-n,,,0
48741758709,"Uripiv: Tautu",-16.06778,167.40111,2130,ear,sora,sora,,ᵐboro-n,,,0
48741758709,"Uripiv: Tautu",-16.06778,167.40111,2210,mouth,maot,maot,,ⁿʒiŋo-n,,,0
48741758709,"Uripiv: Tautu",-16.06778,167.40111,2230,tongue,tang,tang,,nɛ-mɛ-n,,,0
48741758709,"Uripiv: Tautu",-16.06778,167.40111,2240,tooth,tut,tut,,liwɛ-n,,,0
48741758709,"Uripiv: Tautu",-16.06778,167.40111,2310,hand,han,han,,nɛwɛɾɛ-n,,,0
48741758709,"Uripiv: Tautu",-16.06778,167.40111,2330,shoulder,solda,solda,,ᵐbɛrpari-n,,,0
48741758709,"Uripiv: Tautu",-16.06778,167.40111,2410,neck,nek,nek,,nowɛ-n,,,0
48741758709,"Uripiv: Tautu",-16.06778,167.40111,2420,back,baksaed,baksaed,,ⁿdao-n,,,0
48741758709,"Uripiv: Tautu",-16.06778,167.40111,2520,leg,lek,lek,,ᵐbɪlan,,,0
48741758709,"Uripiv: Tautu",-16.06778,167.40111,2610,blood,blad,blad,,ⁿdʳa-n,,,0
48741758709,"Uripiv: Tautu",-16.06778,167.40111,2620,bone,bun,bun,,ⁿʧi-n,,,0
48741758709,"Uripiv: Tautu",-16.06778,167.40111,2630,skin,sikin,sikin,,ne-ulu-n,,,0
48741758709,"Uripiv: Tautu",-16.06778,167.40111,2710,belly,bel,bel,,ⁿdopai-n,,,0
48741758709,"Uripiv: Tautu",-16.06778,167.40111,2720,intestines,kat,kat,,ⁿʒinɛ-n,,,0
48741758709,"Uripiv: Tautu",-16.06778,167.40111,2740,breast,titi,titi,,na-sus,,,0
48741758709,"Uripiv: Tautu",-16.06778,167.40111,2840,liver,leva,leva,,..,,,0
48741758809,"Uripiv: Durpif",-16.07265,167.447,2010,head,hed,hed,,ᵐbʷatu-m,,,0
48741758809,"Uripiv: Durpif",-16.07265,167.447,2050,hair,hea,hea,,ʧumerom,,,0
48741758809,"Uripiv: Durpif",-16.07265,167.447,2050,hair,hea,hea,,"ʧumerom ᵐbʷatu-m",,,0
48741758809,"Uripiv: Durpif",-16.07265,167.447,2110,eye,ae,ae,,mɛtɛ-m,,,0
48741758809,"Uripiv: Durpif",-16.07265,167.447,2120,nose,nus,nus,,ᵑgunsi-m,,,0
48741758809,"Uripiv: Durpif",-16.07265,167.447,2130,ear,sora,sora,,ᵐboro-m,,,0
48741758809,"Uripiv: Durpif",-16.07265,167.447,2210,mouth,maot,maot,,ʧiŋo-m,,,0
48741758809,"Uripiv: Durpif",-16.07265,167.447,2230,tongue,tang,tang,,nɛ-mɛ-m,,,0
48741758809,"Uripiv: Durpif",-16.07265,167.447,2240,tooth,tut,tut,,liwɛ-m,,,0
48741758809,"Uripiv: Durpif",-16.07265,167.447,2310,hand,han,han,,navɛr,,,0
48741758809,"Uripiv: Durpif",-16.07265,167.447,2330,shoulder,solda,solda,,ᵐbiɾpaɾi-m,,,0
48741758809,"Uripiv: Durpif",-16.07265,167.447,2410,neck,nek,nek,,nowɛ-m,,,0
48741758809,"Uripiv: Durpif",-16.07265,167.447,2420,back,baksaed,baksaed,,ⁿduɾɛ-n,,,0
48741758809,"Uripiv: Durpif",-16.07265,167.447,2520,leg,lek,lek,,..,,,0
48741758809,"Uripiv: Durpif",-16.07265,167.447,2610,blood,blad,blad,,hⁿdʳa,,,0
48741758809,"Uripiv: Durpif",-16.07265,167.447,2620,bone,bun,bun,,ʧi-m,,,0
48741758809,"Uripiv: Durpif",-16.07265,167.447,2630,skin,sikin,sikin,,ne-vʉlʊ-n,,,0
48741758809,"Uripiv: Durpif",-16.07265,167.447,2710,belly,bel,bel,,ⁿdepai-m,,,0
48741758809,"Uripiv: Durpif",-16.07265,167.447,2720,intestines,kat,kat,,..,,,0
48741758809,"Uripiv: Durpif",-16.07265,167.447,2740,breast,titi,titi,,..,,,0
48741758809,"Uripiv: Durpif",-16.07265,167.447,2840,liver,leva,leva,,nɛ-ɾɛ-n,,,0
48741758909,"Uripiv: Potnambe",-16.07391,167.45203,2010,head,hed,hed,,ᵐbʷatu-n,,,0
48741758909,"Uripiv: Potnambe",-16.07391,167.45203,2050,hair,hea,hea,,raun,,,0
48741758909,"Uripiv: Potnambe",-16.07391,167.45203,2050,hair,hea,hea,,"raun ᵐbatu-n",,,0
48741758909,"Uripiv: Potnambe",-16.07391,167.45203,2110,eye,ae,ae,,mɛtɛ-n,,,0
48741758909,"Uripiv: Potnambe",-16.07391,167.45203,2120,nose,nus,nus,,ᵑgunsi-n,,,0
48741758909,"Uripiv: Potnambe",-16.07391,167.45203,2130,ear,sora,sora,,ᵐboro-n,,,0
48741758909,"Uripiv: Potnambe",-16.07391,167.45203,2210,mouth,maot,maot,,ʧiŋo-n,,,0
48741758909,"Uripiv: Potnambe",-16.07391,167.45203,2230,tongue,tang,tang,,nɛ-mɛ-n,,,0
48741758909,"Uripiv: Potnambe",-16.07391,167.45203,2240,tooth,tut,tut,,liwɛ-n,,,0
48741758909,"Uripiv: Potnambe",-16.07391,167.45203,2310,hand,han,han,,navɛr,,,0
48741758909,"Uripiv: Potnambe",-16.07391,167.45203,2330,shoulder,solda,solda,,ᵐbirpari-n,,,0
48741758909,"Uripiv: Potnambe",-16.07391,167.45203,2410,neck,nek,nek,,nowɛ-n,,,0
48741758909,"Uripiv: Potnambe",-16.07391,167.45203,2420,back,baksaed,baksaed,,..,,,0
48741758909,"Uripiv: Potnambe",-16.07391,167.45203,2520,leg,lek,lek,,ᵐbɛlda-n,,,0
48741758909,"Uripiv: Potnambe",-16.07391,167.45203,2610,blood,blad,blad,,hⁿdʳa,,,0
48741758909,"Uripiv: Potnambe",-16.07391,167.45203,2620,bone,bun,bun,,ʧi-n,,,0
48741758909,"Uripiv: Potnambe",-16.07391,167.45203,2630,skin,sikin,sikin,,ne-βulʉ- n,,,0
48741758909,"Uripiv: Potnambe",-16.07391,167.45203,2710,belly,bel,bel,,ⁿdepai-n,,,0
48741758909,"Uripiv: Potnambe",-16.07391,167.45203,2720,intestines,kat,kat,,ʧinɛ-n,,,0
48741758909,"Uripiv: Potnambe",-16.07391,167.45203,2740,breast,titi,titi,,..,,,0
48741758909,"Uripiv: Potnambe",-16.07391,167.45203,2840,liver,leva,leva,,nɛ-ɾɛ-n,,,0
48741953109,"Wowo: Lesarmalas",-15.90733,167.17927,2010,head,hed,hed,,na-ᵐbatɪ-ne,,,0
48741953109,"Wowo: Lesarmalas",-15.90733,167.17927,2050,hair,hea,hea,,nɛðil,,,0
48741953109,"Wowo: Lesarmalas",-15.90733,167.17927,2050,hair,hea,hea,,"nɛðil batɪ-ne",,,0
48741953109,"Wowo: Lesarmalas",-15.90733,167.17927,2110,eye,ae,ae,,na-nata-n,,,0
48741953109,"Wowo: Lesarmalas",-15.90733,167.17927,2120,nose,nus,nus,,no-kunuhu-ne,,,0
48741953109,"Wowo: Lesarmalas",-15.90733,167.17927,2130,ear,sora,sora,,no-ᵐborolol,,,0
48741953109,"Wowo: Lesarmalas",-15.90733,167.17927,2210,mouth,maot,maot,,nu-suŋo-n,,,0
48741953109,"Wowo: Lesarmalas",-15.90733,167.17927,2230,tongue,tang,tang,,nɛ-nɛnɛ-n,,,0
48741953109,"Wowo: Lesarmalas",-15.90733,167.17927,2240,tooth,tut,tut,,nu-luvo-n,,,0
48741953109,"Wowo: Lesarmalas",-15.90733,167.17927,2310,hand,han,han,,na-ðaɾa-n,,,0
48741953109,"Wowo: Lesarmalas",-15.90733,167.17927,2330,shoulder,solda,solda,,nɛ-ᵐbilne,,,0
48741953109,"Wowo: Lesarmalas",-15.90733,167.17927,2410,neck,nek,nek,,nɛ-ᵐbɪtralo-n,,,0
48741953109,"Wowo: Lesarmalas",-15.90733,167.17927,2420,back,baksaed,baksaed,,nɪ-suᵐbuna-n,,,0
48741953109,"Wowo: Lesarmalas",-15.90733,167.17927,2520,leg,lek,lek,,na-ᵐbalako-l,,,0
48741953109,"Wowo: Lesarmalas",-15.90733,167.17927,2610,blood,blad,blad,,na-re,,,0
48741953109,"Wowo: Lesarmalas",-15.90733,167.17927,2620,bone,bun,bun,,..,,,0
48741953109,"Wowo: Lesarmalas",-15.90733,167.17927,2630,skin,sikin,sikin,,ni-ðil,,,0
48741953109,"Wowo: Lesarmalas",-15.90733,167.17927,2630,skin,sikin,sikin,,"ni-ðil ⁿdɛn",,,0
48741953109,"Wowo: Lesarmalas",-15.90733,167.17927,2710,belly,bel,bel,,nɪ-hinɛ-n,,,0
48741953109,"Wowo: Lesarmalas",-15.90733,167.17927,2720,intestines,kat,kat,,niltehera-sə-ne,,,0
48741953109,"Wowo: Lesarmalas",-15.90733,167.17927,2740,breast,titi,titi,,no-huvu-ne,,,0
48741953109,"Wowo: Lesarmalas",-15.90733,167.17927,2840,liver,leva,leva,,nɛ-ᵐbɛᵐbɪ-n,,,0
48741954109,"Wowo: Wowo",-15.90224,167.18459,2010,head,hed,hed,,na-ᵐbatɪ-ne,,,0
48741954109,"Wowo: Wowo",-15.90224,167.18459,2050,hair,hea,hea,,niðil,,,0
48741954109,"Wowo: Wowo",-15.90224,167.18459,2050,hair,hea,hea,,"niðil batɪ-ne",,,0
48741954109,"Wowo: Wowo",-15.90224,167.18459,2110,eye,ae,ae,,na-nata-k,,,0
48741954109,"Wowo: Wowo",-15.90224,167.18459,2120,nose,nus,nus,,nu-kunuhi-ne,,,0
48741954109,"Wowo: Wowo",-15.90224,167.18459,2130,ear,sora,sora,,no-ᵐbororo-k,,,0
48741954109,"Wowo: Wowo",-15.90224,167.18459,2210,mouth,maot,maot,,..,,,0
48741954109,"Wowo: Wowo",-15.90224,167.18459,2230,tongue,tang,tang,,nɛ-nɛnɛ-k,,,0
48741954109,"Wowo: Wowo",-15.90224,167.18459,2240,tooth,tut,tut,,nu-luwo-k,,,0
48741954109,"Wowo: Wowo",-15.90224,167.18459,2310,hand,han,han,,na-rara-k,,,0
48741954109,"Wowo: Wowo",-15.90224,167.18459,2330,shoulder,solda,solda,,nɛ-ᵐbilne,,,0
48741954109,"Wowo: Wowo",-15.90224,167.18459,2410,neck,nek,nek,,nɪ-ᵐbɪtralo-n,,,0
48741954109,"Wowo: Wowo",-15.90224,167.18459,2420,back,baksaed,baksaed,,nɪ-soᵐbuna-n,,,0
48741954109,"Wowo: Wowo",-15.90224,167.18459,2520,leg,lek,lek,,na-ᵐbalako-k,,,0
48741954109,"Wowo: Wowo",-15.90224,167.18459,2610,blood,blad,blad,,na-re,,,0
48741954109,"Wowo: Wowo",-15.90224,167.18459,2620,bone,bun,bun,,ni-si-k,,,0
48741954109,"Wowo: Wowo",-15.90224,167.18459,2630,skin,sikin,sikin,,ne-ʒil,,,0
48741954109,"Wowo: Wowo",-15.90224,167.18459,2630,skin,sikin,sikin,,"ne-ʒil ʒilme",,,0
48741954109,"Wowo: Wowo",-15.90224,167.18459,2710,belly,bel,bel,,ni-hinɪ-k,,,0
48741954109,"Wowo: Wowo",-15.90224,167.18459,2720,intestines,kat,kat,,nɛltɛgna-sə-ne,,,0
48741954109,"Wowo: Wowo",-15.90224,167.18459,2740,breast,titi,titi,,na-hu,,,0
48741954109,"Wowo: Wowo",-15.90224,167.18459,2840,liver,leva,leva,,na-ᵐbɪ-m,,,0
48741956109,"Alavas: Wowo",-15.90293,167.18499,2010,head,hed,hed,,na-ᵐbatu-k,,,0
48741956109,"Alavas: Wowo",-15.90293,167.18499,2050,hair,hea,hea,,nɪðil,,,0
48741956109,"Alavas: Wowo",-15.90293,167.18499,2050,hair,hea,hea,,"nɪðil batu-k",,,0
48741956109,"Alavas: Wowo",-15.90293,167.18499,2110,eye,ae,ae,,na-nata-k,,,0
48741956109,"Alavas: Wowo",-15.90293,167.18499,2120,nose,nus,nus,,nu-kunuhu-k,,,0
48741956109,"Alavas: Wowo",-15.90293,167.18499,2130,ear,sora,sora,,no-ᵐbororu-k,,,0
48741956109,"Alavas: Wowo",-15.90293,167.18499,2210,mouth,maot,maot,,nu-suŋo-k,,,0
48741956109,"Alavas: Wowo",-15.90293,167.18499,2230,tongue,tang,tang,,nɛ-nɛnɪ-k,,,0
48741956109,"Alavas: Wowo",-15.90293,167.18499,2240,tooth,tut,tut,,nu-luvo-k,,,0
48741956109,"Alavas: Wowo",-15.90293,167.18499,2310,hand,han,han,,na-ðara-k,,,0
48741956109,"Alavas: Wowo",-15.90293,167.18499,2330,shoulder,solda,solda,,nɪ-ᵐbili-k,,,0
48741956109,"Alavas: Wowo",-15.90293,167.18499,2410,neck,nek,nek,,nɛ-ᵐbɛtralu-k,,,0
48741956109,"Alavas: Wowo",-15.90293,167.18499,2420,back,baksaed,baksaed,,nu-suᵐbuna-k,,,0
48741956109,"Alavas: Wowo",-15.90293,167.18499,2520,leg,lek,lek,,na-ᵐbalaku-k,,,0
48741956109,"Alavas: Wowo",-15.90293,167.18499,2610,blood,blad,blad,,na-re,,,0
48741956109,"Alavas: Wowo",-15.90293,167.18499,2620,bone,bun,bun,,ni-si-k,,,0
48741956109,"Alavas: Wowo",-15.90293,167.18499,2630,skin,sikin,sikin,,ni-ʒil,,,0
48741956109,"Alavas: Wowo",-15.90293,167.18499,2630,skin,sikin,sikin,,"ni-ʒil na-rara-k",,,0
48741956109,"Alavas: Wowo",-15.90293,167.18499,2710,belly,bel,bel,,ni-hinɪ-k,,,0
48741956109,"Alavas: Wowo",-15.90293,167.18499,2720,intestines,kat,kat,,nɛltɛgna-su-k,,,0
48741956109,"Alavas: Wowo",-15.90293,167.18499,2740,breast,titi,titi,,na-hu,,,0
48741956109,"Alavas: Wowo",-15.90293,167.18499,2840,liver,leva,leva,,nɛ-ᵐbɛᵐbi-k,,,0
48741957109,"Alavas: Alavas",-15.89046,167.24151,2010,head,hed,hed,,na-ᵐbatu-k,,,0
48741957109,"Alavas: Alavas",-15.89046,167.24151,2050,hair,hea,hea,,nɪðil,,,0
48741957109,"Alavas: Alavas",-15.89046,167.24151,2050,hair,hea,hea,,"nɪðil batu-k",,,0
48741957109,"Alavas: Alavas",-15.89046,167.24151,2110,eye,ae,ae,,na-nata-k,,,0
48741957109,"Alavas: Alavas",-15.89046,167.24151,2120,nose,nus,nus,,nu-kunuhu-k,,,0
48741957109,"Alavas: Alavas",-15.89046,167.24151,2130,ear,sora,sora,,no-ᵐbororo-k,,,0
48741957109,"Alavas: Alavas",-15.89046,167.24151,2210,mouth,maot,maot,,nu-suŋo-k,,,0
48741957109,"Alavas: Alavas",-15.89046,167.24151,2230,tongue,tang,tang,,nɛ-nɛnɛ-,,,0
48741957109,"Alavas: Alavas",-15.89046,167.24151,2240,tooth,tut,tut,,nu-luvo-k,,,0
48741957109,"Alavas: Alavas",-15.89046,167.24151,2310,hand,han,han,,na-ðara-k,,,0
48741957109,"Alavas: Alavas",-15.89046,167.24151,2330,shoulder,solda,solda,,nɪ-ᵐbili-k,,,0
48741957109,"Alavas: Alavas",-15.89046,167.24151,2410,neck,nek,nek,,nɛ-ᵐbɪtralo-k,,,0
48741957109,"Alavas: Alavas",-15.89046,167.24151,2420,back,baksaed,baksaed,,nɪ-suᵐbuna-k,,,0
48741957109,"Alavas: Alavas",-15.89046,167.24151,2520,leg,lek,lek,,naᵐbalako-k,,,0
48741957109,"Alavas: Alavas",-15.89046,167.24151,2610,blood,blad,blad,,..,,,0
48741957109,"Alavas: Alavas",-15.89046,167.24151,2620,bone,bun,bun,,ni-si-k,,,0
48741957109,"Alavas: Alavas",-15.89046,167.24151,2630,skin,sikin,sikin,,nɪ-ðil,,,0
48741957109,"Alavas: Alavas",-15.89046,167.24151,2630,skin,sikin,sikin,,"nɪ-ðil dilik",,,0
48741957109,"Alavas: Alavas",-15.89046,167.24151,2710,belly,bel,bel,,ni-hinɪ-k,,,0
48741957109,"Alavas: Alavas",-15.89046,167.24151,2720,intestines,kat,kat,,nɛltɛgna-sə-ne,,,0
48741957109,"Alavas: Alavas",-15.89046,167.24151,2740,breast,titi,titi,,no-huhu-k,,,0
48741957109,"Alavas: Alavas",-15.89046,167.24151,2840,liver,leva,leva,,na-ᵐbɛ-m,,,0
