LanguageId,LanguageName,Latitude,Longitude,WordId,WordModernName1,WordModernName2,WordProtoName1,WordProtoName2,Phonetic,SpellingAltv1,SpellingAltv2,NotCognateWithMainWordInThisFamily
48741151109,"V’ënen Taute: Alpalak",-15.99722,167.1825,3120,dog,dog,dog,,lipax,,,0
48741151109,"V’ënen Taute: Alpalak",-15.99722,167.1825,3210,bird,pijin,pijin,,n̼a-nəx,,,0
48741151109,"V’ënen Taute: Alpalak",-15.99722,167.1825,3240,fish,fis,fis,,tilao,,,0
48741151109,"V’ënen Taute: Alpalak",-15.99722,167.1825,3410,snake,snek,snek,,nɪ-mʷat,,,0
48741151109,"V’ënen Taute: Alpalak",-15.99722,167.1825,3420,worm,wom,wom,,sɪlɛs,,,0
48741151109,"V’ënen Taute: Alpalak",-15.99722,167.1825,3430,louse,laus,laus,,na-ɣt,,,0
48741151109,"V’ënen Taute: Alpalak",-15.99722,167.1825,3450,rat,rat,rat,,ləpo,,,0
48741151109,"V’ënen Taute: Alpalak",-15.99722,167.1825,3490,spider,spida,spida,,ni-lao,,,0
48741151109,"V’ënen Taute: Alpalak",-15.99722,167.1825,3520,mosquito,moskito,moskito,,na-məx,,,0
48741151109,"V’ënen Taute: Alpalak",-15.99722,167.1825,3810,egg,ek,ek,,naɣaⁿdʳln,,,0
48741151109,"V’ënen Taute: Alpalak",-15.99722,167.1825,3830,tail,tel,tel,,fəli,,,0
48741151109,"V’ënen Taute: Alpalak",-15.99722,167.1825,3840,wing,win,win,,ni-lxai-ɛn,,,0
48741151109,"V’ënen Taute: Alpalak",-15.99722,167.1825,3850,feather,feta,feta,,nilⁿdʳln,,,0
48741151109,"V’ënen Taute: Alpalak",-15.99722,167.1825,3850,feather,feta,feta,,nilⁿdʳln,,,0
48741153209,"V’ënen Taute: Benenavet",-16.02038,167.17671,3120,dog,dog,dog,,lipax,,,0
48741153209,"V’ënen Taute: Benenavet",-16.02038,167.17671,3210,bird,pijin,pijin,,n̼anəx,,,0
48741153209,"V’ënen Taute: Benenavet",-16.02038,167.17671,3240,fish,fis,fis,,tilao,,,0
48741153209,"V’ënen Taute: Benenavet",-16.02038,167.17671,3410,snake,snek,snek,,..,,,0
48741153209,"V’ënen Taute: Benenavet",-16.02038,167.17671,3420,worm,wom,wom,,..,,,0
48741153209,"V’ënen Taute: Benenavet",-16.02038,167.17671,3430,louse,laus,laus,,naɣt,,,0
48741153209,"V’ënen Taute: Benenavet",-16.02038,167.17671,3450,rat,rat,rat,,ɛlpo,,,0
48741153209,"V’ënen Taute: Benenavet",-16.02038,167.17671,3490,spider,spida,spida,,..,,,0
48741153209,"V’ënen Taute: Benenavet",-16.02038,167.17671,3520,mosquito,moskito,moskito,,..,,,0
48741153209,"V’ënen Taute: Benenavet",-16.02038,167.17671,3810,egg,ek,ek,,naxaⁿdʳln,,,0
48741153209,"V’ënen Taute: Benenavet",-16.02038,167.17671,3830,tail,tel,tel,,fəlin,,,0
48741153209,"V’ënen Taute: Benenavet",-16.02038,167.17671,3840,wing,win,win,,nilɣaiɛn,,,0
48741153209,"V’ënen Taute: Benenavet",-16.02038,167.17671,3850,feather,feta,feta,,..,,,0
48741155209,"V’ënen Taute: Benmara",-16.05552,167.23261,3120,dog,dog,dog,,lipæx,,,0
48741155209,"V’ënen Taute: Benmara",-16.05552,167.23261,3210,bird,pijin,pijin,,n̼æ-nəx,,,0
48741155209,"V’ënen Taute: Benmara",-16.05552,167.23261,3240,fish,fis,fis,,tilow,,,0
48741155209,"V’ënen Taute: Benmara",-16.05552,167.23261,3410,snake,snek,snek,,nə-mað̼,,,0
48741155209,"V’ënen Taute: Benmara",-16.05552,167.23261,3420,worm,wom,wom,,sɪlɛs,,,0
48741155209,"V’ënen Taute: Benmara",-16.05552,167.23261,3430,louse,laus,laus,,na-ɣt,,,0
48741155209,"V’ënen Taute: Benmara",-16.05552,167.23261,3450,rat,rat,rat,,lupu,,,0
48741155209,"V’ënen Taute: Benmara",-16.05552,167.23261,3490,spider,spida,spida,,ni-low,,,0
48741155209,"V’ënen Taute: Benmara",-16.05552,167.23261,3520,mosquito,moskito,moskito,,namax,,,0
48741155209,"V’ënen Taute: Benmara",-16.05552,167.23261,3810,egg,ek,ek,,naxaⁿdʳn,,,0
48741155209,"V’ënen Taute: Benmara",-16.05552,167.23261,3830,tail,tel,tel,,fəli-n,,,0
48741155209,"V’ënen Taute: Benmara",-16.05552,167.23261,3840,wing,win,win,,"n-il ɣaiɛn",,,0
48741155209,"V’ënen Taute: Benmara",-16.05552,167.23261,3850,feather,feta,feta,,..,,,0
48741157409,"V’ënen Taute: Unmet",-16.15371,167.26022,3120,dog,dog,dog,,lipax,,,0
48741157409,"V’ënen Taute: Unmet",-16.15371,167.26022,3210,bird,pijin,pijin,,manəx,,,0
48741157409,"V’ënen Taute: Unmet",-16.15371,167.26022,3240,fish,fis,fis,,tilo,,,0
48741157409,"V’ënen Taute: Unmet",-16.15371,167.26022,3410,snake,snek,snek,,nɪ-mat,,,0
48741157409,"V’ënen Taute: Unmet",-16.15371,167.26022,3420,worm,wom,wom,,sɪlɛs,,,0
48741157409,"V’ënen Taute: Unmet",-16.15371,167.26022,3430,louse,laus,laus,,na-ɣt,,,0
48741157409,"V’ënen Taute: Unmet",-16.15371,167.26022,3450,rat,rat,rat,,lɪpo,,,0
48741157409,"V’ënen Taute: Unmet",-16.15371,167.26022,3490,spider,spida,spida,,ni-lo,,,0
48741157409,"V’ënen Taute: Unmet",-16.15371,167.26022,3520,mosquito,moskito,moskito,,na-max,,,0
48741157409,"V’ënen Taute: Unmet",-16.15371,167.26022,3810,egg,ek,ek,,naxaⁿdʳn,,,0
48741157409,"V’ënen Taute: Unmet",-16.15371,167.26022,3830,tail,tel,tel,,vəli-n,,,0
48741157409,"V’ënen Taute: Unmet",-16.15371,167.26022,3840,wing,win,win,,ni-lxa-ɛn,,,0
48741157409,"V’ënen Taute: Unmet",-16.15371,167.26022,3850,feather,feta,feta,,nil-n,,,0
48741158409,"V’ënen Taute: Hamax",-16.111,167.249,3120,dog,dog,dog,,lipax,,,0
48741158409,"V’ënen Taute: Hamax",-16.111,167.249,3210,bird,pijin,pijin,,n̼a-nəx,,,0
48741158409,"V’ënen Taute: Hamax",-16.111,167.249,3240,fish,fis,fis,,tilao,,,0
48741158409,"V’ënen Taute: Hamax",-16.111,167.249,3410,snake,snek,snek,,..,,,0
48741158409,"V’ënen Taute: Hamax",-16.111,167.249,3420,worm,wom,wom,,..,,,0
48741158409,"V’ënen Taute: Hamax",-16.111,167.249,3430,louse,laus,laus,,na-ɣt,,,0
48741158409,"V’ënen Taute: Hamax",-16.111,167.249,3450,rat,rat,rat,,ɛlpo,,,0
48741158409,"V’ënen Taute: Hamax",-16.111,167.249,3490,spider,spida,spida,,..,,,0
48741158409,"V’ënen Taute: Hamax",-16.111,167.249,3520,mosquito,moskito,moskito,,..,,,0
48741158409,"V’ënen Taute: Hamax",-16.111,167.249,3810,egg,ek,ek,,naxaⁿdʳln,,,0
48741158409,"V’ënen Taute: Hamax",-16.111,167.249,3830,tail,tel,tel,,fəli-n,,,0
48741158409,"V’ënen Taute: Hamax",-16.111,167.249,3840,wing,win,win,,ni-lɣai-ɛn,,,0
48741158409,"V’ënen Taute: Hamax",-16.111,167.249,3850,feather,feta,feta,,..,,,0
48741322109,"Espiegel’s Bay: Solwota",-15.979,167.192,3120,dog,dog,dog,,nu-ɣuli,,,0
48741322109,"Espiegel’s Bay: Solwota",-15.979,167.192,3210,bird,pijin,pijin,,nɪ-mænəx,,,0
48741322109,"Espiegel’s Bay: Solwota",-15.979,167.192,3240,fish,fis,fis,,nɪ-mat͡s,,,0
48741322109,"Espiegel’s Bay: Solwota",-15.979,167.192,3410,snake,snek,snek,,nɪ-mʷɛt,,,0
48741322109,"Espiegel’s Bay: Solwota",-15.979,167.192,3420,worm,wom,wom,,..,,,0
48741322109,"Espiegel’s Bay: Solwota",-15.979,167.192,3430,louse,laus,laus,,na-ɣit,,,0
48741322109,"Espiegel’s Bay: Solwota",-15.979,167.192,3450,rat,rat,rat,,na-ɣariɸ,,,0
48741322109,"Espiegel’s Bay: Solwota",-15.979,167.192,3490,spider,spida,spida,,ne-la,,,0
48741322109,"Espiegel’s Bay: Solwota",-15.979,167.192,3520,mosquito,moskito,moskito,,nɛ-məx,,,0
48741322109,"Espiegel’s Bay: Solwota",-15.979,167.192,3810,egg,ek,ek,,"arlɛ-n mænəx",,,0
48741322109,"Espiegel’s Bay: Solwota",-15.979,167.192,3830,tail,tel,tel,,wɛlɣao-n,,,0
48741322109,"Espiegel’s Bay: Solwota",-15.979,167.192,3840,wing,win,win,,nɛ-ɣpɛ-n,,,0
48741322109,"Espiegel’s Bay: Solwota",-15.979,167.192,3850,feather,feta,feta,,"nɪ-vulo nito",,,0
48741324209,"Espiegel’s Bay: Litebral",-15.974,167.193,3120,dog,dog,dog,,no-woli,,,0
48741324209,"Espiegel’s Bay: Litebral",-15.974,167.193,3210,bird,pijin,pijin,,nɪ-mænɔx,,,0
48741324209,"Espiegel’s Bay: Litebral",-15.974,167.193,3240,fish,fis,fis,,nɪ-mat͡s,,,0
48741324209,"Espiegel’s Bay: Litebral",-15.974,167.193,3410,snake,snek,snek,,nɪ-mʷɛt,,,0
48741324209,"Espiegel’s Bay: Litebral",-15.974,167.193,3420,worm,wom,wom,,..,,,0
48741324209,"Espiegel’s Bay: Litebral",-15.974,167.193,3430,louse,laus,laus,,na-ɣit,,,0
48741324209,"Espiegel’s Bay: Litebral",-15.974,167.193,3450,rat,rat,rat,,na-ɣariv,,,0
48741324209,"Espiegel’s Bay: Litebral",-15.974,167.193,3490,spider,spida,spida,,burdlas,,,0
48741324209,"Espiegel’s Bay: Litebral",-15.974,167.193,3520,mosquito,moskito,moskito,,nɛ-məx,,,0
48741324209,"Espiegel’s Bay: Litebral",-15.974,167.193,3810,egg,ek,ek,,rɪlɪ-n,,,0
48741324209,"Espiegel’s Bay: Litebral",-15.974,167.193,3830,tail,tel,tel,,..,,,0
48741324209,"Espiegel’s Bay: Litebral",-15.974,167.193,3840,wing,win,win,,nɛ-ɣpɛ-n,,,0
48741324209,"Espiegel’s Bay: Litebral",-15.974,167.193,3850,feather,feta,feta,,nɪ-vɪloɪ-n,,,0
48741324309,"Espiegel’s Bay: Unspecified",-15.98228,167.19103,3120,dog,dog,dog,,no-xuli,,,0
48741324309,"Espiegel’s Bay: Unspecified",-15.98228,167.19103,3210,bird,pijin,pijin,,nɪ-mɛnəx,,,0
48741324309,"Espiegel’s Bay: Unspecified",-15.98228,167.19103,3240,fish,fis,fis,,nɪ-mat͡s,,,0
48741324309,"Espiegel’s Bay: Unspecified",-15.98228,167.19103,3410,snake,snek,snek,,nɪ-mʷɛt,,,0
48741324309,"Espiegel’s Bay: Unspecified",-15.98228,167.19103,3420,worm,wom,wom,,wɪlɪt͡slɪt͡s,,,0
48741324309,"Espiegel’s Bay: Unspecified",-15.98228,167.19103,3430,louse,laus,laus,,na-ɣit,,,0
48741324309,"Espiegel’s Bay: Unspecified",-15.98228,167.19103,3450,rat,rat,rat,,na-ɣariv,,,0
48741324309,"Espiegel’s Bay: Unspecified",-15.98228,167.19103,3490,spider,spida,spida,,bodlas,,,0
48741324309,"Espiegel’s Bay: Unspecified",-15.98228,167.19103,3520,mosquito,moskito,moskito,,nɛ-mʷɔx,,,0
48741324309,"Espiegel’s Bay: Unspecified",-15.98228,167.19103,3810,egg,ek,ek,,rɪlɪ-n,,,0
48741324309,"Espiegel’s Bay: Unspecified",-15.98228,167.19103,3830,tail,tel,tel,,wɛlɣao,,,0
48741324309,"Espiegel’s Bay: Unspecified",-15.98228,167.19103,3840,wing,win,win,,nɛ-ɣpɛ-n,,,0
48741324309,"Espiegel’s Bay: Unspecified",-15.98228,167.19103,3850,feather,feta,feta,,nɪ-vulo-n,,,0
48741326309,"Malua Bay: Coast",-15.98334,167.18798,3120,dog,dog,dog,,nu-ɣoli,,,0
48741326309,"Malua Bay: Coast",-15.98334,167.18798,3210,bird,pijin,pijin,,nɪ-manox,,,0
48741326309,"Malua Bay: Coast",-15.98334,167.18798,3240,fish,fis,fis,,nɪ-mɛʧ,,,0
48741326309,"Malua Bay: Coast",-15.98334,167.18798,3410,snake,snek,snek,,nɪ-mat,,,0
48741326309,"Malua Bay: Coast",-15.98334,167.18798,3420,worm,wom,wom,,wɪlɪʧlɪʧ,,,0
48741326309,"Malua Bay: Coast",-15.98334,167.18798,3430,louse,laus,laus,,na-ɣət,,,0
48741326309,"Malua Bay: Coast",-15.98334,167.18798,3450,rat,rat,rat,,na-xarɪf,,,0
48741326309,"Malua Bay: Coast",-15.98334,167.18798,3490,spider,spida,spida,,ne-la,,,0
48741326309,"Malua Bay: Coast",-15.98334,167.18798,3520,mosquito,moskito,moskito,,na-mʊx,,,0
48741326309,"Malua Bay: Coast",-15.98334,167.18798,3810,egg,ek,ek,,rɪlɪ-n,,,0
48741326309,"Malua Bay: Coast",-15.98334,167.18798,3830,tail,tel,tel,,wɪlɪɣao-n,,,0
48741326309,"Malua Bay: Coast",-15.98334,167.18798,3840,wing,win,win,,na-ɣɪpɛ-n,,,0
48741326309,"Malua Bay: Coast",-15.98334,167.18798,3850,feather,feta,feta,,nɪ-vulo-n,,,0
48741327409,"Malua Bay: Petarmul",-16.00022,167.22137,3120,dog,dog,dog,,nu-ɣoli,,,0
48741327409,"Malua Bay: Petarmul",-16.00022,167.22137,3210,bird,pijin,pijin,,nɪ-manɔx,,,0
48741327409,"Malua Bay: Petarmul",-16.00022,167.22137,3240,fish,fis,fis,,nɪ-mɛʧ,,,0
48741327409,"Malua Bay: Petarmul",-16.00022,167.22137,3410,snake,snek,snek,,nə-mat,,,0
48741327409,"Malua Bay: Petarmul",-16.00022,167.22137,3420,worm,wom,wom,,wɪlɪʧlɪʧ,,,0
48741327409,"Malua Bay: Petarmul",-16.00022,167.22137,3430,louse,laus,laus,,na-ɣət,,,0
48741327409,"Malua Bay: Petarmul",-16.00022,167.22137,3450,rat,rat,rat,,laᵐbʷɔ,,,0
48741327409,"Malua Bay: Petarmul",-16.00022,167.22137,3490,spider,spida,spida,,ne-la,,,0
48741327409,"Malua Bay: Petarmul",-16.00022,167.22137,3520,mosquito,moskito,moskito,,nɛ-məx,,,0
48741327409,"Malua Bay: Petarmul",-16.00022,167.22137,3810,egg,ek,ek,,rɪlɪ-n,,,0
48741327409,"Malua Bay: Petarmul",-16.00022,167.22137,3830,tail,tel,tel,,wɛlɣao-n,,,0
48741327409,"Malua Bay: Petarmul",-16.00022,167.22137,3840,wing,win,win,,nɛ-ɣpa-n,,,0
48741327409,"Malua Bay: Petarmul",-16.00022,167.22137,3850,feather,feta,feta,,nɪ-vɪlɛ-n,,,0
48741328309,"Malua Bay: Tiptir",-15.9905,167.21991,3120,dog,dog,dog,,nu-ɣuli,,,0
48741328309,"Malua Bay: Tiptir",-15.9905,167.21991,3210,bird,pijin,pijin,,nɪ-mænɔx,,,0
48741328309,"Malua Bay: Tiptir",-15.9905,167.21991,3240,fish,fis,fis,,nɪ-mat͡s,,,0
48741328309,"Malua Bay: Tiptir",-15.9905,167.21991,3410,snake,snek,snek,,nɪ-mʷɪt,,,0
48741328309,"Malua Bay: Tiptir",-15.9905,167.21991,3420,worm,wom,wom,,wɪlit͡slit͡s,,,0
48741328309,"Malua Bay: Tiptir",-15.9905,167.21991,3430,louse,laus,laus,,nɛ-ɣət,,,0
48741328309,"Malua Bay: Tiptir",-15.9905,167.21991,3450,rat,rat,rat,,laᵐbɔ,,,0
48741328309,"Malua Bay: Tiptir",-15.9905,167.21991,3490,spider,spida,spida,,ne-la,,,0
48741328309,"Malua Bay: Tiptir",-15.9905,167.21991,3520,mosquito,moskito,moskito,,nɛ-məx,,,0
48741328309,"Malua Bay: Tiptir",-15.9905,167.21991,3810,egg,ek,ek,,rɪlɪ-n,,,0
48741328309,"Malua Bay: Tiptir",-15.9905,167.21991,3830,tail,tel,tel,,wɛlɣao-n,,,0
48741328309,"Malua Bay: Tiptir",-15.9905,167.21991,3840,wing,win,win,,nɛ-ɣpɛ-n,,,0
48741328309,"Malua Bay: Tiptir",-15.9905,167.21991,3850,feather,feta,feta,,nɪ-vulo-n,,,0
48741328409,"Malua Bay: Marasup",-15.99098,167.2198,3120,dog,dog,dog,,nu-ɣoli,,,0
48741328409,"Malua Bay: Marasup",-15.99098,167.2198,3210,bird,pijin,pijin,,manux,,,0
48741328409,"Malua Bay: Marasup",-15.99098,167.2198,3240,fish,fis,fis,,nɪ-mat͡s,,,0
48741328409,"Malua Bay: Marasup",-15.99098,167.2198,3410,snake,snek,snek,,nə-mat,,,0
48741328409,"Malua Bay: Marasup",-15.99098,167.2198,3420,worm,wom,wom,,wulɪt͡slɪt͡s,,,0
48741328409,"Malua Bay: Marasup",-15.99098,167.2198,3430,louse,laus,laus,,na-ɣit,,,0
48741328409,"Malua Bay: Marasup",-15.99098,167.2198,3450,rat,rat,rat,,"ɣalɪ ᵐbit͡soŋ",,,0
48741328409,"Malua Bay: Marasup",-15.99098,167.2198,3490,spider,spida,spida,,ne-la,,,0
48741328409,"Malua Bay: Marasup",-15.99098,167.2198,3520,mosquito,moskito,moskito,,..,,,0
48741328409,"Malua Bay: Marasup",-15.99098,167.2198,3810,egg,ek,ek,,roli-na,,,0
48741328409,"Malua Bay: Marasup",-15.99098,167.2198,3830,tail,tel,tel,,walɣe-na,,,0
48741328409,"Malua Bay: Marasup",-15.99098,167.2198,3840,wing,win,win,,na-ɣpe-na,,,0
48741328409,"Malua Bay: Marasup",-15.99098,167.2198,3850,feather,feta,feta,,fɪle-na,,,0
48741345109,"Najit: Tanmial",-15.94786,167.18226,3120,dog,dog,dog,,no-ɣuli,,,0
48741345109,"Najit: Tanmial",-15.94786,167.18226,3210,bird,pijin,pijin,,ni-mɛnəx,,,0
48741345109,"Najit: Tanmial",-15.94786,167.18226,3240,fish,fis,fis,,nɪ-mat͡s,,,0
48741345109,"Najit: Tanmial",-15.94786,167.18226,3410,snake,snek,snek,,nɪ-mʷɛt,,,0
48741345109,"Najit: Tanmial",-15.94786,167.18226,3420,worm,wom,wom,,..,,,0
48741345109,"Najit: Tanmial",-15.94786,167.18226,3430,louse,laus,laus,,na-ɣet,,,0
48741345109,"Najit: Tanmial",-15.94786,167.18226,3450,rat,rat,rat,,na-ɣarif,,,0
48741345109,"Najit: Tanmial",-15.94786,167.18226,3490,spider,spida,spida,,ᵐbotlas,,,0
48741345109,"Najit: Tanmial",-15.94786,167.18226,3520,mosquito,moskito,moskito,,nɛ-məx,,,0
48741345109,"Najit: Tanmial",-15.94786,167.18226,3810,egg,ek,ek,,rzn,,,0
48741345109,"Najit: Tanmial",-15.94786,167.18226,3830,tail,tel,tel,,vʷɛlɣaun,,,0
48741345109,"Najit: Tanmial",-15.94786,167.18226,3840,wing,win,win,,nɛ-ɣpɛ-n,,,0
48741345109,"Najit: Tanmial",-15.94786,167.18226,3850,feather,feta,feta,,..,,,0
48741365109,"Nese: Tanmial",-15.9305,167.17653,3120,dog,dog,dog,,ni-viri,,,0
48741365109,"Nese: Tanmial",-15.9305,167.17653,3210,bird,pijin,pijin,,na-nanɣo,,,0
48741365109,"Nese: Tanmial",-15.9305,167.17653,3240,fish,fis,fis,,na-nat͡s,,,0
48741365109,"Nese: Tanmial",-15.9305,167.17653,3410,snake,snek,snek,,na-mat,,,0
48741365109,"Nese: Tanmial",-15.9305,167.17653,3420,worm,wom,wom,,..,,,0
48741365109,"Nese: Tanmial",-15.9305,167.17653,3430,louse,laus,laus,,na-ɣut,,,0
48741365109,"Nese: Tanmial",-15.9305,167.17653,3450,rat,rat,rat,,na-ɣariɸ,,,0
48741365109,"Nese: Tanmial",-15.9305,167.17653,3490,spider,spida,spida,,ᵐbotlas,,,0
48741365109,"Nese: Tanmial",-15.9305,167.17653,3520,mosquito,moskito,moskito,,namɣɔ,,,0
48741365109,"Nese: Tanmial",-15.9305,167.17653,3810,egg,ek,ek,,nu-rul-ne,,,0
48741365109,"Nese: Tanmial",-15.9305,167.17653,3830,tail,tel,tel,,nɛ-vɛlɣau-ne,,,0
48741365109,"Nese: Tanmial",-15.9305,167.17653,3840,wing,win,win,,na-ɣuᵐbɛ-n,,,0
48741365109,"Nese: Tanmial",-15.9305,167.17653,3850,feather,feta,feta,,nɛvulon,,,0
48741367209,"Nese: Sanboise",-15.91461,167.17833,3120,dog,dog,dog,,ni-viɾi,,,0
48741367209,"Nese: Sanboise",-15.91461,167.17833,3210,bird,pijin,pijin,,na-nanɣɔ,,,0
48741367209,"Nese: Sanboise",-15.91461,167.17833,3240,fish,fis,fis,,na-naʧ,,,0
48741367209,"Nese: Sanboise",-15.91461,167.17833,3410,snake,snek,snek,,na-mat,,,0
48741367209,"Nese: Sanboise",-15.91461,167.17833,3420,worm,wom,wom,,..,,,0
48741367209,"Nese: Sanboise",-15.91461,167.17833,3430,louse,laus,laus,,na-ɣudt,,,0
48741367209,"Nese: Sanboise",-15.91461,167.17833,3430,louse,laus,laus,,no-ut,,,0
48741367209,"Nese: Sanboise",-15.91461,167.17833,3450,rat,rat,rat,,na-xarið̼,,,0
48741367209,"Nese: Sanboise",-15.91461,167.17833,3490,spider,spida,spida,,..,,,0
48741367209,"Nese: Sanboise",-15.91461,167.17833,3520,mosquito,moskito,moskito,,na-mɣɔ,,,0
48741367209,"Nese: Sanboise",-15.91461,167.17833,3810,egg,ek,ek,,"nu-rul  na-to",,,0
48741367209,"Nese: Sanboise",-15.91461,167.17833,3830,tail,tel,tel,,..,,,0
48741367209,"Nese: Sanboise",-15.91461,167.17833,3840,wing,win,win,,naɣuᵐbɛn,,,0
48741367209,"Nese: Sanboise",-15.91461,167.17833,3850,feather,feta,feta,,..,,,0
48741556509,"Vao: Beetehul",-15.89728,167.30443,3120,dog,dog,dog,,viɾi,,,0
48741556509,"Vao: Beetehul",-15.89728,167.30443,3210,bird,pijin,pijin,,..,,,0
48741556509,"Vao: Beetehul",-15.89728,167.30443,3240,fish,fis,fis,,na-n̼as,,,0
48741556509,"Vao: Beetehul",-15.89728,167.30443,3410,snake,snek,snek,,na-mat,,,0
48741556509,"Vao: Beetehul",-15.89728,167.30443,3420,worm,wom,wom,,poloslas,,,0
48741556509,"Vao: Beetehul",-15.89728,167.30443,3430,louse,laus,laus,,na-ɣut,,,0
48741556509,"Vao: Beetehul",-15.89728,167.30443,3450,rat,rat,rat,,ɣarið̼̼,,,0
48741556509,"Vao: Beetehul",-15.89728,167.30443,3490,spider,spida,spida,,na-ᵐbar,,,0
48741556509,"Vao: Beetehul",-15.89728,167.30443,3520,mosquito,moskito,moskito,,na-muɣɛ,,,0
48741556509,"Vao: Beetehul",-15.89728,167.30443,3810,egg,ek,ek,,tooli-nɛ,,,0
48741556509,"Vao: Beetehul",-15.89728,167.30443,3830,tail,tel,tel,,woturaa-n,,,0
48741556509,"Vao: Beetehul",-15.89728,167.30443,3840,wing,win,win,,ɣaᵐbɛ-n,,,0
48741556509,"Vao: Beetehul",-15.89728,167.30443,3850,feather,feta,feta,,wulu-nɛ,,,0
48741557509,"Vao: Canada",-15.89978,167.30731,3120,dog,dog,dog,,viɣi,,,0
48741557509,"Vao: Canada",-15.89978,167.30731,3210,bird,pijin,pijin,,na-n̼an,,,0
48741557509,"Vao: Canada",-15.89978,167.30731,3240,fish,fis,fis,,na-n̼as,,,0
48741557509,"Vao: Canada",-15.89978,167.30731,3410,snake,snek,snek,,na-mat,,,0
48741557509,"Vao: Canada",-15.89978,167.30731,3420,worm,wom,wom,,taᵐbaraxas,,,0
48741557509,"Vao: Canada",-15.89978,167.30731,3430,louse,laus,laus,,..,,,0
48741557509,"Vao: Canada",-15.89978,167.30731,3450,rat,rat,rat,,xarið̼,,,0
48741557509,"Vao: Canada",-15.89978,167.30731,3490,spider,spida,spida,,na-ᵐbar,,,0
48741557509,"Vao: Canada",-15.89978,167.30731,3520,mosquito,moskito,moskito,,na-muɣe,,,0
48741557509,"Vao: Canada",-15.89978,167.30731,3810,egg,ek,ek,,tool,,,0
48741557509,"Vao: Canada",-15.89978,167.30731,3830,tail,tel,tel,,vilaɣao-nɛ,,,0
48741557509,"Vao: Canada",-15.89978,167.30731,3840,wing,win,win,,ɣaᵐbɛ-n,,,0
48741557509,"Vao: Canada",-15.89978,167.30731,3850,feather,feta,feta,,vulu-ne,,,0
48741557609,"Vao: Peteri",-15.89887,167.3051,3120,dog,dog,dog,,viri,,,0
48741557609,"Vao: Peteri",-15.89887,167.3051,3210,bird,pijin,pijin,,na-n̼an,,,0
48741557609,"Vao: Peteri",-15.89887,167.3051,3240,fish,fis,fis,,na-n̼as,,,0
48741557609,"Vao: Peteri",-15.89887,167.3051,3410,snake,snek,snek,,na-mat,,,0
48741557609,"Vao: Peteri",-15.89887,167.3051,3420,worm,wom,wom,,taᵐbragas,,,0
48741557609,"Vao: Peteri",-15.89887,167.3051,3430,louse,laus,laus,,na-ɣut,,,0
48741557609,"Vao: Peteri",-15.89887,167.3051,3450,rat,rat,rat,,arið̼̼,,,0
48741557609,"Vao: Peteri",-15.89887,167.3051,3490,spider,spida,spida,,na-ᵐbaɾa,,,0
48741557609,"Vao: Peteri",-15.89887,167.3051,3520,mosquito,moskito,moskito,,na-muɣe,,,0
48741557609,"Vao: Peteri",-15.89887,167.3051,3810,egg,ek,ek,,toli-ne,,,0
48741557609,"Vao: Peteri",-15.89887,167.3051,3830,tail,tel,tel,,vilaɣau-ne,,,0
48741557609,"Vao: Peteri",-15.89887,167.3051,3840,wing,win,win,,xanvɪ-n,,,0
48741557609,"Vao: Peteri",-15.89887,167.3051,3850,feather,feta,feta,,hulu-ne,,,0
48741557709,"Vao: Torono",-15.89986,167.30819,3120,dog,dog,dog,,viri,,,0
48741557709,"Vao: Torono",-15.89986,167.30819,3210,bird,pijin,pijin,,na-n̼an,,,0
48741557709,"Vao: Torono",-15.89986,167.30819,3240,fish,fis,fis,,na-n̼as,,,0
48741557709,"Vao: Torono",-15.89986,167.30819,3410,snake,snek,snek,,na-mat,,,0
48741557709,"Vao: Torono",-15.89986,167.30819,3420,worm,wom,wom,,taᵐbragas,,,0
48741557709,"Vao: Torono",-15.89986,167.30819,3430,louse,laus,laus,,na-ɣut,,,0
48741557709,"Vao: Torono",-15.89986,167.30819,3450,rat,rat,rat,,xarið̼̼,,,0
48741557709,"Vao: Torono",-15.89986,167.30819,3490,spider,spida,spida,,na-ᵐbar,,,0
48741557709,"Vao: Torono",-15.89986,167.30819,3520,mosquito,moskito,moskito,,na-muɣe,,,0
48741557709,"Vao: Torono",-15.89986,167.30819,3810,egg,ek,ek,,tooli-ne,,,0
48741557709,"Vao: Torono",-15.89986,167.30819,3830,tail,tel,tel,,vilaɣau-nɛ,,,0
48741557709,"Vao: Torono",-15.89986,167.30819,3840,wing,win,win,,ɣaᵐbɪ-n,,,0
48741557709,"Vao: Torono",-15.89986,167.30819,3850,feather,feta,feta,,vulu-ne,,,0
48741733509,"Tirax: Botmelesnial",-16.0583,167.369,3120,dog,dog,dog,,liⁿdax,,,0
48741733509,"Tirax: Botmelesnial",-16.0583,167.369,3210,bird,pijin,pijin,,..,,,0
48741733509,"Tirax: Botmelesnial",-16.0583,167.369,3240,fish,fis,fis,,nas,,,0
48741733509,"Tirax: Botmelesnial",-16.0583,167.369,3410,snake,snek,snek,,nə-mat,,,0
48741733509,"Tirax: Botmelesnial",-16.0583,167.369,3420,worm,wom,wom,,vɪlɛslɛs,,,0
48741733509,"Tirax: Botmelesnial",-16.0583,167.369,3430,louse,laus,laus,,na-ɣut,,,0
48741733509,"Tirax: Botmelesnial",-16.0583,167.369,3450,rat,rat,rat,,na-ɣariv,,,0
48741733509,"Tirax: Botmelesnial",-16.0583,167.369,3490,spider,spida,spida,,ne-la,,,0
48741733509,"Tirax: Botmelesnial",-16.0583,167.369,3520,mosquito,moskito,moskito,,na-mux,,,0
48741733509,"Tirax: Botmelesnial",-16.0583,167.369,3810,egg,ek,ek,,ⁿdʳul-na-n,,,0
48741733509,"Tirax: Botmelesnial",-16.0583,167.369,3830,tail,tel,tel,,balaɣa-n,,,0
48741733509,"Tirax: Botmelesnial",-16.0583,167.369,3840,wing,win,win,,..,,,0
48741733509,"Tirax: Botmelesnial",-16.0583,167.369,3850,feather,feta,feta,,fəle-na-n,,,0
48741733609,"Tirax: Mae",-16.05839,167.36953,3120,dog,dog,dog,,liⁿdax,,,0
48741733609,"Tirax: Mae",-16.05839,167.36953,3210,bird,pijin,pijin,,na-nix,,,0
48741733609,"Tirax: Mae",-16.05839,167.36953,3240,fish,fis,fis,,nas,,,0
48741733609,"Tirax: Mae",-16.05839,167.36953,3410,snake,snek,snek,,nə-mat,,,0
48741733609,"Tirax: Mae",-16.05839,167.36953,3420,worm,wom,wom,,vɪlɛslɛs,,,0
48741733609,"Tirax: Mae",-16.05839,167.36953,3430,louse,laus,laus,,na-ɣut,,,0
48741733609,"Tirax: Mae",-16.05839,167.36953,3450,rat,rat,rat,,"na-ɣariv ⁿdɪknali",,,0
48741733609,"Tirax: Mae",-16.05839,167.36953,3490,spider,spida,spida,,ne-la,,,0
48741733609,"Tirax: Mae",-16.05839,167.36953,3520,mosquito,moskito,moskito,,na-mux,,,0
48741733609,"Tirax: Mae",-16.05839,167.36953,3810,egg,ek,ek,,ⁿdʳul,,,0
48741733609,"Tirax: Mae",-16.05839,167.36953,3830,tail,tel,tel,,balɣa-,,,0
48741733609,"Tirax: Mae",-16.05839,167.36953,3840,wing,win,win,,naɣaⁿde,,,0
48741733609,"Tirax: Mae",-16.05839,167.36953,3850,feather,feta,feta,,fəle,,,0
48741735809,"Tirax: Bethel",-16.03923,167.40186,3120,dog,dog,dog,,liⁿdax,,,0
48741735809,"Tirax: Bethel",-16.03923,167.40186,3210,bird,pijin,pijin,,na-nix,,,0
48741735809,"Tirax: Bethel",-16.03923,167.40186,3240,fish,fis,fis,,nas,,,0
48741735809,"Tirax: Bethel",-16.03923,167.40186,3410,snake,snek,snek,,nə-mat,,,0
48741735809,"Tirax: Bethel",-16.03923,167.40186,3420,worm,wom,wom,,..,,,0
48741735809,"Tirax: Bethel",-16.03923,167.40186,3430,louse,laus,laus,,na-ɣut,,,0
48741735809,"Tirax: Bethel",-16.03923,167.40186,3450,rat,rat,rat,,na-ɣariv,,,0
48741735809,"Tirax: Bethel",-16.03923,167.40186,3490,spider,spida,spida,,ne-la,,,0
48741735809,"Tirax: Bethel",-16.03923,167.40186,3520,mosquito,moskito,moskito,,na-mux,,,0
48741735809,"Tirax: Bethel",-16.03923,167.40186,3810,egg,ek,ek,,ⁿdʳul,,,0
48741735809,"Tirax: Bethel",-16.03923,167.40186,3830,tail,tel,tel,,ᵐbalɣa-,,,0
48741735809,"Tirax: Bethel",-16.03923,167.40186,3840,wing,win,win,,naɣaⁿde,,,0
48741735809,"Tirax: Bethel",-16.03923,167.40186,3840,wing,win,win,,"naɣaⁿde na-nix",,,0
48741735809,"Tirax: Bethel",-16.03923,167.40186,3850,feather,feta,feta,,fəle,,,0
48741735809,"Tirax: Bethel",-16.03923,167.40186,3850,feather,feta,feta,,"fəle na-nix",,,0
48741736409,"Tirax: Olamb",-15.98701,167.26154,3120,dog,dog,dog,,liⁿdax,,,0
48741736409,"Tirax: Olamb",-15.98701,167.26154,3210,bird,pijin,pijin,,na-niəx,,,0
48741736409,"Tirax: Olamb",-15.98701,167.26154,3240,fish,fis,fis,,nas,,,0
48741736409,"Tirax: Olamb",-15.98701,167.26154,3410,snake,snek,snek,,nə-mat,,,0
48741736409,"Tirax: Olamb",-15.98701,167.26154,3420,worm,wom,wom,,vɪlɛslɛs,,,0
48741736409,"Tirax: Olamb",-15.98701,167.26154,3430,louse,laus,laus,,nɛ-ɣot-na-n,,,0
48741736409,"Tirax: Olamb",-15.98701,167.26154,3450,rat,rat,rat,,na-xarip,,,0
48741736409,"Tirax: Olamb",-15.98701,167.26154,3490,spider,spida,spida,,ne-la,,,0
48741736409,"Tirax: Olamb",-15.98701,167.26154,3520,mosquito,moskito,moskito,,na-mux,,,0
48741736409,"Tirax: Olamb",-15.98701,167.26154,3810,egg,ek,ek,,ⁿdʳul-na-n,,,0
48741736409,"Tirax: Olamb",-15.98701,167.26154,3830,tail,tel,tel,,balɣa-na-n,,,0
48741736409,"Tirax: Olamb",-15.98701,167.26154,3840,wing,win,win,,..,,,0
48741736409,"Tirax: Olamb",-15.98701,167.26154,3850,feather,feta,feta,,vəle-na-n,,,0
48741736509,"Tirax: Bakru",-16.00354,167.29696,3120,dog,dog,dog,,liⁿdax,,,0
48741736509,"Tirax: Bakru",-16.00354,167.29696,3210,bird,pijin,pijin,,na-nix,,,0
48741736509,"Tirax: Bakru",-16.00354,167.29696,3240,fish,fis,fis,,nas,,,0
48741736509,"Tirax: Bakru",-16.00354,167.29696,3410,snake,snek,snek,,nə-mat,,,0
48741736509,"Tirax: Bakru",-16.00354,167.29696,3420,worm,wom,wom,,vɪlɛslɛs,,,0
48741736509,"Tirax: Bakru",-16.00354,167.29696,3430,louse,laus,laus,,na-ɣut,,,0
48741736509,"Tirax: Bakru",-16.00354,167.29696,3450,rat,rat,rat,,na-xarip,,,0
48741736509,"Tirax: Bakru",-16.00354,167.29696,3490,spider,spida,spida,,ne-la,,,0
48741736509,"Tirax: Bakru",-16.00354,167.29696,3520,mosquito,moskito,moskito,,na-mux,,,0
48741736509,"Tirax: Bakru",-16.00354,167.29696,3810,egg,ek,ek,,ⁿdʳuli-na,,,0
48741736509,"Tirax: Bakru",-16.00354,167.29696,3830,tail,tel,tel,,balɣa-na,,,0
48741736509,"Tirax: Bakru",-16.00354,167.29696,3840,wing,win,win,,naɣaⁿde,,,0
48741736509,"Tirax: Bakru",-16.00354,167.29696,3850,feather,feta,feta,,fəle-na,,,0
48741737809,"Tirax: Orap",-15.97,167.34464,3120,dog,dog,dog,,liⁿdax,,,0
48741737809,"Tirax: Orap",-15.97,167.34464,3210,bird,pijin,pijin,,na-nix,,,0
48741737809,"Tirax: Orap",-15.97,167.34464,3240,fish,fis,fis,,nas,,,0
48741737809,"Tirax: Orap",-15.97,167.34464,3410,snake,snek,snek,,n-mat,,,0
48741737809,"Tirax: Orap",-15.97,167.34464,3420,worm,wom,wom,,..,,,0
48741737809,"Tirax: Orap",-15.97,167.34464,3430,louse,laus,laus,,na-hʊt,,,0
48741737809,"Tirax: Orap",-15.97,167.34464,3450,rat,rat,rat,,xariv,,,0
48741737809,"Tirax: Orap",-15.97,167.34464,3450,rat,rat,rat,,"xariv ⁿdɪknali",,,0
48741737809,"Tirax: Orap",-15.97,167.34464,3490,spider,spida,spida,,..,,,0
48741737809,"Tirax: Orap",-15.97,167.34464,3520,mosquito,moskito,moskito,,na-mux,,,0
48741737809,"Tirax: Orap",-15.97,167.34464,3810,egg,ek,ek,,ⁿdʳul-na,,,0
48741737809,"Tirax: Orap",-15.97,167.34464,3830,tail,tel,tel,,ᵐbalɣa-na,,,0
48741737809,"Tirax: Orap",-15.97,167.34464,3840,wing,win,win,,naɣaⁿde-na,,,0
48741737809,"Tirax: Orap",-15.97,167.34464,3850,feather,feta,feta,,vɪlɛ-na,,,0
48741752709,"Atchin: Orap",-15.9156,167.30641,3120,dog,dog,dog,,tamai,,,0
48741752709,"Atchin: Orap",-15.9156,167.30641,3210,bird,pijin,pijin,,ni-man,,,0
48741752709,"Atchin: Orap",-15.9156,167.30641,3240,fish,fis,fis,,masal,,,0
48741752709,"Atchin: Orap",-15.9156,167.30641,3410,snake,snek,snek,,ni-mʷɛt,,,0
48741752709,"Atchin: Orap",-15.9156,167.30641,3420,worm,wom,wom,,toto,,,0
48741752709,"Atchin: Orap",-15.9156,167.30641,3430,louse,laus,laus,,na-ut,,,0
48741752709,"Atchin: Orap",-15.9156,167.30641,3450,rat,rat,rat,,ha-riv,,,0
48741752709,"Atchin: Orap",-15.9156,167.30641,3450,rat,rat,rat,,"ha-riv pɪrɛŋesis",,,0
48741752709,"Atchin: Orap",-15.9156,167.30641,3490,spider,spida,spida,,ni-ᵐbʷɛr,,,0
48741752709,"Atchin: Orap",-15.9156,167.30641,3520,mosquito,moskito,moskito,,ni-nam,,,0
48741752709,"Atchin: Orap",-15.9156,167.30641,3810,egg,ek,ek,,rulu-n,,,0
48741752709,"Atchin: Orap",-15.9156,167.30641,3830,tail,tel,tel,,wolou-n,,,0
48741752709,"Atchin: Orap",-15.9156,167.30641,3840,wing,win,win,,na-ᵐbɛ-n,,,0
48741752709,"Atchin: Orap",-15.9156,167.30641,3850,feather,feta,feta,,mowɛ-n,,,0
48741752809,"Atchin: Small Island",-15.9439,167.33993,3120,dog,dog,dog,,tamai,,,0
48741752809,"Atchin: Small Island",-15.9439,167.33993,3210,bird,pijin,pijin,,ni-man,,,0
48741752809,"Atchin: Small Island",-15.9439,167.33993,3240,fish,fis,fis,,masal,,,0
48741752809,"Atchin: Small Island",-15.9439,167.33993,3410,snake,snek,snek,,ni-mʷɛt,,,0
48741752809,"Atchin: Small Island",-15.9439,167.33993,3420,worm,wom,wom,,toto,,,0
48741752809,"Atchin: Small Island",-15.9439,167.33993,3430,louse,laus,laus,,na-ut,,,0
48741752809,"Atchin: Small Island",-15.9439,167.33993,3450,rat,rat,rat,,na-riβ,,,0
48741752809,"Atchin: Small Island",-15.9439,167.33993,3450,rat,rat,rat,,"na-riβ pɪrɛŋesis",,,0
48741752809,"Atchin: Small Island",-15.9439,167.33993,3490,spider,spida,spida,,no-laɸ,,,0
48741752809,"Atchin: Small Island",-15.9439,167.33993,3520,mosquito,moskito,moskito,,nam,,,0
48741752809,"Atchin: Small Island",-15.9439,167.33993,3810,egg,ek,ek,,rulʊ-n,,,0
48741752809,"Atchin: Small Island",-15.9439,167.33993,3830,tail,tel,tel,,wolwolo-in,,,0
48741752809,"Atchin: Small Island",-15.9439,167.33993,3840,wing,win,win,,na-ᵐbɛ-n,,,0
48741752809,"Atchin: Small Island",-15.9439,167.33993,3850,feather,feta,feta,,mowɛ-n,,,0
48741754509,"Wala: Botku",-15.96841,167.29246,3120,dog,dog,dog,,ᵑgəli,,,0
48741754509,"Wala: Botku",-15.96841,167.29246,3210,bird,pijin,pijin,,nɪ-mɪn,,,0
48741754509,"Wala: Botku",-15.96841,167.29246,3240,fish,fis,fis,,na-msal,,,0
48741754509,"Wala: Botku",-15.96841,167.29246,3410,snake,snek,snek,,nɪ-mɛt,,,0
48741754509,"Wala: Botku",-15.96841,167.29246,3420,worm,wom,wom,,ⁿdoto,,,0
48741754509,"Wala: Botku",-15.96841,167.29246,3430,louse,laus,laus,,na-ut,,,0
48741754509,"Wala: Botku",-15.96841,167.29246,3450,rat,rat,rat,,na-riɸ,,,0
48741754509,"Wala: Botku",-15.96841,167.29246,3490,spider,spida,spida,,ne-la,,,0
48741754509,"Wala: Botku",-15.96841,167.29246,3520,mosquito,moskito,moskito,,nʊm,,,0
48741754509,"Wala: Botku",-15.96841,167.29246,3810,egg,ek,ek,,rulu-n,,,0
48741754509,"Wala: Botku",-15.96841,167.29246,3830,tail,tel,tel,,no-volovolai-k,,,0
48741754509,"Wala: Botku",-15.96841,167.29246,3840,wing,win,win,,naᵐbɛ-n,,,0
48741754509,"Wala: Botku",-15.96841,167.29246,3850,feather,feta,feta,,mowɛ-n,,,0
48741754709,"Wala: Worprev",-15.97775,167.37656,3120,dog,dog,dog,,ni-kiliu,,,0
48741754709,"Wala: Worprev",-15.97775,167.37656,3210,bird,pijin,pijin,,nɪ-mæn,,,0
48741754709,"Wala: Worprev",-15.97775,167.37656,3240,fish,fis,fis,,nɪ-mɪsal,,,0
48741754709,"Wala: Worprev",-15.97775,167.37656,3410,snake,snek,snek,,nɪ-mʷat,,,0
48741754709,"Wala: Worprev",-15.97775,167.37656,3420,worm,wom,wom,,nɪ-ᵐbuᵐbarao,,,0
48741754709,"Wala: Worprev",-15.97775,167.37656,3430,louse,laus,laus,,no-xut,,,0
48741754709,"Wala: Worprev",-15.97775,167.37656,3450,rat,rat,rat,,na-ɣasu,,,0
48741754709,"Wala: Worprev",-15.97775,167.37656,3450,rat,rat,rat,,"na-riv rapɪt",,,0
48741754709,"Wala: Worprev",-15.97775,167.37656,3490,spider,spida,spida,,nɪ-ŋuŋao,,,0
48741754709,"Wala: Worprev",-15.97775,167.37656,3520,mosquito,moskito,moskito,,nɪ-teoɣas,,,0
48741754709,"Wala: Worprev",-15.97775,167.37656,3810,egg,ek,ek,,nɪ-maⁿdɛlʊ-n,,,0
48741754709,"Wala: Worprev",-15.97775,167.37656,3830,tail,tel,tel,,ni-ᵐʙusi-n,,,0
48741754709,"Wala: Worprev",-15.97775,167.37656,3840,wing,win,win,,na-xaᵐbæ-n,,,0
48741754709,"Wala: Worprev",-15.97775,167.37656,3850,feather,feta,feta,,nɪ-vulɛ-n,,,0
48741754809,"Wala: Petreros",-15.97544,167.37627,3120,dog,dog,dog,,ᵑgili,,,0
48741754809,"Wala: Petreros",-15.97544,167.37627,3210,bird,pijin,pijin,,nɪ-mɪn,,,0
48741754809,"Wala: Petreros",-15.97544,167.37627,3240,fish,fis,fis,,na-msal,,,0
48741754809,"Wala: Petreros",-15.97544,167.37627,3410,snake,snek,snek,,nɪ-mʷɛt,,,0
48741754809,"Wala: Petreros",-15.97544,167.37627,3420,worm,wom,wom,,ⁿdotu,,,0
48741754809,"Wala: Petreros",-15.97544,167.37627,3430,louse,laus,laus,,na-ot,,,0
48741754809,"Wala: Petreros",-15.97544,167.37627,3450,rat,rat,rat,,na-ariv,,,0
48741754809,"Wala: Petreros",-15.97544,167.37627,3490,spider,spida,spida,,ne-la,,,0
48741754809,"Wala: Petreros",-15.97544,167.37627,3520,mosquito,moskito,moskito,,nom,,,0
48741754809,"Wala: Petreros",-15.97544,167.37627,3810,egg,ek,ek,,rulu-n,,,0
48741754809,"Wala: Petreros",-15.97544,167.37627,3830,tail,tel,tel,,no-rororaɛ-n,,,0
48741754809,"Wala: Petreros",-15.97544,167.37627,3840,wing,win,win,,na-aᵐbɛ-n,,,0
48741754809,"Wala: Petreros",-15.97544,167.37627,3850,feather,feta,feta,,mowɛ-n,,,0
48741754909,"Wala: Preng",-15.97342,167.37627,3120,dog,dog,dog,,ᵑgəli,,,0
48741754909,"Wala: Preng",-15.97342,167.37627,3210,bird,pijin,pijin,,nɪ-mɛn,,,0
48741754909,"Wala: Preng",-15.97342,167.37627,3240,fish,fis,fis,,na-msal,,,0
48741754909,"Wala: Preng",-15.97342,167.37627,3410,snake,snek,snek,,nɘ-mʷɛt,,,0
48741754909,"Wala: Preng",-15.97342,167.37627,3420,worm,wom,wom,,ⁿdoto,,,0
48741754909,"Wala: Preng",-15.97342,167.37627,3430,louse,laus,laus,,na-ut,,,0
48741754909,"Wala: Preng",-15.97342,167.37627,3450,rat,rat,rat,,na-riɸ,,,0
48741754909,"Wala: Preng",-15.97342,167.37627,3490,spider,spida,spida,,ne-la,,,0
48741754909,"Wala: Preng",-15.97342,167.37627,3520,mosquito,moskito,moskito,,nom,,,0
48741754909,"Wala: Preng",-15.97342,167.37627,3810,egg,ek,ek,,rulu-n,,,0
48741754909,"Wala: Preng",-15.97342,167.37627,3830,tail,tel,tel,,no-lovolɛ-n,,,0
48741754909,"Wala: Preng",-15.97342,167.37627,3840,wing,win,win,,na-ᵐbɛ-n,,,0
48741754909,"Wala: Preng",-15.97342,167.37627,3850,feather,feta,feta,,mowɛ-n,,,0
48741756709,"Rano: Twalung",-15.98389,167.38444,3120,dog,dog,dog,,ᵑgli,,,0
48741756709,"Rano: Twalung",-15.98389,167.38444,3210,bird,pijin,pijin,,nɪ-mɪn,,,0
48741756709,"Rano: Twalung",-15.98389,167.38444,3240,fish,fis,fis,,na-msal,,,0
48741756709,"Rano: Twalung",-15.98389,167.38444,3410,snake,snek,snek,,nɪ-mɛt,,,0
48741756709,"Rano: Twalung",-15.98389,167.38444,3420,worm,wom,wom,,ⁿdoto,,,0
48741756709,"Rano: Twalung",-15.98389,167.38444,3430,louse,laus,laus,,na-ut,,,0
48741756709,"Rano: Twalung",-15.98389,167.38444,3450,rat,rat,rat,,na-riβ,,,0
48741756709,"Rano: Twalung",-15.98389,167.38444,3490,spider,spida,spida,,ne-la,,,0
48741756709,"Rano: Twalung",-15.98389,167.38444,3520,mosquito,moskito,moskito,,nʊm,,,0
48741756709,"Rano: Twalung",-15.98389,167.38444,3810,egg,ek,ek,,rlu-n,,,0
48741756709,"Rano: Twalung",-15.98389,167.38444,3830,tail,tel,tel,,no-βoloβolɛ-n,,,0
48741756709,"Rano: Twalung",-15.98389,167.38444,3840,wing,win,win,,na-ᵐbɛ-n,,,0
48741756709,"Rano: Twalung",-15.98389,167.38444,3850,feather,feta,feta,,mowɛ-n,,,0
48741756809,"Rano: Potora",-15.98472,167.3866,3120,dog,dog,dog,,ᵑgəli,,,0
48741756809,"Rano: Potora",-15.98472,167.3866,3210,bird,pijin,pijin,,nɪ-mɪn,,,0
48741756809,"Rano: Potora",-15.98472,167.3866,3240,fish,fis,fis,,na-msal,,,0
48741756809,"Rano: Potora",-15.98472,167.3866,3410,snake,snek,snek,,nɪ-mʷɛt,,,0
48741756809,"Rano: Potora",-15.98472,167.3866,3420,worm,wom,wom,,ⁿdoto,,,0
48741756809,"Rano: Potora",-15.98472,167.3866,3430,louse,laus,laus,,na-ut,,,0
48741756809,"Rano: Potora",-15.98472,167.3866,3450,rat,rat,rat,,na-riβ,,,0
48741756809,"Rano: Potora",-15.98472,167.3866,3490,spider,spida,spida,,nela,,,0
48741756809,"Rano: Potora",-15.98472,167.3866,3520,mosquito,moskito,moskito,,num,,,0
48741756809,"Rano: Potora",-15.98472,167.3866,3810,egg,ek,ek,,rulu-n,,,0
48741756809,"Rano: Potora",-15.98472,167.3866,3830,tail,tel,tel,,no-lolɛ-n,,,0
48741756809,"Rano: Potora",-15.98472,167.3866,3840,wing,win,win,,na-ᵐbɛ-n,,,0
48741756809,"Rano: Potora",-15.98472,167.3866,3850,feather,feta,feta,,mowɛn,,,0
48741756909,"Rano: Chinambong",-15.99049,167.39063,3120,dog,dog,dog,,ᵑgəli,,,0
48741756909,"Rano: Chinambong",-15.99049,167.39063,3210,bird,pijin,pijin,,nɪ-mɪn,,,0
48741756909,"Rano: Chinambong",-15.99049,167.39063,3240,fish,fis,fis,,na-msal,,,0
48741756909,"Rano: Chinambong",-15.99049,167.39063,3410,snake,snek,snek,,nə-mʷɛt,,,0
48741756909,"Rano: Chinambong",-15.99049,167.39063,3420,worm,wom,wom,,ⁿdoto,,,0
48741756909,"Rano: Chinambong",-15.99049,167.39063,3430,louse,laus,laus,,na-ut,,,0
48741756909,"Rano: Chinambong",-15.99049,167.39063,3450,rat,rat,rat,,na-rive,,,0
48741756909,"Rano: Chinambong",-15.99049,167.39063,3490,spider,spida,spida,,ne-la,,,0
48741756909,"Rano: Chinambong",-15.99049,167.39063,3520,mosquito,moskito,moskito,,nom,,,0
48741756909,"Rano: Chinambong",-15.99049,167.39063,3810,egg,ek,ek,,rulu-n,,,0
48741756909,"Rano: Chinambong",-15.99049,167.39063,3830,tail,tel,tel,,no-lolaɛ-n,,,0
48741756909,"Rano: Chinambong",-15.99049,167.39063,3840,wing,win,win,,na-ᵐbɛ-n,,,0
48741756909,"Rano: Chinambong",-15.99049,167.39063,3850,feather,feta,feta,,mowɛ-n,,,0
48741757609,"Uripiv: Tautu Village",-16.06661,167.3975,3120,dog,dog,dog,,ᵑguli,,,0
48741757609,"Uripiv: Tautu Village",-16.06661,167.3975,3210,bird,pijin,pijin,,nu-men,,,0
48741757609,"Uripiv: Tautu Village",-16.06661,167.3975,3240,fish,fis,fis,,na-msal,,,0
48741757609,"Uripiv: Tautu Village",-16.06661,167.3975,3410,snake,snek,snek,,nu-mɛt,,,0
48741757609,"Uripiv: Tautu Village",-16.06661,167.3975,3420,worm,wom,wom,,ⁿdoto,,,0
48741757609,"Uripiv: Tautu Village",-16.06661,167.3975,3430,louse,laus,laus,,na-ot,,,0
48741757609,"Uripiv: Tautu Village",-16.06661,167.3975,3450,rat,rat,rat,,na-riu,,,0
48741757609,"Uripiv: Tautu Village",-16.06661,167.3975,3490,spider,spida,spida,,ne-la,,,0
48741757609,"Uripiv: Tautu Village",-16.06661,167.3975,3520,mosquito,moskito,moskito,,nom,,,0
48741757609,"Uripiv: Tautu Village",-16.06661,167.3975,3810,egg,ek,ek,,na-arlʊ-n,,,0
48741757609,"Uripiv: Tautu Village",-16.06661,167.3975,3830,tail,tel,tel,,no-lolai-n,,,0
48741757609,"Uripiv: Tautu Village",-16.06661,167.3975,3840,wing,win,win,,naᵐbɛ-n,,,0
48741757609,"Uripiv: Tautu Village",-16.06661,167.3975,3850,feather,feta,feta,,monɛ-n,,,0
48741758709,"Uripiv: Tautu",-16.06778,167.40111,3120,dog,dog,dog,,ᵑguli,,,0
48741758709,"Uripiv: Tautu",-16.06778,167.40111,3210,bird,pijin,pijin,,nu-mɛn,,,0
48741758709,"Uripiv: Tautu",-16.06778,167.40111,3240,fish,fis,fis,,na-msal,,,0
48741758709,"Uripiv: Tautu",-16.06778,167.40111,3410,snake,snek,snek,,nu-mɛt,,,0
48741758709,"Uripiv: Tautu",-16.06778,167.40111,3420,worm,wom,wom,,ⁿdoto,,,0
48741758709,"Uripiv: Tautu",-16.06778,167.40111,3430,louse,laus,laus,,na-ut,,,0
48741758709,"Uripiv: Tautu",-16.06778,167.40111,3450,rat,rat,rat,,na-riu,,,0
48741758709,"Uripiv: Tautu",-16.06778,167.40111,3490,spider,spida,spida,,ne-la,,,0
48741758709,"Uripiv: Tautu",-16.06778,167.40111,3520,mosquito,moskito,moskito,,nom,,,0
48741758709,"Uripiv: Tautu",-16.06778,167.40111,3810,egg,ek,ek,,na-arlu-n,,,0
48741758709,"Uripiv: Tautu",-16.06778,167.40111,3830,tail,tel,tel,,no-lolai-n,,,0
48741758709,"Uripiv: Tautu",-16.06778,167.40111,3840,wing,win,win,,naᵐbɛ-n,,,0
48741758709,"Uripiv: Tautu",-16.06778,167.40111,3850,feather,feta,feta,,mownɛ-n,,,0
48741758809,"Uripiv: Durpif",-16.07265,167.447,3120,dog,dog,dog,,ᵑguli,,,0
48741758809,"Uripiv: Durpif",-16.07265,167.447,3210,bird,pijin,pijin,,nu-mɔn,,,0
48741758809,"Uripiv: Durpif",-16.07265,167.447,3240,fish,fis,fis,,nai,,,0
48741758809,"Uripiv: Durpif",-16.07265,167.447,3410,snake,snek,snek,,nu-mʷɛt,,,0
48741758809,"Uripiv: Durpif",-16.07265,167.447,3420,worm,wom,wom,,ⁿdoto,,,0
48741758809,"Uripiv: Durpif",-16.07265,167.447,3430,louse,laus,laus,,na-ut,,,0
48741758809,"Uripiv: Durpif",-16.07265,167.447,3450,rat,rat,rat,,na-riβ,,,0
48741758809,"Uripiv: Durpif",-16.07265,167.447,3490,spider,spida,spida,,ⁿdɛl,,,0
48741758809,"Uripiv: Durpif",-16.07265,167.447,3520,mosquito,moskito,moskito,,num,,,0
48741758809,"Uripiv: Durpif",-16.07265,167.447,3810,egg,ek,ek,,na-rlu-n,,,0
48741758809,"Uripiv: Durpif",-16.07265,167.447,3830,tail,tel,tel,,ne-ɾurɛ-n,,,0
48741758809,"Uripiv: Durpif",-16.07265,167.447,3840,wing,win,win,,naᵐbɪ-n,,,0
48741758809,"Uripiv: Durpif",-16.07265,167.447,3850,feather,feta,feta,,mowɛ-n,,,0
48741758909,"Uripiv: Potnambe",-16.07391,167.45203,3120,dog,dog,dog,,ᵑguli,,,0
48741758909,"Uripiv: Potnambe",-16.07391,167.45203,3210,bird,pijin,pijin,,no-mɔn,,,0
48741758909,"Uripiv: Potnambe",-16.07391,167.45203,3240,fish,fis,fis,,mesal,,,0
48741758909,"Uripiv: Potnambe",-16.07391,167.45203,3410,snake,snek,snek,,no-mʷɛt,,,0
48741758909,"Uripiv: Potnambe",-16.07391,167.45203,3420,worm,wom,wom,,..,,,0
48741758909,"Uripiv: Potnambe",-16.07391,167.45203,3430,louse,laus,laus,,na-ut,,,0
48741758909,"Uripiv: Potnambe",-16.07391,167.45203,3450,rat,rat,rat,,na-riv,,,0
48741758909,"Uripiv: Potnambe",-16.07391,167.45203,3490,spider,spida,spida,,ⁿdɛl,,,0
48741758909,"Uripiv: Potnambe",-16.07391,167.45203,3520,mosquito,moskito,moskito,,num,,,0
48741758909,"Uripiv: Potnambe",-16.07391,167.45203,3810,egg,ek,ek,,na-rlu-n,,,0
48741758909,"Uripiv: Potnambe",-16.07391,167.45203,3830,tail,tel,tel,,nɛ-rurɛ-n,,,0
48741758909,"Uripiv: Potnambe",-16.07391,167.45203,3840,wing,win,win,,naᵐbɪ-n,,,0
48741758909,"Uripiv: Potnambe",-16.07391,167.45203,3850,feather,feta,feta,,mowɛ-n,,,0
48741953109,"Wowo: Lesarmalas",-15.90733,167.17927,3120,dog,dog,dog,,ni-viɾi,,,0
48741953109,"Wowo: Lesarmalas",-15.90733,167.17927,3210,bird,pijin,pijin,,na-nanɣo,,,0
48741953109,"Wowo: Lesarmalas",-15.90733,167.17927,3240,fish,fis,fis,,na-nas,,,0
48741953109,"Wowo: Lesarmalas",-15.90733,167.17927,3410,snake,snek,snek,,na-mat,,,0
48741953109,"Wowo: Lesarmalas",-15.90733,167.17927,3420,worm,wom,wom,,nɪ-vɪlɪsɪlas,,,0
48741953109,"Wowo: Lesarmalas",-15.90733,167.17927,3430,louse,laus,laus,,na-ɣut,,,0
48741953109,"Wowo: Lesarmalas",-15.90733,167.17927,3450,rat,rat,rat,,na-ɾið,,,0
48741953109,"Wowo: Lesarmalas",-15.90733,167.17927,3490,spider,spida,spida,,ne-la,,,0
48741953109,"Wowo: Lesarmalas",-15.90733,167.17927,3520,mosquito,moskito,moskito,,na-mɣɔ,,,0
48741953109,"Wowo: Lesarmalas",-15.90733,167.17927,3810,egg,ek,ek,,no-rul-ne,,,0
48741953109,"Wowo: Lesarmalas",-15.90733,167.17927,3830,tail,tel,tel,,na-valau-ne,,,0
48741953109,"Wowo: Lesarmalas",-15.90733,167.17927,3840,wing,win,win,,na-laᵐbɛ-n,,,0
48741953109,"Wowo: Lesarmalas",-15.90733,167.17927,3850,feather,feta,feta,,ni-ðil-muan,,,0
48741954109,"Wowo: Wowo",-15.90224,167.18459,3120,dog,dog,dog,,ni-viɾi,,,0
48741954109,"Wowo: Wowo",-15.90224,167.18459,3210,bird,pijin,pijin,,na-nanɣo,,,0
48741954109,"Wowo: Wowo",-15.90224,167.18459,3240,fish,fis,fis,,na-nas,,,0
48741954109,"Wowo: Wowo",-15.90224,167.18459,3410,snake,snek,snek,,na-mat,,,0
48741954109,"Wowo: Wowo",-15.90224,167.18459,3420,worm,wom,wom,,ne-vɪlɪsɪlas,,,0
48741954109,"Wowo: Wowo",-15.90224,167.18459,3430,louse,laus,laus,,na-ɣut,,,0
48741954109,"Wowo: Wowo",-15.90224,167.18459,3450,rat,rat,rat,,na-rið,,,0
48741954109,"Wowo: Wowo",-15.90224,167.18459,3490,spider,spida,spida,,ne-la,,,0
48741954109,"Wowo: Wowo",-15.90224,167.18459,3520,mosquito,moskito,moskito,,na-mɣɔ,,,0
48741954109,"Wowo: Wowo",-15.90224,167.18459,3810,egg,ek,ek,,no-rul-nɛ,,,0
48741954109,"Wowo: Wowo",-15.90224,167.18459,3830,tail,tel,tel,,na-valau-ne,,,0
48741954109,"Wowo: Wowo",-15.90224,167.18459,3840,wing,win,win,,na-ⁿdɛ-n,,,0
48741954109,"Wowo: Wowo",-15.90224,167.18459,3850,feather,feta,feta,,ni-ðil-muan,,,0
48741956109,"Alavas: Wowo",-15.90293,167.18499,3120,dog,dog,dog,,ni-viɾi,,,0
48741956109,"Alavas: Wowo",-15.90293,167.18499,3210,bird,pijin,pijin,,na-nanɣɔ,,,0
48741956109,"Alavas: Wowo",-15.90293,167.18499,3240,fish,fis,fis,,na-nas,,,0
48741956109,"Alavas: Wowo",-15.90293,167.18499,3410,snake,snek,snek,,na-mat,,,0
48741956109,"Alavas: Wowo",-15.90293,167.18499,3420,worm,wom,wom,,nɪ-vɪlɪsɪlas,,,0
48741956109,"Alavas: Wowo",-15.90293,167.18499,3430,louse,laus,laus,,na-ɣut,,,0
48741956109,"Alavas: Wowo",-15.90293,167.18499,3450,rat,rat,rat,,na-rið,,,0
48741956109,"Alavas: Wowo",-15.90293,167.18499,3490,spider,spida,spida,,ne-la,,,0
48741956109,"Alavas: Wowo",-15.90293,167.18499,3520,mosquito,moskito,moskito,,na-mɣɔ,,,0
48741956109,"Alavas: Wowo",-15.90293,167.18499,3810,egg,ek,ek,,no-rul,,,0
48741956109,"Alavas: Wowo",-15.90293,167.18499,3810,egg,ek,ek,,"no-rul  a-to",,,0
48741956109,"Alavas: Wowo",-15.90293,167.18499,3830,tail,tel,tel,,na-valau-ne,,,0
48741956109,"Alavas: Wowo",-15.90293,167.18499,3840,wing,win,win,,na-ⁿdɛ-n,,,0
48741956109,"Alavas: Wowo",-15.90293,167.18499,3850,feather,feta,feta,,ni-ðil-muan,,,0
48741957109,"Alavas: Alavas",-15.89046,167.24151,3120,dog,dog,dog,,ni-viɾi,,,0
48741957109,"Alavas: Alavas",-15.89046,167.24151,3210,bird,pijin,pijin,,na-nanɣɔ,,,0
48741957109,"Alavas: Alavas",-15.89046,167.24151,3240,fish,fis,fis,,na-nas,,,0
48741957109,"Alavas: Alavas",-15.89046,167.24151,3410,snake,snek,snek,,..,,,0
48741957109,"Alavas: Alavas",-15.89046,167.24151,3420,worm,wom,wom,,..,,,0
48741957109,"Alavas: Alavas",-15.89046,167.24151,3430,louse,laus,laus,,na-ɣut,,,0
48741957109,"Alavas: Alavas",-15.89046,167.24151,3450,rat,rat,rat,,na-rið,,,0
48741957109,"Alavas: Alavas",-15.89046,167.24151,3490,spider,spida,spida,,ne-la,,,0
48741957109,"Alavas: Alavas",-15.89046,167.24151,3520,mosquito,moskito,moskito,,na-mɣɔ,,,0
48741957109,"Alavas: Alavas",-15.89046,167.24151,3810,egg,ek,ek,,nu-rul-to,,,0
48741957109,"Alavas: Alavas",-15.89046,167.24151,3830,tail,tel,tel,,na-valau-ne,,,0
48741957109,"Alavas: Alavas",-15.89046,167.24151,3840,wing,win,win,,na-ⁿdɛ-n,,,0
48741957109,"Alavas: Alavas",-15.89046,167.24151,3850,feather,feta,feta,,ni-ðil-muan,,,0
